{
"type": "FeatureCollection",
"name": "arieforce",
"crs": { "type": "name", "properties": { "name": "urn:ogc:def:crs:OGC:1.3:CRS84" } },
"features": [
{ "type": "Feature", "properties": { "id": 1 }, "geometry": { "type": "MultiLineString", "coordinates": [ [ [ -84.426416562464496, 33.496838524759447 ], [ -84.42822349472867, 33.497286500153557 ], [ -84.428263513123426, 33.497302337625058 ], [ -84.42828996596063, 33.497331184440739 ], [ -84.428293357350015, 33.497360031246778 ], [ -84.427530294738474, 33.499124193135721 ], [ -84.427747343659078, 33.498753150850597 ], [ -84.428159736608251, 33.497784813493539 ], [ -84.42817330216576, 33.497612298984222 ], [ -84.428134640326775, 33.497460146557913 ], [ -84.428011193753164, 33.497341365667502 ], [ -84.427853833285724, 33.4972440783406 ], [ -84.427745308825422, 33.497207878377111 ], [ -84.42639146618302, 33.496873027997204 ], [ -84.426297863835984, 33.496834565370648 ], [ -84.42624902782886, 33.496780265162869 ], [ -84.426105232918928, 33.496497451030123 ], [ -84.426098450140188, 33.49641826290739 ], [ -84.426113372253482, 33.496360568658091 ], [ -84.426159495149108, 33.496313055718012 ], [ -84.426228679492567, 33.496277986626488 ], [ -84.426314142505035, 33.49627233032006 ], [ -84.426388753071521, 33.496293824282475 ], [ -84.426443015301672, 33.496343599753914 ], [ -84.426459293970723, 33.496406950312512 ], [ -84.426459293970723, 33.496451069424168 ], [ -84.426418597298095, 33.496512157387798 ], [ -84.426304646614767, 33.496672795901254 ], [ -84.426299220391769, 33.496727096176443 ], [ -84.426312785949278, 33.496774608889275 ], [ -84.426352126066163, 33.496818727813569 ], [ -84.426415545047661, 33.496838241945973 ] ] ] } }
]
}
