{
  "type": "FeatureCollection",
  "features": [
    {
      "type": "Feature",
      "properties": {},
      "geometry": {
        "type": "LineString",
        "coordinates": [
          [
            -93.014957,
            34.521554
          ],
          [
            -93.01347,
            34.520998
          ],
          [
            -93.013302,
            34.520943
          ],
          [
            -93.01313,
            34.520893
          ],
          [
            -93.013031,
            34.520875
          ],
          [
            -93.01292,
            34.520864
          ],
          [
            -93.012774,
            34.520864
          ],
          [
            -93.011465,
            34.521009
          ],
          [
            -93.011304,
            34.521026
          ],
          [
            -93.011208,
            34.52108
          ],
          [
            -93.011167,
            34.521173
          ],
          [
            -93.011193,
            34.521267
          ],
          [
            -93.011265,
            34.521331
          ],
          [
            -93.011372,
            34.521359
          ],
          [
            -93.011461,
            34.521339
          ],
          [
            -93.012733,
            34.52094
          ],
          [
            -93.0129,
            34.520908
          ],
          [
            -93.012992,
            34.520905
          ],
          [
            -93.013064,
            34.52091
          ],
          [
            -93.013158,
            34.52093
          ],
          [
            -93.013289,
            34.520968
          ],
          [
            -93.013454,
            34.521022
          ],
          [
            -93.014335,
            34.521348
          ],
          [
            -93.01441,
            34.521386
          ],
          [
            -93.014459,
            34.521418
          ],
          [
            -93.014499,
            34.521447
          ],
          [
            -93.015531,
            34.522135
          ],
          [
            -93.01562,
            34.522174
          ],
          [
            -93.015721,
            34.522177
          ],
          [
            -93.015806,
            34.522147
          ],
          [
            -93.015871,
            34.522089
          ],
          [
            -93.015886,
            34.522018
          ],
          [
            -93.015864,
            34.521938
          ],
          [
            -93.015803,
            34.521875
          ],
          [
            -93.01572,
            34.521838
          ],
          [
            -93.014957,
            34.521554
          ]
        ]
      }
    }
  ]
}