{
  "type": "FeatureCollection",
  "features": [
    {
      "type": "Feature",
      "properties": {
        "stroke": "#ffff00",
        "fill": "#ffff00",
        "name": "Track"
      },
      "geometry": {
        "type": "LineString",
        "coordinates": [
          [
            -87.933808,
            42.368706
          ],
          [
            -87.933641,
            42.367596
          ],
          [
            -87.933631,
            42.367553
          ],
          [
            -87.933606,
            42.367517
          ],
          [
            -87.933567,
            42.367499
          ],
          [
            -87.933521,
            42.367503
          ],
          [
            -87.933478,
            42.367528
          ],
          [
            -87.933457,
            42.367559
          ],
          [
            -87.933444,
            42.3676
          ],
          [
            -87.93344,
            42.36765
          ],
          [
            -87.933445,
            42.367686
          ],
          [
            -87.933464,
            42.367742
          ],
          [
            -87.933499,
            42.367815
          ],
          [
            -87.933488,
            42.367733
          ],
          [
            -87.93354,
            42.367827
          ],
          [
            -87.93356,
            42.367865
          ],
          [
            -87.933572,
            42.36792
          ],
          [
            -87.933589,
            42.368342
          ],
          [
            -87.933591,
            42.368431
          ],
          [
            -87.93359,
            42.36851
          ],
          [
            -87.933578,
            42.368592
          ],
          [
            -87.933548,
            42.368505
          ],
          [
            -87.933546,
            42.368553
          ],
          [
            -87.93354,
            42.368667
          ],
          [
            -87.93354,
            42.368724
          ],
          [
            -87.933545,
            42.368777
          ],
          [
            -87.933555,
            42.368803
          ],
          [
            -87.933573,
            42.368849
          ],
          [
            -87.933601,
            42.368882
          ],
          [
            -87.933621,
            42.368893
          ],
          [
            -87.933655,
            42.368905
          ],
          [
            -87.933689,
            42.368907
          ],
          [
            -87.933716,
            42.368902
          ],
          [
            -87.933742,
            42.368891
          ],
          [
            -87.933762,
            42.368869
          ],
          [
            -87.933771,
            42.368842
          ],
          [
            -87.933763,
            42.368812
          ],
          [
            -87.933738,
            42.368785
          ],
          [
            -87.933706,
            42.368772
          ],
          [
            -87.933653,
            42.368769
          ],
          [
            -87.933602,
            42.36878
          ],
          [
            -87.933563,
            42.368798
          ],
          [
            -87.933384,
            42.36891
          ],
          [
            -87.933364,
            42.368917
          ],
          [
            -87.933329,
            42.368925
          ],
          [
            -87.933304,
            42.368928
          ],
          [
            -87.933279,
            42.368929
          ],
          [
            -87.93325,
            42.368924
          ],
          [
            -87.933223,
            42.368909
          ],
          [
            -87.933208,
            42.368883
          ],
          [
            -87.933208,
            42.36886
          ],
          [
            -87.933223,
            42.368826
          ],
          [
            -87.933241,
            42.368804
          ],
          [
            -87.933286,
            42.36877
          ],
          [
            -87.933313,
            42.368752
          ],
          [
            -87.933359,
            42.368719
          ],
          [
            -87.933401,
            42.36869
          ],
          [
            -87.933431,
            42.368661
          ],
          [
            -87.933451,
            42.368622
          ],
          [
            -87.933445,
            42.368591
          ],
          [
            -87.933417,
            42.368556
          ],
          [
            -87.933388,
            42.368519
          ],
          [
            -87.933375,
            42.368488
          ],
          [
            -87.933383,
            42.368454
          ],
          [
            -87.933398,
            42.368434
          ],
          [
            -87.933423,
            42.368416
          ],
          [
            -87.933462,
            42.368399
          ],
          [
            -87.933514,
            42.368389
          ],
          [
            -87.933564,
            42.368396
          ],
          [
            -87.933599,
            42.368411
          ],
          [
            -87.933622,
            42.368439
          ],
          [
            -87.933653,
            42.368504
          ],
          [
            -87.933667,
            42.368564
          ],
          [
            -87.933671,
            42.368617
          ],
          [
            -87.933668,
            42.368647
          ],
          [
            -87.933646,
            42.368681
          ],
          [
            -87.933619,
            42.368701
          ],
          [
            -87.933567,
            42.368711
          ],
          [
            -87.933511,
            42.368725
          ],
          [
            -87.933471,
            42.368743
          ],
          [
            -87.933449,
            42.36877
          ],
          [
            -87.933448,
            42.36881
          ],
          [
            -87.933454,
            42.368845
          ],
          [
            -87.933482,
            42.368889
          ],
          [
            -87.933518,
            42.368919
          ],
          [
            -87.933575,
            42.368947
          ],
          [
            -87.93363,
            42.36896
          ],
          [
            -87.933696,
            42.368962
          ],
          [
            -87.933755,
            42.368946
          ],
          [
            -87.9338,
            42.368917
          ],
          [
            -87.933825,
            42.368857
          ],
          [
            -87.93382,
            42.368788
          ],
          [
            -87.933808,
            42.368706
          ]
        ]
      }
    },
    {
      "type": "Feature",
      "properties": {
        "stroke": "#000000",
        "fill": "#000000",
        "name": "Station"
      },
      "geometry": {
        "type": "Polygon",
        "coordinates": [
          [
            [
              -87.933737,
              42.368711
            ],
            [
              -87.933838,
              42.368704
            ],
            [
              -87.933807,
              42.368464
            ],
            [
              -87.933789,
              42.368346
            ],
            [
              -87.933829,
              42.368342
            ],
            [
              -87.933822,
              42.368295
            ],
            [
              -87.933844,
              42.368293
            ],
            [
              -87.933834,
              42.368221
            ],
            [
              -87.933776,
              42.368224
            ],
            [
              -87.933675,
              42.368231
            ],
            [
              -87.933737,
              42.368711
            ]
          ]
        ]
      }
    }
  ],
  "properties": {
    "name": "Batman",
    "color": "#ffff00",
    "basemaps": [
      {
        "url": "https://data.isgs.illinois.edu/arcgis/rest/services/Imagery/IL_CUA_2005/ImageServer",
        "wmsLayer": "",
        "layerName": "IL CUA 2005"
      }
    ]
  }
}