{
  "type": "FeatureCollection",
  "features": [
    {
      "type": "Feature",
      "geometry": {
        "type": "LineString",
        "coordinates": [
          [
            -83.530251,
            35.798366
          ],
          [
            -83.530384,
            35.798215
          ],
          [
            -83.530396,
            35.798175
          ],
          [
            -83.530379,
            35.798133
          ],
          [
            -83.53034,
            35.798093
          ],
          [
            -83.529807,
            35.797556
          ],
          [
            -83.529665,
            35.797412
          ],
          [
            -83.529633,
            35.797372
          ],
          [
            -83.529617,
            35.797329
          ],
          [
            -83.529604,
            35.79727
          ],
          [
            -83.529589,
            35.797206
          ],
          [
            -83.529565,
            35.797161
          ],
          [
            -83.529523,
            35.797127
          ],
          [
            -83.529469,
            35.797113
          ],
          [
            -83.52934,
            35.797076
          ],
          [
            -83.529287,
            35.797039
          ],
          [
            -83.529263,
            35.796992
          ],
          [
            -83.529265,
            35.796938
          ],
          [
            -83.529295,
            35.796894
          ],
          [
            -83.529351,
            35.796864
          ],
          [
            -83.529404,
            35.796858
          ],
          [
            -83.52949,
            35.796864
          ],
          [
            -83.529568,
            35.796853
          ],
          [
            -83.529628,
            35.796828
          ],
          [
            -83.529698,
            35.79678
          ],
          [
            -83.529775,
            35.796733
          ],
          [
            -83.529823,
            35.796715
          ],
          [
            -83.52988,
            35.796711
          ],
          [
            -83.529942,
            35.796727
          ],
          [
            -83.530065,
            35.796752
          ],
          [
            -83.530135,
            35.796749
          ],
          [
            -83.530205,
            35.796724
          ],
          [
            -83.530251,
            35.796677
          ],
          [
            -83.530271,
            35.796634
          ],
          [
            -83.530296,
            35.79643
          ],
          [
            -83.530298,
            35.796367
          ],
          [
            -83.530279,
            35.796314
          ],
          [
            -83.530234,
            35.796267
          ],
          [
            -83.530182,
            35.796248
          ],
          [
            -83.530122,
            35.796246
          ],
          [
            -83.530073,
            35.796267
          ],
          [
            -83.530042,
            35.796308
          ],
          [
            -83.530062,
            35.796363
          ],
          [
            -83.53011,
            35.796404
          ],
          [
            -83.530199,
            35.796455
          ],
          [
            -83.530234,
            35.796485
          ],
          [
            -83.530253,
            35.796528
          ],
          [
            -83.530248,
            35.79657
          ],
          [
            -83.530222,
            35.796608
          ],
          [
            -83.530184,
            35.796641
          ],
          [
            -83.530093,
            35.796699
          ],
          [
            -83.530048,
            35.79673
          ],
          [
            -83.530017,
            35.796765
          ],
          [
            -83.529988,
            35.796806
          ],
          [
            -83.529949,
            35.796837
          ],
          [
            -83.529903,
            35.796857
          ],
          [
            -83.529845,
            35.796862
          ],
          [
            -83.52967,
            35.796843
          ],
          [
            -83.529615,
            35.796849
          ],
          [
            -83.529566,
            35.79687
          ],
          [
            -83.529533,
            35.7969
          ],
          [
            -83.529523,
            35.796933
          ],
          [
            -83.529528,
            35.796964
          ],
          [
            -83.529547,
            35.796996
          ],
          [
            -83.529581,
            35.79704
          ],
          [
            -83.529608,
            35.797084
          ],
          [
            -83.52963,
            35.797137
          ],
          [
            -83.529657,
            35.797208
          ],
          [
            -83.529661,
            35.797282
          ],
          [
            -83.529663,
            35.797355
          ],
          [
            -83.529669,
            35.797435
          ],
          [
            -83.529678,
            35.7975
          ],
          [
            -83.529721,
            35.797558
          ],
          [
            -83.530302,
            35.798125
          ],
          [
            -83.530364,
            35.798183
          ],
          [
            -83.530395,
            35.79824
          ],
          [
            -83.530404,
            35.798304
          ],
          [
            -83.530414,
            35.798367
          ],
          [
            -83.530445,
            35.798398
          ],
          [
            -83.530497,
            35.798417
          ],
          [
            -83.530559,
            35.798398
          ],
          [
            -83.530598,
            35.798376
          ],
          [
            -83.53078,
            35.798183
          ],
          [
            -83.530838,
            35.798153
          ],
          [
            -83.530894,
            35.798142
          ],
          [
            -83.530966,
            35.798149
          ],
          [
            -83.531018,
            35.798175
          ],
          [
            -83.531053,
            35.798221
          ],
          [
            -83.531069,
            35.798266
          ],
          [
            -83.531059,
            35.798328
          ],
          [
            -83.531016,
            35.798376
          ],
          [
            -83.530941,
            35.798406
          ],
          [
            -83.530842,
            35.79843
          ],
          [
            -83.530749,
            35.798466
          ],
          [
            -83.530672,
            35.798524
          ],
          [
            -83.530615,
            35.798569
          ],
          [
            -83.530552,
            35.79858
          ],
          [
            -83.530493,
            35.798563
          ],
          [
            -83.530428,
            35.798524
          ],
          [
            -83.530375,
            35.798494
          ],
          [
            -83.530329,
            35.798483
          ],
          [
            -83.530296,
            35.798488
          ],
          [
            -83.530265,
            35.7985
          ],
          [
            -83.53022,
            35.798538
          ],
          [
            -83.530189,
            35.798604
          ],
          [
            -83.530106,
            35.798873
          ],
          [
            -83.53011,
            35.798917
          ],
          [
            -83.530135,
            35.798951
          ],
          [
            -83.530182,
            35.798973
          ],
          [
            -83.530238,
            35.798972
          ],
          [
            -83.530284,
            35.798943
          ],
          [
            -83.530309,
            35.798899
          ],
          [
            -83.530313,
            35.798854
          ],
          [
            -83.530319,
            35.79881
          ],
          [
            -83.530339,
            35.798775
          ],
          [
            -83.530371,
            35.798744
          ],
          [
            -83.530728,
            35.798549
          ],
          [
            -83.530792,
            35.79851
          ],
          [
            -83.530823,
            35.79846
          ],
          [
            -83.530815,
            35.798409
          ],
          [
            -83.530782,
            35.798354
          ],
          [
            -83.530763,
            35.798307
          ],
          [
            -83.530768,
            35.798268
          ],
          [
            -83.53079,
            35.798232
          ],
          [
            -83.530832,
            35.798211
          ],
          [
            -83.530885,
            35.798202
          ],
          [
            -83.530929,
            35.798213
          ],
          [
            -83.530966,
            35.798247
          ],
          [
            -83.530964,
            35.798293
          ],
          [
            -83.530947,
            35.798326
          ],
          [
            -83.530912,
            35.798354
          ],
          [
            -83.530869,
            35.79837
          ],
          [
            -83.530815,
            35.798378
          ],
          [
            -83.530736,
            35.798384
          ],
          [
            -83.530675,
            35.798395
          ],
          [
            -83.530619,
            35.798416
          ],
          [
            -83.530515,
            35.798488
          ],
          [
            -83.530248,
            35.798706
          ],
          [
            -83.530186,
            35.798753
          ],
          [
            -83.530145,
            35.798778
          ],
          [
            -83.530089,
            35.798789
          ],
          [
            -83.530042,
            35.79877
          ],
          [
            -83.530025,
            35.798736
          ],
          [
            -83.530023,
            35.798698
          ],
          [
            -83.530038,
            35.798664
          ],
          [
            -83.530249,
            35.798368
          ]
        ]
      },
      "properties": {
        "name": "Track",
        "stroke": "#ff8000",
        "fill": "#ff8000"
      }
    },
    {
      "type": "Feature",
      "geometry": {
        "type": "Polygon",
        "coordinates": [
          [
            [
              -83.530329,
              35.798406
            ],
            [
              -83.530222,
              35.798356
            ],
            [
              -83.530193,
              35.798394
            ],
            [
              -83.530151,
              35.798372
            ],
            [
              -83.530193,
              35.798315
            ],
            [
              -83.530127,
              35.798282
            ],
            [
              -83.530044,
              35.798407
            ],
            [
              -83.530063,
              35.798417
            ],
            [
              -83.530019,
              35.79848
            ],
            [
              -83.530079,
              35.79851
            ],
            [
              -83.53011,
              35.798469
            ],
            [
              -83.530196,
              35.798511
            ],
            [
              -83.530263,
              35.79842
            ],
            [
              -83.530303,
              35.79844
            ],
            [
              -83.530329,
              35.798406
            ]
          ]
        ]
      },
      "properties": {
        "name": "Station",
        "stroke": "#008040",
        "fill": "#008040"
      }
    },
    {
      "type": "Feature",
      "geometry": {
        "type": "Polygon",
        "coordinates": [
          [
            [
              -83.529802,
              35.798699
            ],
            [
              -83.529802,
              35.798587
            ],
            [
              -83.529904,
              35.798587
            ],
            [
              -83.529906,
              35.798554
            ],
            [
              -83.529955,
              35.798556
            ],
            [
              -83.529955,
              35.798587
            ],
            [
              -83.529955,
              35.798613
            ],
            [
              -83.530006,
              35.798615
            ],
            [
              -83.530006,
              35.798643
            ],
            [
              -83.530006,
              35.798699
            ],
            [
              -83.529802,
              35.798699
            ]
          ]
        ]
      },
      "properties": {
        "name": "Storage shed",
        "stroke": "#008040",
        "fill": "#008040"
      }
    }
  ],
  "properties": {
    "name": "Big_Bear_Mountain",
    "color": "#ff8000",
    "basemaps": [
      {
        "id": "custom_layer_1789663432890",
        "url": "https://tnmap.tn.gov/arcgis/rest/services/BASEMAPS/IMAGERY_WEB_MERCATOR/MapServer",
        "wmsLayer": "",
        "layerName": "IMAGERY WEB MERCATOR",
        "opacity": 1
      }
    ]
  }
}