{
  "type": "FeatureCollection",
  "features": [
    {
      "type": "Feature",
      "properties": {
        "stroke": "#0000ff",
        "fill": "#0000ff"
      },
      "geometry": {
        "type": "LineString",
        "coordinates": [
          [
            7.718763,
            48.262357
          ],
          [
            7.719091,
            48.261964
          ],
          [
            7.719112,
            48.261941
          ],
          [
            7.71913,
            48.261931
          ],
          [
            7.719156,
            48.261925
          ],
          [
            7.719181,
            48.261928
          ],
          [
            7.719319,
            48.262005
          ],
          [
            7.719331,
            48.262014
          ],
          [
            7.719336,
            48.262024
          ],
          [
            7.719331,
            48.262034
          ],
          [
            7.719322,
            48.262042
          ],
          [
            7.719294,
            48.262068
          ],
          [
            7.718424,
            48.26282
          ],
          [
            7.718236,
            48.262981
          ],
          [
            7.718185,
            48.263017
          ],
          [
            7.718131,
            48.263043
          ],
          [
            7.718059,
            48.263057
          ],
          [
            7.71799,
            48.263056
          ],
          [
            7.717921,
            48.263039
          ],
          [
            7.717857,
            48.263009
          ],
          [
            7.717798,
            48.26297
          ],
          [
            7.717744,
            48.262922
          ],
          [
            7.717694,
            48.262871
          ],
          [
            7.717673,
            48.262813
          ],
          [
            7.717678,
            48.262761
          ],
          [
            7.717715,
            48.262705
          ],
          [
            7.717767,
            48.262665
          ],
          [
            7.717872,
            48.262603
          ],
          [
            7.718402,
            48.262306
          ],
          [
            7.718245,
            48.262479
          ],
          [
            7.718598,
            48.262229
          ],
          [
            7.718645,
            48.26218
          ],
          [
            7.718663,
            48.262133
          ],
          [
            7.71867,
            48.262077
          ],
          [
            7.71865,
            48.262013
          ],
          [
            7.718612,
            48.261969
          ],
          [
            7.71857,
            48.261933
          ],
          [
            7.71851,
            48.261898
          ],
          [
            7.718455,
            48.261875
          ],
          [
            7.718378,
            48.261856
          ],
          [
            7.718299,
            48.261849
          ],
          [
            7.718232,
            48.261869
          ],
          [
            7.71818,
            48.261903
          ],
          [
            7.717958,
            48.262103
          ],
          [
            7.717896,
            48.262167
          ],
          [
            7.717855,
            48.262229
          ],
          [
            7.717838,
            48.262296
          ],
          [
            7.717848,
            48.262391
          ],
          [
            7.717857,
            48.262461
          ],
          [
            7.717854,
            48.262518
          ],
          [
            7.717839,
            48.262571
          ],
          [
            7.717813,
            48.262608
          ],
          [
            7.717769,
            48.262637
          ],
          [
            7.717705,
            48.262656
          ],
          [
            7.717601,
            48.262689
          ],
          [
            7.717538,
            48.262725
          ],
          [
            7.717476,
            48.262766
          ],
          [
            7.71743,
            48.262824
          ],
          [
            7.717417,
            48.262883
          ],
          [
            7.717444,
            48.262938
          ],
          [
            7.71749,
            48.262974
          ],
          [
            7.717547,
            48.263003
          ],
          [
            7.717626,
            48.263015
          ],
          [
            7.717683,
            48.263017
          ],
          [
            7.717754,
            48.262997
          ],
          [
            7.717812,
            48.262971
          ],
          [
            7.717857,
            48.262937
          ],
          [
            7.717905,
            48.262895
          ],
          [
            7.717942,
            48.262858
          ],
          [
            7.717956,
            48.262823
          ],
          [
            7.717958,
            48.262783
          ],
          [
            7.717965,
            48.262745
          ],
          [
            7.717971,
            48.262721
          ],
          [
            7.717988,
            48.262696
          ],
          [
            7.718012,
            48.262672
          ],
          [
            7.71806,
            48.262648
          ],
          [
            7.718103,
            48.262635
          ],
          [
            7.718166,
            48.262619
          ],
          [
            7.718228,
            48.262593
          ],
          [
            7.718276,
            48.262567
          ],
          [
            7.718308,
            48.262526
          ],
          [
            7.718325,
            48.262481
          ],
          [
            7.718328,
            48.262442
          ],
          [
            7.718306,
            48.262403
          ],
          [
            7.718264,
            48.262357
          ],
          [
            7.718141,
            48.262249
          ],
          [
            7.718107,
            48.262215
          ],
          [
            7.718089,
            48.262182
          ],
          [
            7.718083,
            48.262138
          ],
          [
            7.718087,
            48.262091
          ],
          [
            7.718114,
            48.262055
          ],
          [
            7.718158,
            48.262031
          ],
          [
            7.718207,
            48.262017
          ],
          [
            7.718255,
            48.262011
          ],
          [
            7.718304,
            48.262018
          ],
          [
            7.718353,
            48.262038
          ],
          [
            7.718379,
            48.262076
          ],
          [
            7.718385,
            48.262113
          ],
          [
            7.718376,
            48.262155
          ],
          [
            7.718345,
            48.2622
          ],
          [
            7.718302,
            48.262246
          ],
          [
            7.718249,
            48.262285
          ],
          [
            7.717963,
            48.262514
          ],
          [
            7.717912,
            48.26255
          ],
          [
            7.717877,
            48.262589
          ],
          [
            7.717865,
            48.262627
          ],
          [
            7.717871,
            48.262674
          ],
          [
            7.717887,
            48.262706
          ],
          [
            7.717921,
            48.262734
          ],
          [
            7.717952,
            48.26275
          ],
          [
            7.717999,
            48.262767
          ],
          [
            7.718056,
            48.262772
          ],
          [
            7.718103,
            48.26277
          ],
          [
            7.718159,
            48.262756
          ],
          [
            7.718214,
            48.262735
          ],
          [
            7.71828,
            48.2627
          ],
          [
            7.718707,
            48.262405
          ],
          [
            7.71874,
            48.26238
          ],
          [
            7.718763,
            48.262357
          ]
        ]
      }
    }
  ],
  "properties": {
    "name": "Blue Fire",
    "color": "#0000ff",
    "basemaps": [
      {
        "url": "https://owsproxy.lgl-bw.de/owsproxy/ows/WMS_LGL-BW_ATKIS_HIST_DOP_20_RGB?",
        "wmsLayer": "",
        "layerName": "Custom Layer 1"
      }
    ]
  }
}