{
  "type": "FeatureCollection",
  "features": [
    {
      "type": "Feature",
      "properties": {
        "name": "Track"
      },
      "geometry": {
        "type": "LineString",
        "coordinates": [
          [
            -73.687998,
            43.351064
          ],
          [
            -73.687812,
            43.350579
          ],
          [
            -73.687807,
            43.350565
          ],
          [
            -73.687798,
            43.350556
          ],
          [
            -73.687786,
            43.350551
          ],
          [
            -73.687771,
            43.350551
          ],
          [
            -73.687745,
            43.350553
          ],
          [
            -73.687728,
            43.350561
          ],
          [
            -73.687715,
            43.350573
          ],
          [
            -73.687709,
            43.350589
          ],
          [
            -73.687651,
            43.351057
          ],
          [
            -73.687647,
            43.351099
          ],
          [
            -73.687648,
            43.351136
          ],
          [
            -73.687654,
            43.351153
          ],
          [
            -73.687674,
            43.351183
          ],
          [
            -73.687698,
            43.351216
          ],
          [
            -73.688084,
            43.35147
          ],
          [
            -73.688131,
            43.351506
          ],
          [
            -73.688166,
            43.351553
          ],
          [
            -73.68818,
            43.351599
          ],
          [
            -73.688168,
            43.351644
          ],
          [
            -73.688141,
            43.351675
          ],
          [
            -73.688093,
            43.351694
          ],
          [
            -73.688044,
            43.3517
          ],
          [
            -73.688005,
            43.351696
          ],
          [
            -73.687782,
            43.351644
          ],
          [
            -73.687742,
            43.351624
          ],
          [
            -73.687711,
            43.35159
          ],
          [
            -73.687696,
            43.351553
          ],
          [
            -73.687703,
            43.351511
          ],
          [
            -73.687726,
            43.351471
          ],
          [
            -73.687758,
            43.351443
          ],
          [
            -73.687917,
            43.351346
          ],
          [
            -73.687943,
            43.351322
          ],
          [
            -73.68796,
            43.351294
          ],
          [
            -73.687962,
            43.351261
          ],
          [
            -73.687951,
            43.351228
          ],
          [
            -73.687929,
            43.351203
          ],
          [
            -73.687902,
            43.35118
          ],
          [
            -73.687864,
            43.351165
          ],
          [
            -73.68781,
            43.351151
          ],
          [
            -73.687411,
            43.351072
          ],
          [
            -73.687366,
            43.351055
          ],
          [
            -73.687334,
            43.35103
          ],
          [
            -73.687316,
            43.350997
          ],
          [
            -73.68732,
            43.350964
          ],
          [
            -73.687338,
            43.35094
          ],
          [
            -73.687378,
            43.350924
          ],
          [
            -73.687418,
            43.350917
          ],
          [
            -73.68746,
            43.350921
          ],
          [
            -73.687499,
            43.350932
          ],
          [
            -73.687539,
            43.350944
          ],
          [
            -73.687878,
            43.351079
          ],
          [
            -73.687892,
            43.351088
          ],
          [
            -73.687902,
            43.351098
          ],
          [
            -73.687912,
            43.351105
          ],
          [
            -73.687929,
            43.351108
          ],
          [
            -73.687954,
            43.351105
          ],
          [
            -73.687978,
            43.3511
          ],
          [
            -73.687997,
            43.351092
          ],
          [
            -73.688003,
            43.351082
          ],
          [
            -73.688002,
            43.351074
          ],
          [
            -73.687998,
            43.351064
          ]
        ]
      }
    },
    {
      "type": "Feature",
      "properties": {
        "stroke": "#00ff00",
        "fill": "#00ff00",
        "name": "Station"
      },
      "geometry": {
        "type": "Polygon",
        "coordinates": [
          [
            [
              -73.688027,
              43.351011
            ],
            [
              -73.687874,
              43.351039
            ],
            [
              -73.687842,
              43.350961
            ],
            [
              -73.687995,
              43.35093
            ],
            [
              -73.688027,
              43.351011
            ]
          ]
        ]
      }
    }
  ],
  "properties": {
    "name": "Bobcat",
    "color": "#ff2a00",
    "basemaps": [
      {
        "url": "https://orthos.its.ny.gov/arcgis/rest/services/wms/Latest/MapServer",
        "wmsLayer": "",
        "layerName": "Latest"
      }
    ]
  }
}