{
  "type": "FeatureCollection",
  "features": [
    {
      "type": "Feature",
      "geometry": {
        "type": "LineString",
        "coordinates": [
          [
            -97.645369,
            30.133277,
            0
          ],
          [
            -97.644797,
            30.132864,
            0
          ],
          [
            -97.644745,
            30.132825,
            0
          ],
          [
            -97.64471,
            30.132812,
            0
          ],
          [
            -97.644672,
            30.132819,
            0
          ],
          [
            -97.644636,
            30.132847,
            0
          ],
          [
            -97.644628,
            30.132888,
            0
          ],
          [
            -97.644754,
            30.133281,
            0
          ],
          [
            -97.644764,
            30.133313,
            0
          ],
          [
            -97.644764,
            30.133339,
            0
          ],
          [
            -97.64476,
            30.133359,
            0
          ],
          [
            -97.644753,
            30.13339,
            0
          ],
          [
            -97.644768,
            30.133359,
            0
          ],
          [
            -97.644798,
            30.13333,
            0
          ],
          [
            -97.644829,
            30.133311,
            0
          ],
          [
            -97.64488,
            30.133301,
            0
          ],
          [
            -97.644922,
            30.133289,
            0
          ],
          [
            -97.644953,
            30.13327,
            0
          ],
          [
            -97.644972,
            30.133259,
            0
          ],
          [
            -97.644984,
            30.13324,
            0
          ],
          [
            -97.644982,
            30.133213,
            0
          ],
          [
            -97.64496,
            30.133185,
            0
          ],
          [
            -97.644942,
            30.133158,
            0
          ],
          [
            -97.64492,
            30.13313,
            0
          ],
          [
            -97.644901,
            30.133099
          ],
          [
            -97.644892,
            30.133068
          ],
          [
            -97.644893,
            30.133034
          ],
          [
            -97.6449,
            30.132994,
            0
          ],
          [
            -97.644902,
            30.132951,
            0
          ],
          [
            -97.64489,
            30.132906,
            0
          ],
          [
            -97.644889,
            30.132904,
            0
          ],
          [
            -97.644862,
            30.132865,
            0
          ],
          [
            -97.644837,
            30.13284,
            0
          ],
          [
            -97.644794,
            30.132808,
            0
          ],
          [
            -97.644623,
            30.13271,
            0
          ],
          [
            -97.644792,
            30.132834,
            0
          ],
          [
            -97.644823,
            30.132856,
            0
          ],
          [
            -97.644855,
            30.132872,
            0
          ],
          [
            -97.644881,
            30.132876,
            0
          ],
          [
            -97.644913,
            30.132887,
            0
          ],
          [
            -97.644956,
            30.132912,
            0
          ],
          [
            -97.64498,
            30.132941,
            0
          ],
          [
            -97.644993,
            30.132987,
            0
          ],
          [
            -97.644999,
            30.133049,
            0
          ],
          [
            -97.645001,
            30.133099,
            0
          ],
          [
            -97.645005,
            30.133167,
            0
          ],
          [
            -97.645012,
            30.133254,
            0
          ],
          [
            -97.645011,
            30.133316,
            0
          ],
          [
            -97.644996,
            30.133353,
            0
          ],
          [
            -97.644971,
            30.133381,
            0
          ],
          [
            -97.64494,
            30.133397,
            0
          ],
          [
            -97.644903,
            30.133408,
            0
          ],
          [
            -97.64485,
            30.133421,
            0
          ],
          [
            -97.644801,
            30.133436,
            0
          ],
          [
            -97.644754,
            30.133445,
            0
          ],
          [
            -97.644705,
            30.13344,
            0
          ],
          [
            -97.644668,
            30.133414,
            0
          ],
          [
            -97.644648,
            30.133378,
            0
          ],
          [
            -97.644646,
            30.13334,
            0
          ],
          [
            -97.644655,
            30.133311,
            0
          ],
          [
            -97.64468,
            30.133278,
            0
          ],
          [
            -97.644709,
            30.133252,
            0
          ],
          [
            -97.644763,
            30.133221,
            0
          ],
          [
            -97.644805,
            30.133199,
            0
          ],
          [
            -97.644838,
            30.133165,
            0
          ],
          [
            -97.644856,
            30.133133,
            0
          ],
          [
            -97.644861,
            30.133098,
            0
          ],
          [
            -97.644853,
            30.133057,
            0
          ],
          [
            -97.644834,
            30.133016,
            0
          ],
          [
            -97.64479,
            30.132989,
            0
          ],
          [
            -97.644747,
            30.132973,
            0
          ],
          [
            -97.644697,
            30.132972,
            0
          ],
          [
            -97.644645,
            30.132985,
            0
          ],
          [
            -97.644612,
            30.133007,
            0
          ],
          [
            -97.64459,
            30.133043,
            0
          ],
          [
            -97.644583,
            30.133079,
            0
          ],
          [
            -97.644588,
            30.133108,
            0
          ],
          [
            -97.644603,
            30.133142,
            0
          ],
          [
            -97.644615,
            30.133175,
            0
          ],
          [
            -97.644629,
            30.133222,
            0
          ],
          [
            -97.644626,
            30.133269,
            0
          ],
          [
            -97.644609,
            30.133327,
            0
          ],
          [
            -97.644602,
            30.133389,
            0
          ],
          [
            -97.644616,
            30.133442,
            0
          ],
          [
            -97.644652,
            30.13349,
            0
          ],
          [
            -97.644674,
            30.133517,
            0
          ],
          [
            -97.644716,
            30.133536,
            0
          ],
          [
            -97.64478,
            30.133538,
            0
          ],
          [
            -97.644826,
            30.133526,
            0
          ],
          [
            -97.645341,
            30.133376,
            0
          ],
          [
            -97.645373,
            30.133365,
            0
          ],
          [
            -97.64539,
            30.133348,
            0
          ],
          [
            -97.645395,
            30.133325,
            0
          ],
          [
            -97.645389,
            30.133297,
            0
          ],
          [
            -97.645369,
            30.133277,
            0
          ]
        ]
      },
      "properties": {
        "name": "Circuit Breaker",
        "styleUrl": "#m_ylw-pushpin",
        "styleHash": "11bca759",
        "styleMapHash": {
          "normal": "#s_ylw-pushpin",
          "highlight": "#s_ylw-pushpin_hl"
        },
        "icon-scale": 1.1,
        "icon-offset": [
          20,
          2
        ],
        "icon": "http://maps.google.com/mapfiles/kml/pushpin/ylw-pushpin.png"
      }
    }
  ]
}