{
  "type": "FeatureCollection",
  "features": [
    {
      "type": "Feature",
      "properties": {
        "name": "Track",
        "stroke": "#c10000",
        "fill": "#c10000"
      },
      "geometry": {
        "type": "LineString",
        "coordinates": [
          [
            -6.459085,
            53.546119
          ],
          [
            -6.459018,
            53.545998
          ],
          [
            -6.459003,
            53.545976
          ],
          [
            -6.458976,
            53.545967
          ],
          [
            -6.458942,
            53.545966
          ],
          [
            -6.458903,
            53.545971
          ],
          [
            -6.456663,
            53.546368
          ],
          [
            -6.456553,
            53.546397
          ],
          [
            -6.456459,
            53.546433
          ],
          [
            -6.45637,
            53.54648
          ],
          [
            -6.456314,
            53.546549
          ],
          [
            -6.456319,
            53.546619
          ],
          [
            -6.456369,
            53.546684
          ],
          [
            -6.456464,
            53.546731
          ],
          [
            -6.456555,
            53.546751
          ],
          [
            -6.456638,
            53.546758
          ],
          [
            -6.457267,
            53.54681
          ],
          [
            -6.457372,
            53.546808
          ],
          [
            -6.457473,
            53.546793
          ],
          [
            -6.457563,
            53.546766
          ],
          [
            -6.457631,
            53.546733
          ],
          [
            -6.457701,
            53.546683
          ],
          [
            -6.457961,
            53.546433
          ],
          [
            -6.458011,
            53.546394
          ],
          [
            -6.45807,
            53.546365
          ],
          [
            -6.458213,
            53.546296
          ],
          [
            -6.458271,
            53.546266
          ],
          [
            -6.458311,
            53.546237
          ],
          [
            -6.45835,
            53.546197
          ],
          [
            -6.458472,
            53.545961
          ],
          [
            -6.458512,
            53.545899
          ],
          [
            -6.458557,
            53.545856
          ],
          [
            -6.458621,
            53.54581
          ],
          [
            -6.458682,
            53.545787
          ],
          [
            -6.458756,
            53.545775
          ],
          [
            -6.458841,
            53.545788
          ],
          [
            -6.458892,
            53.545827
          ],
          [
            -6.458925,
            53.545885
          ],
          [
            -6.458918,
            53.545947
          ],
          [
            -6.458884,
            53.546138
          ],
          [
            -6.458858,
            53.54618
          ],
          [
            -6.458804,
            53.54622
          ],
          [
            -6.458739,
            53.546252
          ],
          [
            -6.458499,
            53.546346
          ],
          [
            -6.458405,
            53.546368
          ],
          [
            -6.458332,
            53.546369
          ],
          [
            -6.458254,
            53.54636
          ],
          [
            -6.458185,
            53.546335
          ],
          [
            -6.458013,
            53.546274
          ],
          [
            -6.457949,
            53.546253
          ],
          [
            -6.457876,
            53.546237
          ],
          [
            -6.457778,
            53.546225
          ],
          [
            -6.457659,
            53.546223
          ],
          [
            -6.457564,
            53.546232
          ],
          [
            -6.456674,
            53.546388
          ],
          [
            -6.456576,
            53.546418
          ],
          [
            -6.456479,
            53.546455
          ],
          [
            -6.456404,
            53.546496
          ],
          [
            -6.456362,
            53.54655
          ],
          [
            -6.456363,
            53.546617
          ],
          [
            -6.456408,
            53.546676
          ],
          [
            -6.456481,
            53.546709
          ],
          [
            -6.456558,
            53.546726
          ],
          [
            -6.45664,
            53.546732
          ],
          [
            -6.457271,
            53.546784
          ],
          [
            -6.457369,
            53.546784
          ],
          [
            -6.457461,
            53.54677
          ],
          [
            -6.457544,
            53.546746
          ],
          [
            -6.457606,
            53.546714
          ],
          [
            -6.45767,
            53.546667
          ],
          [
            -6.457927,
            53.546417
          ],
          [
            -6.457941,
            53.54638
          ],
          [
            -6.457938,
            53.546337
          ],
          [
            -6.457907,
            53.546299
          ],
          [
            -6.457855,
            53.546275
          ],
          [
            -6.457802,
            53.546259
          ],
          [
            -6.457732,
            53.546256
          ],
          [
            -6.45763,
            53.546259
          ],
          [
            -6.457562,
            53.546264
          ],
          [
            -6.4574,
            53.54629
          ],
          [
            -6.457326,
            53.546309
          ],
          [
            -6.45727,
            53.546335
          ],
          [
            -6.457238,
            53.546373
          ],
          [
            -6.457248,
            53.546416
          ],
          [
            -6.457279,
            53.546454
          ],
          [
            -6.457363,
            53.546493
          ],
          [
            -6.457935,
            53.546572
          ],
          [
            -6.458021,
            53.546574
          ],
          [
            -6.458106,
            53.546563
          ],
          [
            -6.458186,
            53.54654
          ],
          [
            -6.459016,
            53.546204
          ],
          [
            -6.459047,
            53.546186
          ],
          [
            -6.459085,
            53.546158
          ],
          [
            -6.459094,
            53.546138
          ],
          [
            -6.459085,
            53.546119
          ]
        ]
      }
    },
    {
      "type": "Feature",
      "properties": {
        "stroke": "#fdf382",
        "fill": "#fdf382",
        "name": "Storage"
      },
      "geometry": {
        "type": "Polygon",
        "coordinates": [
          [
            [
              -6.459026,
              53.546299
            ],
            [
              -6.458851,
              53.546369
            ],
            [
              -6.45876,
              53.546289
            ],
            [
              -6.458935,
              53.546219
            ],
            [
              -6.459026,
              53.546299
            ]
          ]
        ]
      }
    },
    {
      "type": "Feature",
      "properties": {
        "stroke": "#fdf382",
        "fill": "#fdf382",
        "name": "Storage/switch tracks"
      },
      "geometry": {
        "type": "LineString",
        "coordinates": [
          [
            -6.459054,
            53.54621
          ],
          [
            -6.459034,
            53.546222
          ],
          [
            -6.459027,
            53.546234
          ],
          [
            -6.459028,
            53.546251
          ],
          [
            -6.459022,
            53.546265
          ],
          [
            -6.459003,
            53.546278
          ],
          [
            -6.458827,
            53.546348
          ],
          [
            -6.4588,
            53.546354
          ],
          [
            -6.458771,
            53.546353
          ],
          [
            -6.458741,
            53.54635
          ],
          [
            -6.458715,
            53.546351
          ],
          [
            -6.45869,
            53.546359
          ]
        ]
      }
    },
    {
      "type": "Feature",
      "properties": {
        "stroke": "#ffffff",
        "fill": "#ffffff",
        "name": "Station"
      },
      "geometry": {
        "type": "Polygon",
        "coordinates": [
          [
            [
              -6.459011,
              53.546134
            ],
            [
              -6.458942,
              53.546013
            ],
            [
              -6.459102,
              53.545981
            ],
            [
              -6.459171,
              53.546102
            ],
            [
              -6.459011,
              53.546134
            ]
          ]
        ]
      }
    }
  ],
  "properties": {
    "name": "Cú Chulainn",
    "color": "#c10000",
    "basemaps": []
  }
}