{
  "type": "FeatureCollection",
  "features": [
    {
      "type": "Feature",
      "properties": {},
      "geometry": {
        "type": "LineString",
        "coordinates": [
          [
            -121.973896,
            37.393904
          ],
          [
            -121.974105,
            37.394471
          ],
          [
            -121.974126,
            37.394515
          ],
          [
            -121.97416,
            37.394549
          ],
          [
            -121.974701,
            37.394951
          ],
          [
            -121.974752,
            37.39498
          ],
          [
            -121.974819,
            37.394981
          ],
          [
            -121.97487,
            37.394951
          ],
          [
            -121.974889,
            37.394907
          ],
          [
            -121.974878,
            37.394859
          ],
          [
            -121.974836,
            37.394807
          ],
          [
            -121.974502,
            37.394361
          ],
          [
            -121.974587,
            37.394447
          ],
          [
            -121.974332,
            37.394102
          ],
          [
            -121.974377,
            37.394188
          ],
          [
            -121.973564,
            37.393108
          ],
          [
            -121.973529,
            37.393069
          ],
          [
            -121.973479,
            37.393041
          ],
          [
            -121.97342,
            37.393022
          ],
          [
            -121.973357,
            37.393021
          ],
          [
            -121.973304,
            37.393037
          ],
          [
            -121.97326,
            37.393066
          ],
          [
            -121.973236,
            37.393105
          ],
          [
            -121.973233,
            37.39315
          ],
          [
            -121.973257,
            37.393197
          ],
          [
            -121.973301,
            37.39323
          ],
          [
            -121.973499,
            37.393318
          ],
          [
            -121.973595,
            37.393368
          ],
          [
            -121.973615,
            37.393393
          ],
          [
            -121.973627,
            37.393426
          ],
          [
            -121.973616,
            37.393464
          ],
          [
            -121.973576,
            37.393515
          ],
          [
            -121.973558,
            37.393542
          ],
          [
            -121.973557,
            37.393563
          ],
          [
            -121.973573,
            37.393586
          ],
          [
            -121.973617,
            37.393618
          ],
          [
            -121.973652,
            37.393647
          ],
          [
            -121.973666,
            37.393683
          ],
          [
            -121.973647,
            37.393718
          ],
          [
            -121.973615,
            37.393759
          ],
          [
            -121.973594,
            37.39379
          ],
          [
            -121.9736,
            37.393818
          ],
          [
            -121.973637,
            37.393849
          ],
          [
            -121.973696,
            37.393898
          ],
          [
            -121.973717,
            37.393932
          ],
          [
            -121.97373,
            37.393972
          ],
          [
            -121.97373,
            37.39402
          ],
          [
            -121.973712,
            37.394061
          ],
          [
            -121.973668,
            37.3941
          ],
          [
            -121.973614,
            37.394118
          ],
          [
            -121.973555,
            37.394116
          ],
          [
            -121.973507,
            37.394099
          ],
          [
            -121.973472,
            37.394069
          ],
          [
            -121.973457,
            37.394032
          ],
          [
            -121.97346,
            37.393991
          ],
          [
            -121.973487,
            37.393956
          ],
          [
            -121.973534,
            37.393927
          ],
          [
            -121.973725,
            37.393822
          ],
          [
            -121.973767,
            37.393807
          ],
          [
            -121.973816,
            37.393809
          ],
          [
            -121.973854,
            37.393827
          ],
          [
            -121.973879,
            37.393859
          ],
          [
            -121.973896,
            37.393904
          ]
        ]
      }
    }
  ]
}