{
  "type": "FeatureCollection",
  "features": [
    {
      "type": "Feature",
      "geometry": {
        "type": "LineString",
        "coordinates": [
          [
            -79.079058,
            43.061508,
            0
          ],
          [
            -79.080839,
            43.062014,
            0
          ],
          [
            -79.080895,
            43.062017,
            0
          ],
          [
            -79.080945,
            43.062003,
            0
          ],
          [
            -79.080985,
            43.061974,
            0
          ],
          [
            -79.080993,
            43.061926,
            0
          ],
          [
            -79.080943,
            43.061864,
            0
          ],
          [
            -79.080425,
            43.06137
          ],
          [
            -79.080537,
            43.061442
          ],
          [
            -79.080255,
            43.061194
          ],
          [
            -79.080367,
            43.061267,
            0
          ],
          [
            -79.079981,
            43.060911,
            0
          ],
          [
            -79.079898,
            43.060839,
            0
          ],
          [
            -79.079866,
            43.060767,
            0
          ],
          [
            -79.079884,
            43.0607,
            0
          ],
          [
            -79.079929,
            43.060658,
            0
          ],
          [
            -79.080001,
            43.060623,
            0
          ],
          [
            -79.080098,
            43.060618,
            0
          ],
          [
            -79.080184,
            43.060649,
            0
          ],
          [
            -79.080247,
            43.060712,
            0
          ],
          [
            -79.080645,
            43.061125,
            0
          ],
          [
            -79.080703,
            43.061158,
            0
          ],
          [
            -79.080788,
            43.061209,
            0
          ],
          [
            -79.081212,
            43.061344,
            0
          ],
          [
            -79.081287,
            43.061354,
            0
          ],
          [
            -79.081356,
            43.061337,
            0
          ],
          [
            -79.081408,
            43.0613,
            0
          ],
          [
            -79.081435,
            43.061244,
            0
          ],
          [
            -79.08142,
            43.061181,
            0
          ],
          [
            -79.081367,
            43.06114,
            0
          ],
          [
            -79.081297,
            43.061118,
            0
          ],
          [
            -79.081226,
            43.061121,
            0
          ],
          [
            -79.081181,
            43.06114,
            0
          ],
          [
            -79.081143,
            43.061163,
            0
          ],
          [
            -79.081115,
            43.061201,
            0
          ],
          [
            -79.081109,
            43.061244,
            0
          ],
          [
            -79.081123,
            43.061285,
            0
          ],
          [
            -79.081155,
            43.061311,
            0
          ],
          [
            -79.081213,
            43.061342,
            0
          ],
          [
            -79.081288,
            43.061354,
            0
          ],
          [
            -79.081355,
            43.061338,
            0
          ],
          [
            -79.081408,
            43.061299,
            0
          ],
          [
            -79.081434,
            43.061243,
            0
          ],
          [
            -79.081421,
            43.061182,
            0
          ],
          [
            -79.081367,
            43.06114,
            0
          ],
          [
            -79.081296,
            43.061118,
            0
          ],
          [
            -79.081226,
            43.061121,
            0
          ],
          [
            -79.081181,
            43.06114,
            0
          ],
          [
            -79.081143,
            43.061162,
            0
          ],
          [
            -79.081116,
            43.061201,
            0
          ],
          [
            -79.081108,
            43.061244,
            0
          ],
          [
            -79.081124,
            43.061287,
            0
          ],
          [
            -79.081468,
            43.061871,
            0
          ],
          [
            -79.081533,
            43.061925,
            0
          ],
          [
            -79.081637,
            43.061983,
            0
          ],
          [
            -79.081791,
            43.062033,
            0
          ],
          [
            -79.081907,
            43.062036,
            0
          ],
          [
            -79.082039,
            43.062025,
            0
          ],
          [
            -79.082165,
            43.061982,
            0
          ],
          [
            -79.082166,
            43.061981,
            0
          ],
          [
            -79.082262,
            43.061925,
            0
          ],
          [
            -79.08235,
            43.061848,
            0
          ],
          [
            -79.082657,
            43.061187,
            0
          ],
          [
            -79.082689,
            43.061089,
            0
          ],
          [
            -79.082692,
            43.061013,
            0
          ],
          [
            -79.082667,
            43.060928,
            0
          ],
          [
            -79.08263,
            43.060861,
            0
          ],
          [
            -79.082577,
            43.060806,
            0
          ],
          [
            -79.082514,
            43.060758,
            0
          ],
          [
            -79.082429,
            43.060714,
            0
          ],
          [
            -79.082347,
            43.060684,
            0
          ],
          [
            -79.082233,
            43.060668,
            0
          ],
          [
            -79.082134,
            43.060655,
            0
          ],
          [
            -79.082022,
            43.06066,
            0
          ],
          [
            -79.081911,
            43.06068,
            0
          ],
          [
            -79.081787,
            43.060712,
            0
          ],
          [
            -79.081676,
            43.060761,
            0
          ],
          [
            -79.081572,
            43.060823,
            0
          ],
          [
            -79.081478,
            43.060872,
            0
          ],
          [
            -79.081411,
            43.060897,
            0
          ],
          [
            -79.081319,
            43.060917,
            0
          ],
          [
            -79.081198,
            43.060916,
            0
          ],
          [
            -79.079575,
            43.060834,
            0
          ],
          [
            -79.07947,
            43.060843,
            0
          ],
          [
            -79.079401,
            43.06086,
            0
          ],
          [
            -79.079357,
            43.060883,
            0
          ],
          [
            -79.079336,
            43.060922,
            0
          ],
          [
            -79.079337,
            43.06095
          ],
          [
            -79.079353,
            43.061013,
            0
          ],
          [
            -79.079279,
            43.060728,
            0
          ],
          [
            -79.079297,
            43.060792,
            0
          ],
          [
            -79.079291,
            43.060833,
            0
          ],
          [
            -79.07926,
            43.060855,
            0
          ],
          [
            -79.079214,
            43.060863,
            0
          ],
          [
            -79.079142,
            43.060876,
            0
          ],
          [
            -79.079021,
            43.060897,
            0
          ],
          [
            -79.078277,
            43.061006,
            0
          ],
          [
            -79.078194,
            43.061025,
            0
          ],
          [
            -79.078151,
            43.061068,
            0
          ],
          [
            -79.078114,
            43.061113,
            0
          ],
          [
            -79.078102,
            43.061152,
            0
          ],
          [
            -79.078133,
            43.061213,
            0
          ],
          [
            -79.07819,
            43.061272,
            0
          ],
          [
            -79.078273,
            43.061302,
            0
          ],
          [
            -79.07835,
            43.061321,
            0
          ],
          [
            -79.078421,
            43.061339,
            0
          ],
          [
            -79.079058,
            43.061508,
            0
          ]
        ]
      },
      "properties": {
        "name": "Dragon Mountain",
        "styleUrl": "#m_ylw-pushpin",
        "styleHash": "11bca759",
        "styleMapHash": {
          "normal": "#s_ylw-pushpin",
          "highlight": "#s_ylw-pushpin_hl"
        },
        "icon-scale": 1.1,
        "icon-offset": [
          20,
          2
        ],
        "icon": "http://maps.google.com/mapfiles/kml/pushpin/ylw-pushpin.png"
      }
    }
  ]
}