{
  "type": "FeatureCollection",
  "features": [
    {
      "type": "Feature",
      "properties": {
        "name": "Track"
      },
      "geometry": {
        "type": "LineString",
        "coordinates": [
          [
            -74.440881,
            40.137057
          ],
          [
            -74.440958,
            40.137383
          ],
          [
            -74.441003,
            40.137598
          ],
          [
            -74.440899,
            40.137305
          ],
          [
            -74.440875,
            40.137257
          ],
          [
            -74.440859,
            40.137225
          ],
          [
            -74.440851,
            40.137203
          ],
          [
            -74.440849,
            40.137165
          ],
          [
            -74.440845,
            40.137118
          ],
          [
            -74.440832,
            40.137058
          ],
          [
            -74.440659,
            40.136309
          ],
          [
            -74.440646,
            40.136278
          ],
          [
            -74.440631,
            40.136248
          ],
          [
            -74.440624,
            40.136225
          ],
          [
            -74.440622,
            40.136201
          ],
          [
            -74.44063,
            40.136181
          ],
          [
            -74.440644,
            40.136166
          ],
          [
            -74.440666,
            40.136163
          ],
          [
            -74.440684,
            40.136175
          ],
          [
            -74.440693,
            40.136197
          ],
          [
            -74.440762,
            40.136536
          ],
          [
            -74.440768,
            40.136581
          ],
          [
            -74.440771,
            40.136613
          ],
          [
            -74.440774,
            40.136635
          ],
          [
            -74.440783,
            40.136656
          ],
          [
            -74.440809,
            40.136697
          ],
          [
            -74.440852,
            40.136751
          ],
          [
            -74.440869,
            40.136788
          ],
          [
            -74.440875,
            40.136833
          ],
          [
            -74.440873,
            40.137022
          ]
        ]
      }
    },
    {
      "type": "Feature",
      "properties": {
        "stroke": "#ffff00",
        "fill": "#ffff00",
        "name": "Storage"
      },
      "geometry": {
        "type": "Polygon",
        "coordinates": [
          [
            [
              -74.441011,
              40.137054
            ],
            [
              -74.440963,
              40.136844
            ],
            [
              -74.440889,
              40.136854
            ],
            [
              -74.440936,
              40.137064
            ],
            [
              -74.441011,
              40.137054
            ]
          ]
        ]
      }
    },
    {
      "type": "Feature",
      "properties": {
        "stroke": "#ff2a00",
        "fill": "#ff2a00",
        "name": "Switch Track"
      },
      "geometry": {
        "type": "LineString",
        "coordinates": [
          [
            -74.440974,
            40.137059
          ],
          [
            -74.440985,
            40.13711
          ],
          [
            -74.440984,
            40.137124
          ],
          [
            -74.440979,
            40.137139
          ],
          [
            -74.440959,
            40.137162
          ],
          [
            -74.440939,
            40.137185
          ],
          [
            -74.440927,
            40.137201
          ],
          [
            -74.44092,
            40.13722
          ]
        ]
      }
    },
    {
      "type": "Feature",
      "properties": {
        "stroke": "#ffff00",
        "fill": "#ffff00",
        "name": "Station"
      },
      "geometry": {
        "type": "Polygon",
        "coordinates": [
          [
            [
              -74.441013,
              40.137377
            ],
            [
              -74.44098,
              40.137226
            ],
            [
              -74.440856,
              40.137242
            ],
            [
              -74.440888,
              40.137393
            ],
            [
              -74.441013,
              40.137377
            ]
          ]
        ]
      }
    }
  ],
  "properties": {
    "name": "Flash",
    "color": "#ff2a00",
    "basemaps": [
      {
        "id": "custom_layer_1790214961081",
        "url": "https://api.nearmap.com/wms/v1/places/2dc760f1-c48f-4d04-8a15-975e7a554fc9/apikey/MGFhOTM5NzMtYTRjZS00MDk1LWJkOTItN2RhYzdjMWNmYWZk?request=getcapabilities&service=wms",
        "wmsLayer": "",
        "layerName": "Custom Layer 2",
        "opacity": 1
      }
    ]
  }
}