{
  "type": "FeatureCollection",
  "features": [
    {
      "type": "Feature",
      "geometry": {
        "type": "LineString",
        "coordinates": [
          [
            -121.971795,
            37.39816
          ],
          [
            -121.972052,
            37.398788
          ],
          [
            -121.972068,
            37.398833
          ],
          [
            -121.972106,
            37.398854
          ],
          [
            -121.972138,
            37.398873
          ],
          [
            -121.9722,
            37.398884
          ],
          [
            -121.972256,
            37.398873
          ],
          [
            -121.972316,
            37.398856,
            0
          ],
          [
            -121.972573,
            37.398747
          ],
          [
            -121.972438,
            37.398779
          ],
          [
            -121.972528,
            37.398729,
            0
          ],
          [
            -121.972575,
            37.398706,
            0
          ],
          [
            -121.972616,
            37.39869,
            0
          ],
          [
            -121.972668,
            37.398678,
            0
          ],
          [
            -121.972716,
            37.398668
          ],
          [
            -121.972766,
            37.398667
          ],
          [
            -121.972809,
            37.398682
          ],
          [
            -121.972853,
            37.398712
          ],
          [
            -121.972863,
            37.398759
          ],
          [
            -121.972843,
            37.398796
          ],
          [
            -121.9728,
            37.398824
          ],
          [
            -121.972736,
            37.398818
          ],
          [
            -121.972693,
            37.398788
          ],
          [
            -121.972664,
            37.398748
          ],
          [
            -121.972653,
            37.398708
          ],
          [
            -121.972638,
            37.398651
          ],
          [
            -121.972632,
            37.398586
          ],
          [
            -121.972627,
            37.398491
          ],
          [
            -121.972618,
            37.3984
          ],
          [
            -121.97261,
            37.398353
          ],
          [
            -121.972556,
            37.39827
          ],
          [
            -121.972403,
            37.398113
          ],
          [
            -121.972332,
            37.398054
          ],
          [
            -121.972275,
            37.398022
          ],
          [
            -121.972207,
            37.398004
          ],
          [
            -121.972138,
            37.398005
          ],
          [
            -121.972075,
            37.398025
          ],
          [
            -121.972001,
            37.398067
          ],
          [
            -121.971915,
            37.398131
          ],
          [
            -121.971826,
            37.398179
          ],
          [
            -121.97176,
            37.398198
          ],
          [
            -121.971699,
            37.398206
          ],
          [
            -121.971636,
            37.398209
          ],
          [
            -121.97154,
            37.39821
          ],
          [
            -121.971467,
            37.398213
          ],
          [
            -121.971365,
            37.398215
          ],
          [
            -121.971288,
            37.398216
          ],
          [
            -121.971256,
            37.39821
          ],
          [
            -121.971221,
            37.398191
          ],
          [
            -121.971208,
            37.398165
          ],
          [
            -121.971196,
            37.398131
          ],
          [
            -121.971182,
            37.398098
          ],
          [
            -121.971154,
            37.398065
          ],
          [
            -121.971105,
            37.398048
          ],
          [
            -121.97105,
            37.398044
          ],
          [
            -121.970995,
            37.398045
          ],
          [
            -121.970945,
            37.398053,
            0
          ],
          [
            -121.970895,
            37.398061,
            0
          ],
          [
            -121.970851,
            37.398076,
            0
          ],
          [
            -121.970815,
            37.398097,
            0
          ],
          [
            -121.97079,
            37.398122,
            0
          ],
          [
            -121.970777,
            37.398155,
            0
          ],
          [
            -121.970781,
            37.398185,
            0
          ],
          [
            -121.970794,
            37.398212,
            0
          ],
          [
            -121.970823,
            37.398235,
            0
          ],
          [
            -121.970853,
            37.39825,
            0
          ],
          [
            -121.9709,
            37.398254,
            0
          ],
          [
            -121.970942,
            37.398243,
            0
          ],
          [
            -121.97097,
            37.398225,
            0
          ],
          [
            -121.970999,
            37.398192,
            0
          ],
          [
            -121.971006,
            37.398163,
            0
          ],
          [
            -121.971007,
            37.398124,
            0
          ],
          [
            -121.971001,
            37.398074
          ],
          [
            -121.970978,
            37.398008
          ],
          [
            -121.970958,
            37.397968
          ],
          [
            -121.970948,
            37.39793
          ],
          [
            -121.970939,
            37.397891,
            0
          ],
          [
            -121.970958,
            37.397847
          ],
          [
            -121.970995,
            37.397815
          ],
          [
            -121.971048,
            37.397802
          ],
          [
            -121.971096,
            37.397808
          ],
          [
            -121.971137,
            37.397823
          ],
          [
            -121.971166,
            37.397836
          ],
          [
            -121.971752,
            37.39811
          ],
          [
            -121.971783,
            37.398136
          ],
          [
            -121.971795,
            37.39816
          ]
        ]
      },
      "properties": {
        "name": "Flight Deck",
        "styleUrl": "#m_ylw-pushpin",
        "styleHash": "11bca759",
        "styleMapHash": "[object Object]",
        "icon-scale": "1.1",
        "icon-offset": "20,2",
        "icon": "http://maps.google.com/mapfiles/kml/pushpin/ylw-pushpin.png"
      }
    }
  ]
}