{
  "type": "FeatureCollection",
  "features": [
    {
      "type": "Feature",
      "geometry": {
        "type": "LineString",
        "coordinates": [
          [
            9.057316,
            49.036817
          ],
          [
            9.05732,
            49.03633
          ],
          [
            9.057312,
            49.036307
          ],
          [
            9.057294,
            49.036288
          ],
          [
            9.057266,
            49.036273
          ],
          [
            9.057231,
            49.036261
          ],
          [
            9.057185,
            49.036259
          ],
          [
            9.057139,
            49.036274
          ],
          [
            9.057117,
            49.036294
          ],
          [
            9.057112,
            49.036319
          ],
          [
            9.057122,
            49.03634
          ],
          [
            9.057137,
            49.036361
          ],
          [
            9.057166,
            49.036379
          ],
          [
            9.057197,
            49.036387
          ],
          [
            9.057235,
            49.036384
          ],
          [
            9.057266,
            49.036375
          ],
          [
            9.057289,
            49.036357
          ],
          [
            9.0573,
            49.036327
          ],
          [
            9.05729,
            49.036309
          ],
          [
            9.057271,
            49.036292
          ],
          [
            9.057247,
            49.036279
          ],
          [
            9.057211,
            49.036273
          ],
          [
            9.057183,
            49.036275
          ],
          [
            9.057155,
            49.036285
          ],
          [
            9.057128,
            49.036304
          ],
          [
            9.057116,
            49.036327
          ],
          [
            9.057114,
            49.036342
          ],
          [
            9.057118,
            49.036415
          ],
          [
            9.057113,
            49.036428
          ],
          [
            9.057096,
            49.036438
          ],
          [
            9.057078,
            49.036438
          ],
          [
            9.057059,
            49.036433
          ],
          [
            9.057048,
            49.036424
          ],
          [
            9.057045,
            49.036411
          ],
          [
            9.057069,
            49.036342
          ],
          [
            9.057072,
            49.03633
          ],
          [
            9.05706,
            49.036319
          ],
          [
            9.057044,
            49.036312
          ],
          [
            9.057023,
            49.036314
          ],
          [
            9.05701,
            49.03632
          ],
          [
            9.056947,
            49.036372
          ],
          [
            9.056929,
            49.036378
          ],
          [
            9.056907,
            49.036377
          ],
          [
            9.056888,
            49.036372
          ],
          [
            9.056879,
            49.036359
          ],
          [
            9.056883,
            49.036345
          ],
          [
            9.056891,
            49.036337
          ],
          [
            9.056904,
            49.036332
          ],
          [
            9.057026,
            49.036281
          ],
          [
            9.057044,
            49.036273
          ],
          [
            9.057049,
            49.036263
          ],
          [
            9.057055,
            49.036253
          ],
          [
            9.057048,
            49.036242
          ],
          [
            9.057033,
            49.036234
          ],
          [
            9.057016,
            49.036229
          ],
          [
            9.056994,
            49.036232
          ],
          [
            9.056882,
            49.036264
          ],
          [
            9.056853,
            49.036267
          ],
          [
            9.056829,
            49.036263
          ],
          [
            9.056809,
            49.036254
          ],
          [
            9.056794,
            49.03624
          ],
          [
            9.056791,
            49.036222
          ],
          [
            9.056798,
            49.036209
          ],
          [
            9.056812,
            49.036196
          ],
          [
            9.056829,
            49.03619
          ],
          [
            9.056851,
            49.036189
          ],
          [
            9.056868,
            49.036194
          ],
          [
            9.056883,
            49.036203
          ],
          [
            9.056892,
            49.036215
          ],
          [
            9.056892,
            49.036229
          ],
          [
            9.056883,
            49.036242
          ],
          [
            9.056868,
            49.036254
          ],
          [
            9.056847,
            49.036264
          ],
          [
            9.056816,
            49.036265
          ],
          [
            9.056803,
            49.036261
          ],
          [
            9.056781,
            49.036254
          ],
          [
            9.056766,
            49.03624
          ],
          [
            9.056759,
            49.036228
          ],
          [
            9.056754,
            49.036212
          ],
          [
            9.056751,
            49.0362
          ],
          [
            9.056753,
            49.036117
          ],
          [
            9.056747,
            49.036101
          ],
          [
            9.05673,
            49.036083
          ],
          [
            9.056708,
            49.036073
          ],
          [
            9.056681,
            49.036066
          ],
          [
            9.056639,
            49.036067
          ],
          [
            9.056617,
            49.036071
          ],
          [
            9.056591,
            49.03608
          ],
          [
            9.056568,
            49.03609
          ],
          [
            9.056558,
            49.036104
          ],
          [
            9.056547,
            49.03612
          ],
          [
            9.056547,
            49.036136
          ],
          [
            9.056557,
            49.036151
          ],
          [
            9.05657,
            49.036166
          ],
          [
            9.056586,
            49.036175
          ],
          [
            9.056607,
            49.036182
          ],
          [
            9.056636,
            49.036186
          ],
          [
            9.05666,
            49.036184
          ],
          [
            9.056681,
            49.036179
          ],
          [
            9.056701,
            49.036173
          ],
          [
            9.056715,
            49.036167
          ],
          [
            9.056725,
            49.036155
          ],
          [
            9.05673,
            49.036138
          ],
          [
            9.056725,
            49.036121
          ],
          [
            9.056712,
            49.036108
          ],
          [
            9.05669,
            49.036101
          ],
          [
            9.056665,
            49.036101
          ],
          [
            9.056638,
            49.03611
          ],
          [
            9.056625,
            49.036126
          ],
          [
            9.056622,
            49.036141
          ],
          [
            9.056629,
            49.036159
          ],
          [
            9.056979,
            49.036782
          ],
          [
            9.056986,
            49.036798
          ],
          [
            9.056995,
            49.036815
          ],
          [
            9.057011,
            49.036829
          ],
          [
            9.057039,
            49.03684
          ],
          [
            9.057059,
            49.036839
          ],
          [
            9.057075,
            49.03683
          ],
          [
            9.057087,
            49.036818
          ],
          [
            9.057092,
            49.036804
          ],
          [
            9.057086,
            49.036786
          ],
          [
            9.057073,
            49.036775
          ],
          [
            9.057052,
            49.036765
          ],
          [
            9.057032,
            49.036759
          ],
          [
            9.05701,
            49.03676
          ],
          [
            9.056985,
            49.036762
          ],
          [
            9.056963,
            49.036773
          ],
          [
            9.056952,
            49.036786
          ],
          [
            9.056946,
            49.036802
          ],
          [
            9.056948,
            49.036817
          ],
          [
            9.056959,
            49.036833
          ],
          [
            9.056978,
            49.036844
          ],
          [
            9.05701,
            49.036853
          ],
          [
            9.057093,
            49.036864
          ],
          [
            9.057117,
            49.03687
          ],
          [
            9.057135,
            49.036879
          ],
          [
            9.057148,
            49.036886
          ],
          [
            9.057162,
            49.036899
          ],
          [
            9.05717,
            49.036911
          ],
          [
            9.057172,
            49.036924
          ],
          [
            9.057167,
            49.036936
          ],
          [
            9.057158,
            49.036946
          ],
          [
            9.057142,
            49.036955
          ],
          [
            9.057122,
            49.036959
          ],
          [
            9.057103,
            49.036958
          ],
          [
            9.057083,
            49.036954
          ],
          [
            9.057067,
            49.036947
          ],
          [
            9.057058,
            49.036935
          ],
          [
            9.057052,
            49.036922
          ],
          [
            9.05706,
            49.036908
          ],
          [
            9.057071,
            49.036896
          ],
          [
            9.057086,
            49.036887
          ],
          [
            9.057103,
            49.036884
          ],
          [
            9.057283,
            49.036847
          ],
          [
            9.057298,
            49.036843
          ],
          [
            9.057307,
            49.036837
          ],
          [
            9.057311,
            49.036832
          ],
          [
            9.057316,
            49.036817
          ]
        ]
      },
      "properties": {
        "name": "Thor's Hammer",
        "styleUrl": "#m_ylw-pushpin",
        "styleHash": "11bca759",
        "styleMapHash": {
          "normal": "#s_ylw-pushpin",
          "highlight": "#s_ylw-pushpin_hl"
        },
        "icon-scale": 1.1,
        "icon-offset": [
          20,
          2
        ],
        "icon": "http://maps.google.com/mapfiles/kml/pushpin/ylw-pushpin.png",
        "stroke": "#004000",
        "fill": "#004000"
      }
    }
  ],
  "properties": {
    "name": "G'sengte Sau",
    "color": "#004000",
    "basemaps": [
      {
        "id": "custom_layer_1790212125889",
        "url": "https://owsproxy.lgl-bw.de/owsproxy/ows/WMS_LGL-BW_ATKIS_HIST_DOP_20_RGB?",
        "wmsLayer": "",
        "layerName": "Custom Layer 1",
        "opacity": 1
      }
    ]
  }
}