{
  "type": "FeatureCollection",
  "features": [
    {
      "type": "Feature",
      "properties": {
        "layer": "Twister_Coaster",
        "stroke": "#ff0000",
        "fill": "#ff0000",
        "name": "Track (part 1)"
      },
      "geometry": {
        "type": "LineString",
        "coordinates": [
          [
            -81.514986,
            28.331415
          ],
          [
            -81.514977,
            28.331416
          ],
          [
            -81.514971,
            28.33142
          ],
          [
            -81.514966,
            28.331426
          ],
          [
            -81.514964,
            28.331433
          ],
          [
            -81.514966,
            28.331515
          ],
          [
            -81.514965,
            28.331522
          ],
          [
            -81.51496,
            28.331529
          ],
          [
            -81.514953,
            28.331533
          ],
          [
            -81.514945,
            28.331534
          ],
          [
            -81.514937,
            28.331533
          ],
          [
            -81.51493,
            28.331529
          ],
          [
            -81.514926,
            28.331522
          ],
          [
            -81.514924,
            28.331515
          ],
          [
            -81.514923,
            28.331463
          ],
          [
            -81.514921,
            28.331456
          ],
          [
            -81.514917,
            28.33145
          ],
          [
            -81.514911,
            28.331447
          ],
          [
            -81.514903,
            28.331445
          ],
          [
            -81.514827,
            28.331446
          ],
          [
            -81.514813,
            28.331449
          ],
          [
            -81.514801,
            28.331457
          ],
          [
            -81.514795,
            28.331469
          ],
          [
            -81.514795,
            28.331482
          ],
          [
            -81.514801,
            28.331493
          ],
          [
            -81.514812,
            28.331502
          ],
          [
            -81.514826,
            28.331506
          ],
          [
            -81.51484,
            28.331504
          ],
          [
            -81.514933,
            28.331476
          ],
          [
            -81.514949,
            28.331473
          ],
          [
            -81.514965,
            28.331472
          ],
          [
            -81.515088,
            28.331471
          ],
          [
            -81.5151,
            28.331469
          ],
          [
            -81.51511,
            28.331463
          ],
          [
            -81.515117,
            28.331453
          ],
          [
            -81.515119,
            28.331443
          ],
          [
            -81.515117,
            28.331432
          ],
          [
            -81.51511,
            28.331423
          ],
          [
            -81.5151,
            28.331417
          ],
          [
            -81.515088,
            28.331414
          ],
          [
            -81.514789,
            28.331417
          ],
          [
            -81.51478,
            28.331418
          ],
          [
            -81.514773,
            28.331422
          ],
          [
            -81.514767,
            28.331429
          ],
          [
            -81.514765,
            28.331436
          ],
          [
            -81.514768,
            28.331542
          ],
          [
            -81.51477,
            28.331549
          ],
          [
            -81.514774,
            28.331555
          ],
          [
            -81.514781,
            28.331558
          ],
          [
            -81.514789,
            28.33156
          ],
          [
            -81.515156,
            28.331557
          ],
          [
            -81.515164,
            28.331555
          ],
          [
            -81.515171,
            28.331552
          ],
          [
            -81.515175,
            28.331546
          ],
          [
            -81.515177,
            28.331539
          ],
          [
            -81.515174,
            28.331433
          ],
          [
            -81.515173,
            28.331426
          ],
          [
            -81.515168,
            28.33142
          ],
          [
            -81.515161,
            28.331416
          ],
          [
            -81.515153,
            28.331415
          ],
          [
            -81.515145,
            28.331416
          ],
          [
            -81.515138,
            28.33142
          ],
          [
            -81.515134,
            28.331426
          ],
          [
            -81.515132,
            28.331433
          ],
          [
            -81.515134,
            28.331515
          ],
          [
            -81.515132,
            28.331522
          ],
          [
            -81.515128,
            28.331528
          ],
          [
            -81.515121,
            28.331532
          ],
          [
            -81.515113,
            28.331533
          ],
          [
            -81.515105,
            28.331532
          ],
          [
            -81.515098,
            28.331528
          ],
          [
            -81.515094,
            28.331522
          ],
          [
            -81.515092,
            28.331515
          ],
          [
            -81.51509,
            28.331433
          ],
          [
            -81.515089,
            28.331426
          ],
          [
            -81.515084,
            28.33142
          ],
          [
            -81.515077,
            28.331416
          ],
          [
            -81.515069,
            28.331414
          ],
          [
            -81.515061,
            28.331416
          ],
          [
            -81.515054,
            28.33142
          ],
          [
            -81.51505,
            28.331426
          ],
          [
            -81.515048,
            28.331433
          ],
          [
            -81.51505,
            28.331515
          ],
          [
            -81.515048,
            28.331522
          ],
          [
            -81.515044,
            28.331528
          ],
          [
            -81.515037,
            28.331532
          ],
          [
            -81.515029,
            28.331534
          ],
          [
            -81.515021,
            28.331532
          ],
          [
            -81.515014,
            28.331528
          ],
          [
            -81.515009,
            28.331522
          ],
          [
            -81.515008,
            28.331515
          ],
          [
            -81.515006,
            28.331433
          ],
          [
            -81.515004,
            28.331426
          ],
          [
            -81.515,
            28.33142
          ],
          [
            -81.514993,
            28.331416
          ],
          [
            -81.514986,
            28.331415
          ],
          [
            -81.514789,
            28.331417
          ],
          [
            -81.51478,
            28.331418
          ],
          [
            -81.514773,
            28.331422
          ],
          [
            -81.514767,
            28.331429
          ],
          [
            -81.514765,
            28.331436
          ],
          [
            -81.514767,
            28.331503
          ]
        ]
      }
    },
    {
      "type": "Feature",
      "properties": {
        "layer": "Twister_Coaster",
        "name": "Track (part 2)"
      },
      "geometry": {
        "type": "LineString",
        "coordinates": [
          [
            -81.515156,
            28.331557
          ],
          [
            -81.515164,
            28.331555
          ],
          [
            -81.515171,
            28.331552
          ],
          [
            -81.515175,
            28.331546
          ],
          [
            -81.515177,
            28.331539
          ],
          [
            -81.515174,
            28.331433
          ],
          [
            -81.515173,
            28.331426
          ],
          [
            -81.515168,
            28.33142
          ],
          [
            -81.515161,
            28.331416
          ],
          [
            -81.515153,
            28.331415
          ],
          [
            -81.515145,
            28.331416
          ],
          [
            -81.515138,
            28.33142
          ],
          [
            -81.515134,
            28.331426
          ],
          [
            -81.515132,
            28.331433
          ],
          [
            -81.515134,
            28.331515
          ],
          [
            -81.515132,
            28.331522
          ],
          [
            -81.515128,
            28.331528
          ],
          [
            -81.515121,
            28.331532
          ],
          [
            -81.515113,
            28.331533
          ],
          [
            -81.515105,
            28.331532
          ],
          [
            -81.515098,
            28.331528
          ],
          [
            -81.515094,
            28.331522
          ],
          [
            -81.515092,
            28.331515
          ],
          [
            -81.51509,
            28.331433
          ],
          [
            -81.515089,
            28.331426
          ],
          [
            -81.515084,
            28.33142
          ],
          [
            -81.515077,
            28.331416
          ],
          [
            -81.515069,
            28.331414
          ],
          [
            -81.515061,
            28.331416
          ],
          [
            -81.515054,
            28.33142
          ],
          [
            -81.51505,
            28.331426
          ],
          [
            -81.515048,
            28.331433
          ],
          [
            -81.51505,
            28.331515
          ],
          [
            -81.515048,
            28.331522
          ],
          [
            -81.515044,
            28.331528
          ],
          [
            -81.515037,
            28.331532
          ],
          [
            -81.515029,
            28.331534
          ],
          [
            -81.515021,
            28.331532
          ],
          [
            -81.515014,
            28.331528
          ],
          [
            -81.515009,
            28.331522
          ],
          [
            -81.515008,
            28.331515
          ],
          [
            -81.515006,
            28.331433
          ],
          [
            -81.515004,
            28.331426
          ],
          [
            -81.515,
            28.33142
          ],
          [
            -81.514993,
            28.331416
          ],
          [
            -81.514986,
            28.331415
          ],
          [
            -81.514789,
            28.331417
          ],
          [
            -81.51478,
            28.331418
          ],
          [
            -81.514773,
            28.331422
          ],
          [
            -81.514767,
            28.331429
          ],
          [
            -81.514765,
            28.331436
          ],
          [
            -81.514767,
            28.331503
          ],
          [
            -81.514768,
            28.33151
          ],
          [
            -81.514773,
            28.331516
          ],
          [
            -81.514779,
            28.33152
          ],
          [
            -81.514786,
            28.331522
          ],
          [
            -81.514988,
            28.331554
          ],
          [
            -81.515006,
            28.331557
          ],
          [
            -81.515025,
            28.331558
          ]
        ]
      }
    },
    {
      "type": "Feature",
      "properties": {
        "stroke": "#ffffff",
        "fill": "#ffffff",
        "name": "Station"
      },
      "geometry": {
        "type": "Polygon",
        "coordinates": [
          [
            [
              -81.514925,
              28.331431
            ],
            [
              -81.514789,
              28.331433
            ],
            [
              -81.514789,
              28.331391
            ],
            [
              -81.514925,
              28.331389
            ],
            [
              -81.514925,
              28.331431
            ]
          ]
        ]
      }
    }
  ],
  "properties": {
    "name": "Galaxy Spin",
    "color": "#ff2a00",
    "basemaps": [
      {
        "id": "custom_layer_1790606334925",
        "url": "https://paags.property-appraiser.org/server/rest/services/AGS_AERIALS_2023_WM/MapServer",
        "wmsLayer": "",
        "layerName": "AGS AERIALS 2023 WM",
        "wmtsOpts": null,
        "opacity": 1
      }
    ]
  }
}