{
  "type": "FeatureCollection",
  "features": [
    {
      "type": "Feature",
      "properties": {},
      "geometry": {
        "type": "LineString",
        "coordinates": [
          [
            -121.974944,
            37.396825
          ],
          [
            -121.974773,
            37.396572
          ],
          [
            -121.974765,
            37.396542
          ],
          [
            -121.974777,
            37.396506
          ],
          [
            -121.974816,
            37.39642
          ],
          [
            -121.974847,
            37.396395
          ],
          [
            -121.974893,
            37.396393
          ],
          [
            -121.974921,
            37.396409
          ],
          [
            -121.974926,
            37.396435
          ],
          [
            -121.974919,
            37.396464
          ],
          [
            -121.974879,
            37.396496
          ],
          [
            -121.974863,
            37.396527
          ],
          [
            -121.974872,
            37.396562
          ],
          [
            -121.975248,
            37.397142
          ],
          [
            -121.975342,
            37.397291
          ],
          [
            -121.975385,
            37.397366
          ],
          [
            -121.975365,
            37.397424
          ],
          [
            -121.975302,
            37.397465
          ],
          [
            -121.975205,
            37.397474
          ],
          [
            -121.975117,
            37.397457
          ],
          [
            -121.975043,
            37.397421
          ],
          [
            -121.974981,
            37.39736
          ],
          [
            -121.974945,
            37.397276
          ],
          [
            -121.974942,
            37.397201
          ],
          [
            -121.97498,
            37.397105
          ],
          [
            -121.975027,
            37.396997
          ],
          [
            -121.975039,
            37.396923
          ],
          [
            -121.975023,
            37.39685
          ],
          [
            -121.974985,
            37.396781
          ],
          [
            -121.974709,
            37.396372
          ],
          [
            -121.97464,
            37.396277
          ],
          [
            -121.974623,
            37.39623
          ],
          [
            -121.974647,
            37.396182
          ],
          [
            -121.974702,
            37.396151
          ],
          [
            -121.97476,
            37.396143
          ],
          [
            -121.974809,
            37.396158
          ],
          [
            -121.974936,
            37.396196
          ],
          [
            -121.975009,
            37.396212
          ],
          [
            -121.975078,
            37.396217
          ],
          [
            -121.975173,
            37.396196
          ],
          [
            -121.975375,
            37.396087
          ],
          [
            -121.975459,
            37.396023
          ],
          [
            -121.975493,
            37.39596
          ],
          [
            -121.975489,
            37.395899
          ],
          [
            -121.975473,
            37.395854
          ],
          [
            -121.975426,
            37.395823
          ],
          [
            -121.975357,
            37.395813
          ],
          [
            -121.97529,
            37.395841
          ],
          [
            -121.975247,
            37.395891
          ],
          [
            -121.975216,
            37.396002
          ],
          [
            -121.975174,
            37.396052
          ],
          [
            -121.975103,
            37.396087
          ],
          [
            -121.975001,
            37.396114
          ],
          [
            -121.974917,
            37.396142
          ],
          [
            -121.974838,
            37.396197
          ],
          [
            -121.974716,
            37.396494
          ],
          [
            -121.974673,
            37.396566
          ],
          [
            -121.97464,
            37.396594
          ],
          [
            -121.974594,
            37.396616
          ],
          [
            -121.974492,
            37.39665
          ],
          [
            -121.974439,
            37.396675
          ],
          [
            -121.974418,
            37.396712
          ],
          [
            -121.974411,
            37.39675
          ],
          [
            -121.974449,
            37.396796
          ],
          [
            -121.974526,
            37.396822
          ],
          [
            -121.974623,
            37.396811
          ],
          [
            -121.974693,
            37.396771
          ],
          [
            -121.974726,
            37.396708
          ],
          [
            -121.974729,
            37.39663
          ],
          [
            -121.974729,
            37.396557
          ],
          [
            -121.97474,
            37.396511
          ],
          [
            -121.974796,
            37.396378
          ],
          [
            -121.974835,
            37.39633
          ],
          [
            -121.974901,
            37.396297
          ],
          [
            -121.974969,
            37.396277
          ],
          [
            -121.975074,
            37.396277
          ],
          [
            -121.975137,
            37.39629
          ],
          [
            -121.975224,
            37.396338
          ],
          [
            -121.97529,
            37.396364
          ],
          [
            -121.975366,
            37.396353
          ],
          [
            -121.975414,
            37.396307
          ],
          [
            -121.975416,
            37.396246
          ],
          [
            -121.975362,
            37.396199
          ],
          [
            -121.975292,
            37.396193
          ],
          [
            -121.975225,
            37.396216
          ],
          [
            -121.975151,
            37.396245
          ],
          [
            -121.97507,
            37.396251
          ],
          [
            -121.974974,
            37.396233
          ],
          [
            -121.974807,
            37.396178
          ],
          [
            -121.974748,
            37.396168
          ],
          [
            -121.974694,
            37.39619
          ],
          [
            -121.974662,
            37.396231
          ],
          [
            -121.974674,
            37.396279
          ],
          [
            -121.974721,
            37.396311
          ],
          [
            -121.974993,
            37.396393
          ],
          [
            -121.975041,
            37.396412
          ],
          [
            -121.975059,
            37.396447
          ],
          [
            -121.97511,
            37.396766
          ],
          [
            -121.975107,
            37.396788
          ],
          [
            -121.975088,
            37.396811
          ],
          [
            -121.975041,
            37.396826
          ],
          [
            -121.974993,
            37.396839
          ],
          [
            -121.974968,
            37.396836
          ],
          [
            -121.974944,
            37.396825
          ]
        ]
      }
    }
  ]
}