{
  "type": "FeatureCollection",
  "features": [
    {
      "type": "Feature",
      "properties": {},
      "geometry": {
        "type": "LineString",
        "coordinates": [
          [
            -121.971488,
            37.392979
          ],
          [
            -121.971175,
            37.392916
          ],
          [
            -121.971115,
            37.392883
          ],
          [
            -121.9711,
            37.392843
          ],
          [
            -121.971104,
            37.392803
          ],
          [
            -121.971144,
            37.39277
          ],
          [
            -121.971213,
            37.392757
          ],
          [
            -121.971276,
            37.392777
          ],
          [
            -121.971526,
            37.392935
          ],
          [
            -121.971585,
            37.392964
          ],
          [
            -121.971687,
            37.39299
          ],
          [
            -121.972551,
            37.393145
          ],
          [
            -121.972739,
            37.3932
          ],
          [
            -121.972854,
            37.393256
          ],
          [
            -121.973362,
            37.393661
          ],
          [
            -121.973408,
            37.393744
          ],
          [
            -121.973387,
            37.393817
          ],
          [
            -121.973336,
            37.393863
          ],
          [
            -121.973265,
            37.393885
          ],
          [
            -121.973173,
            37.393874
          ],
          [
            -121.973112,
            37.393835
          ],
          [
            -121.972563,
            37.393316
          ],
          [
            -121.972493,
            37.393256
          ],
          [
            -121.972401,
            37.393201
          ],
          [
            -121.97229,
            37.393159
          ],
          [
            -121.972188,
            37.393133
          ],
          [
            -121.971702,
            37.39304
          ],
          [
            -121.971611,
            37.393051
          ],
          [
            -121.971545,
            37.393095
          ],
          [
            -121.971513,
            37.393154
          ],
          [
            -121.971522,
            37.393226
          ],
          [
            -121.971583,
            37.393288
          ],
          [
            -121.971667,
            37.393319
          ],
          [
            -121.97178,
            37.393305
          ],
          [
            -121.972354,
            37.39317
          ],
          [
            -121.972461,
            37.393168
          ],
          [
            -121.972611,
            37.393192
          ],
          [
            -121.972725,
            37.393225
          ],
          [
            -121.972831,
            37.393275
          ],
          [
            -121.973338,
            37.393671
          ],
          [
            -121.973372,
            37.393744
          ],
          [
            -121.973358,
            37.393806
          ],
          [
            -121.973318,
            37.393843
          ],
          [
            -121.973235,
            37.39386
          ],
          [
            -121.97316,
            37.39384
          ],
          [
            -121.973109,
            37.393799
          ],
          [
            -121.972582,
            37.393299
          ],
          [
            -121.972505,
            37.39324
          ],
          [
            -121.97241,
            37.393184
          ],
          [
            -121.972299,
            37.393138
          ],
          [
            -121.972173,
            37.393106
          ],
          [
            -121.971488,
            37.392979
          ]
        ]
      }
    }
  ]
}