{
  "type": "FeatureCollection",
  "features": [
    {
      "type": "Feature",
      "properties": {
        "stroke": "#ff2a00",
        "fill": "#ff2a00",
        "name": "Track"
      },
      "geometry": {
        "type": "LineString",
        "coordinates": [
          [
            -89.789762,
            43.617029
          ],
          [
            -89.790072,
            43.617093
          ],
          [
            -89.790141,
            43.61712
          ],
          [
            -89.790194,
            43.617158
          ],
          [
            -89.790226,
            43.617204
          ],
          [
            -89.790237,
            43.617258
          ],
          [
            -89.790224,
            43.6173
          ],
          [
            -89.790181,
            43.61734
          ],
          [
            -89.789957,
            43.617469
          ],
          [
            -89.789904,
            43.617488
          ],
          [
            -89.789843,
            43.617495
          ],
          [
            -89.789779,
            43.61749
          ],
          [
            -89.789719,
            43.617464
          ],
          [
            -89.789684,
            43.617422
          ],
          [
            -89.789678,
            43.617383
          ],
          [
            -89.789701,
            43.61734
          ],
          [
            -89.789743,
            43.617312
          ],
          [
            -89.789796,
            43.617298
          ],
          [
            -89.789847,
            43.6173
          ],
          [
            -89.7899,
            43.617313
          ],
          [
            -89.790021,
            43.617352
          ],
          [
            -89.790066,
            43.617356
          ],
          [
            -89.790106,
            43.617352
          ],
          [
            -89.790145,
            43.617339
          ],
          [
            -89.790179,
            43.617313
          ],
          [
            -89.790195,
            43.617292
          ],
          [
            -89.790202,
            43.617262
          ],
          [
            -89.790198,
            43.617233
          ],
          [
            -89.790189,
            43.617207
          ],
          [
            -89.790167,
            43.617176
          ],
          [
            -89.790117,
            43.617138
          ],
          [
            -89.790062,
            43.617115
          ],
          [
            -89.789966,
            43.617094
          ],
          [
            -89.788298,
            43.61679
          ],
          [
            -89.788184,
            43.616759
          ],
          [
            -89.788058,
            43.616709
          ],
          [
            -89.787089,
            43.616333
          ],
          [
            -89.786947,
            43.616293
          ],
          [
            -89.786777,
            43.616289
          ],
          [
            -89.786627,
            43.616336
          ],
          [
            -89.786268,
            43.616639
          ],
          [
            -89.786234,
            43.616689
          ],
          [
            -89.786225,
            43.61675
          ],
          [
            -89.786237,
            43.616808
          ],
          [
            -89.786294,
            43.61685
          ],
          [
            -89.786423,
            43.616918
          ],
          [
            -89.786481,
            43.616953
          ],
          [
            -89.786517,
            43.617003
          ],
          [
            -89.786523,
            43.617055
          ],
          [
            -89.786509,
            43.617106
          ],
          [
            -89.786473,
            43.617176
          ],
          [
            -89.786423,
            43.617231
          ],
          [
            -89.786355,
            43.61727
          ],
          [
            -89.786283,
            43.617286
          ],
          [
            -89.786209,
            43.617281
          ],
          [
            -89.786141,
            43.617259
          ],
          [
            -89.786081,
            43.61722
          ],
          [
            -89.78604,
            43.617151
          ],
          [
            -89.786018,
            43.617084
          ],
          [
            -89.786013,
            43.617015
          ],
          [
            -89.786021,
            43.616978
          ],
          [
            -89.786043,
            43.616925
          ],
          [
            -89.786091,
            43.61686
          ],
          [
            -89.786174,
            43.616771
          ],
          [
            -89.786457,
            43.616515
          ],
          [
            -89.786633,
            43.616369
          ],
          [
            -89.786779,
            43.61632
          ],
          [
            -89.786944,
            43.616325
          ],
          [
            -89.787074,
            43.61636
          ],
          [
            -89.788044,
            43.616739
          ],
          [
            -89.788172,
            43.616791
          ],
          [
            -89.788293,
            43.61682
          ],
          [
            -89.789722,
            43.61708
          ],
          [
            -89.789884,
            43.617113
          ],
          [
            -89.789985,
            43.61716
          ],
          [
            -89.790057,
            43.617225
          ],
          [
            -89.790106,
            43.617291
          ],
          [
            -89.790122,
            43.617337
          ],
          [
            -89.790127,
            43.617383
          ],
          [
            -89.790121,
            43.617432
          ],
          [
            -89.790094,
            43.617487
          ],
          [
            -89.790038,
            43.617538
          ],
          [
            -89.789953,
            43.617582
          ],
          [
            -89.789871,
            43.617603
          ],
          [
            -89.789771,
            43.617607
          ],
          [
            -89.78967,
            43.61759
          ],
          [
            -89.789587,
            43.617567
          ],
          [
            -89.789496,
            43.617523
          ],
          [
            -89.789212,
            43.617284
          ],
          [
            -89.789164,
            43.617223
          ],
          [
            -89.78914,
            43.61717
          ],
          [
            -89.789132,
            43.617118
          ],
          [
            -89.789139,
            43.617061
          ],
          [
            -89.7892,
            43.616888
          ],
          [
            -89.789219,
            43.616823
          ],
          [
            -89.789221,
            43.616759
          ],
          [
            -89.789198,
            43.616701
          ],
          [
            -89.789147,
            43.616658
          ],
          [
            -89.789086,
            43.616632
          ],
          [
            -89.789016,
            43.616627
          ],
          [
            -89.788945,
            43.61665
          ],
          [
            -89.788891,
            43.616693
          ],
          [
            -89.788882,
            43.616753
          ],
          [
            -89.78891,
            43.616809
          ],
          [
            -89.788983,
            43.616862
          ],
          [
            -89.789067,
            43.616897
          ],
          [
            -89.789589,
            43.616995
          ],
          [
            -89.789762,
            43.617029
          ]
        ]
      }
    },
    {
      "type": "Feature",
      "properties": {
        "stroke": "#ffffff",
        "fill": "#ffffff",
        "name": "Station"
      },
      "geometry": {
        "type": "Polygon",
        "coordinates": [
          [
            [
              -89.789748,
              43.61707
            ],
            [
              -89.789777,
              43.616991
            ],
            [
              -89.789606,
              43.616958
            ],
            [
              -89.789577,
              43.617037
            ],
            [
              -89.789748,
              43.61707
            ]
          ]
        ]
      }
    }
  ],
  "properties": {
    "name": "Hades",
    "color": "#ff2a00",
    "basemaps": [
      {
        "id": "custom_layer_1790551704482",
        "url": "https://dnrmaps.wi.gov/arcgis_image/rest/services/DW_Imagery/EN_Image_Basemap_Latest_Leaf_Off/ImageServer",
        "wmsLayer": "",
        "layerName": "EN Image Basemap Latest Leaf Off",
        "wmtsOpts": null,
        "opacity": 1
      }
    ]
  }
}