{
  "type": "FeatureCollection",
  "features": [
    {
      "type": "Feature",
      "geometry": {
        "type": "LineString",
        "coordinates": [
          [
            -74.984044,
            39.803351,
            0
          ],
          [
            -74.984069,
            39.803318,
            0
          ],
          [
            -74.984108,
            39.803293,
            0
          ],
          [
            -74.98459,
            39.802982,
            0
          ],
          [
            -74.984844,
            39.802877,
            0
          ],
          [
            -74.984952,
            39.802822,
            0
          ],
          [
            -74.985045,
            39.802744,
            0
          ],
          [
            -74.985112,
            39.802645,
            0
          ],
          [
            -74.985133,
            39.802563,
            0
          ],
          [
            -74.985148,
            39.802467,
            0
          ],
          [
            -74.985151,
            39.802375,
            0
          ],
          [
            -74.98515,
            39.80227,
            0
          ],
          [
            -74.98511,
            39.80216,
            0
          ],
          [
            -74.985028,
            39.802074,
            0
          ],
          [
            -74.984944,
            39.802012,
            0
          ],
          [
            -74.984838,
            39.801953,
            0
          ],
          [
            -74.984724,
            39.801914,
            0
          ],
          [
            -74.984434,
            39.801847,
            0
          ],
          [
            -74.98435,
            39.801835,
            0
          ],
          [
            -74.984295,
            39.801829,
            0
          ],
          [
            -74.98423,
            39.801841,
            0
          ],
          [
            -74.984178,
            39.801874,
            0
          ],
          [
            -74.984158,
            39.801922,
            0
          ],
          [
            -74.984181,
            39.801969,
            0
          ],
          [
            -74.984218,
            39.801993,
            0
          ],
          [
            -74.984261,
            39.80201,
            0
          ],
          [
            -74.984329,
            39.80202,
            0
          ],
          [
            -74.98476,
            39.802013,
            0
          ],
          [
            -74.984843,
            39.802019,
            0
          ],
          [
            -74.984919,
            39.802047,
            0
          ],
          [
            -74.984983,
            39.802098,
            0
          ],
          [
            -74.985004,
            39.802165,
            0
          ],
          [
            -74.984976,
            39.802227,
            0
          ],
          [
            -74.984921,
            39.802264,
            0
          ],
          [
            -74.984838,
            39.802286,
            0
          ],
          [
            -74.984753,
            39.802272,
            0
          ],
          [
            -74.984684,
            39.802234,
            0
          ],
          [
            -74.984654,
            39.802181,
            0
          ],
          [
            -74.984667,
            39.802119,
            0
          ],
          [
            -74.984717,
            39.802075,
            0
          ],
          [
            -74.984772,
            39.802053,
            0
          ],
          [
            -74.984833,
            39.802055,
            0
          ],
          [
            -74.984901,
            39.802085,
            0
          ],
          [
            -74.984933,
            39.802114,
            0
          ],
          [
            -74.984952,
            39.802166,
            0
          ],
          [
            -74.98493,
            39.802216,
            0
          ],
          [
            -74.984881,
            39.802243,
            0
          ],
          [
            -74.984819,
            39.802249,
            0
          ],
          [
            -74.98477,
            39.802237,
            0
          ],
          [
            -74.984716,
            39.802211,
            0
          ],
          [
            -74.98468,
            39.802153,
            0
          ],
          [
            -74.984682,
            39.802086,
            0
          ],
          [
            -74.984686,
            39.802009,
            0
          ],
          [
            -74.984658,
            39.801961,
            0
          ],
          [
            -74.98462,
            39.801933,
            0
          ],
          [
            -74.984563,
            39.801925,
            0
          ],
          [
            -74.984503,
            39.801934,
            0
          ],
          [
            -74.984436,
            39.80197,
            0
          ],
          [
            -74.984011,
            39.802301,
            0
          ],
          [
            -74.983982,
            39.802332,
            0
          ],
          [
            -74.983956,
            39.802362,
            0
          ],
          [
            -74.983946,
            39.802404,
            0
          ],
          [
            -74.983947,
            39.802445,
            0
          ],
          [
            -74.984019,
            39.802906,
            0
          ],
          [
            -74.984027,
            39.803009,
            0
          ],
          [
            -74.984035,
            39.803061,
            0
          ],
          [
            -74.984156,
            39.80347,
            0
          ],
          [
            -74.984146,
            39.803521,
            0
          ],
          [
            -74.984109,
            39.803548,
            0
          ],
          [
            -74.984063,
            39.803553,
            0
          ],
          [
            -74.98402,
            39.803542,
            0
          ],
          [
            -74.983992,
            39.803515,
            0
          ],
          [
            -74.983976,
            39.803483,
            0
          ],
          [
            -74.983975,
            39.803459,
            0
          ],
          [
            -74.984044,
            39.803351,
            0
          ]
        ]
      },
      "properties": {
        "name": "Hell Cat",
        "styleUrl": "#m_ylw-pushpin",
        "styleHash": "11bca759",
        "styleMapHash": {
          "normal": "#s_ylw-pushpin",
          "highlight": "#s_ylw-pushpin_hl"
        },
        "icon-scale": 1.1,
        "icon-offset": [
          20,
          2
        ],
        "icon": "http://maps.google.com/mapfiles/kml/pushpin/ylw-pushpin.png"
      }
    }
  ]
}