{
  "type": "FeatureCollection",
  "features": [
    {
      "type": "Feature",
      "properties": {
        "stroke": "#00ff00",
        "fill": "#00ff00",
        "name": "Track"
      },
      "geometry": {
        "type": "LineString",
        "coordinates": [
          [
            -74.069807,
            39.943638
          ],
          [
            -74.069827,
            39.943526
          ],
          [
            -74.069825,
            39.943516
          ],
          [
            -74.069819,
            39.943508
          ],
          [
            -74.069811,
            39.943502
          ],
          [
            -74.0698,
            39.943497
          ],
          [
            -74.069789,
            39.943495
          ],
          [
            -74.069322,
            39.943446
          ],
          [
            -74.069501,
            39.94349
          ],
          [
            -74.069242,
            39.943462
          ],
          [
            -74.069221,
            39.943459
          ],
          [
            -74.069205,
            39.943462
          ],
          [
            -74.069199,
            39.943472
          ],
          [
            -74.06919,
            39.943499
          ],
          [
            -74.069184,
            39.943534
          ],
          [
            -74.069188,
            39.943559
          ],
          [
            -74.0692,
            39.94357
          ],
          [
            -74.069214,
            39.943575
          ],
          [
            -74.069235,
            39.943577
          ],
          [
            -74.069271,
            39.943574
          ],
          [
            -74.069339,
            39.943561
          ],
          [
            -74.069391,
            39.943551
          ],
          [
            -74.069426,
            39.943541
          ],
          [
            -74.06946,
            39.943529
          ],
          [
            -74.069492,
            39.943516
          ],
          [
            -74.069522,
            39.943508
          ],
          [
            -74.069549,
            39.94351
          ],
          [
            -74.069571,
            39.943519
          ],
          [
            -74.06959,
            39.943536
          ],
          [
            -74.069599,
            39.943557
          ],
          [
            -74.069597,
            39.943582
          ],
          [
            -74.069576,
            39.943604
          ],
          [
            -74.06955,
            39.943615
          ],
          [
            -74.069523,
            39.943618
          ],
          [
            -74.069496,
            39.943614
          ],
          [
            -74.069468,
            39.943603
          ],
          [
            -74.06944,
            39.943585
          ],
          [
            -74.069406,
            39.943557
          ],
          [
            -74.069358,
            39.943515
          ],
          [
            -74.06933,
            39.943496
          ],
          [
            -74.069297,
            39.943488
          ],
          [
            -74.069257,
            39.943486
          ],
          [
            -74.069224,
            39.943497
          ],
          [
            -74.069205,
            39.943517
          ],
          [
            -74.069192,
            39.943543
          ],
          [
            -74.069194,
            39.943566
          ],
          [
            -74.069208,
            39.943584
          ],
          [
            -74.069228,
            39.943595
          ],
          [
            -74.069256,
            39.943606
          ],
          [
            -74.069307,
            39.943614
          ],
          [
            -74.069757,
            39.943662
          ],
          [
            -74.069774,
            39.943662
          ],
          [
            -74.069791,
            39.943657
          ],
          [
            -74.069802,
            39.94365
          ],
          [
            -74.069807,
            39.943639
          ]
        ]
      }
    },
    {
      "type": "Feature",
      "properties": {
        "stroke": "#0000ff",
        "fill": "#0000ff",
        "name": "Station"
      },
      "geometry": {
        "type": "Polygon",
        "coordinates": [
          [
            [
              -74.06986,
              39.943647
            ],
            [
              -74.069758,
              39.943636
            ],
            [
              -74.069763,
              39.943608
            ],
            [
              -74.069701,
              39.943602
            ],
            [
              -74.069702,
              39.943598
            ],
            [
              -74.06966,
              39.943593
            ],
            [
              -74.069674,
              39.943514
            ],
            [
              -74.069716,
              39.943518
            ],
            [
              -74.069716,
              39.943514
            ],
            [
              -74.069779,
              39.943521
            ],
            [
              -74.069779,
              39.943519
            ],
            [
              -74.069881,
              39.94353
            ],
            [
              -74.06986,
              39.943647
            ]
          ]
        ]
      }
    }
  ],
  "properties": {
    "name": "Hydrus",
    "color": "#00ff00",
    "basemaps": [
      {
        "id": "custom_layer_1790219528712",
        "url": "https://api.nearmap.com/wms/v1/places/2dc760f1-c48f-4d04-8a15-975e7a554fc9/apikey/MGFhOTM5NzMtYTRjZS00MDk1LWJkOTItN2RhYzdjMWNmYWZk?request=getcapabilities&service=wms",
        "wmsLayer": "",
        "layerName": "Custom Layer 1",
        "opacity": 1
      }
    ]
  }
}