{
  "type": "FeatureCollection",
  "features": [
    {
      "type": "Feature",
      "properties": {
        "name": "Track"
      },
      "geometry": {
        "type": "LineString",
        "coordinates": [
          [
            -85.744341,
            38.194255
          ],
          [
            -85.744446,
            38.193875
          ],
          [
            -85.744453,
            38.193853
          ],
          [
            -85.744464,
            38.193837
          ],
          [
            -85.744484,
            38.19382
          ],
          [
            -85.744506,
            38.193807
          ],
          [
            -85.74479,
            38.193682
          ],
          [
            -85.744825,
            38.193664
          ],
          [
            -85.744853,
            38.193642
          ],
          [
            -85.744873,
            38.193615
          ],
          [
            -85.744885,
            38.193584
          ],
          [
            -85.744888,
            38.193389
          ],
          [
            -85.744891,
            38.193368
          ],
          [
            -85.744899,
            38.193346
          ],
          [
            -85.744914,
            38.193325
          ],
          [
            -85.744933,
            38.193303
          ],
          [
            -85.744959,
            38.19328
          ],
          [
            -85.744983,
            38.193265
          ],
          [
            -85.745225,
            38.193151
          ],
          [
            -85.745263,
            38.193127
          ],
          [
            -85.745301,
            38.193099
          ],
          [
            -85.745329,
            38.193067
          ],
          [
            -85.745341,
            38.193029
          ],
          [
            -85.745339,
            38.192997
          ],
          [
            -85.745322,
            38.192967
          ],
          [
            -85.745292,
            38.192944
          ],
          [
            -85.745247,
            38.192934
          ],
          [
            -85.745202,
            38.192945
          ],
          [
            -85.745172,
            38.192971
          ],
          [
            -85.745146,
            38.193007
          ],
          [
            -85.744932,
            38.193397
          ],
          [
            -85.744921,
            38.193416
          ],
          [
            -85.744915,
            38.193434
          ],
          [
            -85.744914,
            38.193452
          ],
          [
            -85.744916,
            38.193582
          ],
          [
            -85.744907,
            38.193621
          ],
          [
            -85.744887,
            38.193654
          ],
          [
            -85.744859,
            38.19368
          ],
          [
            -85.744821,
            38.193699
          ],
          [
            -85.744535,
            38.193829
          ],
          [
            -85.744504,
            38.193848
          ],
          [
            -85.744488,
            38.193863
          ],
          [
            -85.744478,
            38.193882
          ],
          [
            -85.744438,
            38.194029
          ],
          [
            -85.744433,
            38.194051
          ],
          [
            -85.744415,
            38.194247
          ],
          [
            -85.744413,
            38.194272
          ],
          [
            -85.744406,
            38.194285
          ],
          [
            -85.744391,
            38.194296
          ],
          [
            -85.744373,
            38.194301
          ],
          [
            -85.744354,
            38.1943
          ],
          [
            -85.744341,
            38.194292
          ],
          [
            -85.744336,
            38.194281
          ],
          [
            -85.744337,
            38.194268
          ],
          [
            -85.744341,
            38.194255
          ]
        ]
      }
    },
    {
      "type": "Feature",
      "properties": {
        "stroke": "#ffffff",
        "fill": "#ffffff",
        "name": "Storage"
      },
      "geometry": {
        "type": "Polygon",
        "coordinates": [
          [
            [
              -85.744236,
              38.194381
            ],
            [
              -85.744201,
              38.194349
            ],
            [
              -85.744281,
              38.194296
            ],
            [
              -85.744316,
              38.194328
            ],
            [
              -85.744236,
              38.194381
            ]
          ]
        ]
      }
    },
    {
      "type": "Feature",
      "properties": {
        "stroke": "#ff2a00",
        "fill": "#ff2a00",
        "name": "Switch track"
      },
      "geometry": {
        "type": "LineString",
        "coordinates": [
          [
            -85.744293,
            38.194307
          ],
          [
            -85.744315,
            38.194292
          ],
          [
            -85.744328,
            38.194281
          ],
          [
            -85.744337,
            38.194268
          ]
        ]
      }
    },
    {
      "type": "Feature",
      "properties": {
        "stroke": "#ffffff",
        "fill": "#ffffff",
        "name": "Station"
      },
      "geometry": {
        "type": "Polygon",
        "coordinates": [
          [
            [
              -85.744365,
              38.194258
            ],
            [
              -85.744294,
              38.194247
            ],
            [
              -85.744314,
              38.194167
            ],
            [
              -85.744401,
              38.194181
            ],
            [
              -85.744391,
              38.194224
            ],
            [
              -85.744374,
              38.194221
            ],
            [
              -85.744365,
              38.194258
            ]
          ]
        ]
      }
    }
  ],
  "properties": {
    "name": "Kentucky Flyer",
    "color": "#ff2a00",
    "basemaps": [
      {
        "id": "custom_layer_1790372181025",
        "url": "https://kyraster.ky.gov/arcgis/rest/services/ImageServices/Ky_LOJIC_2021_3IN/ImageServer",
        "wmsLayer": "",
        "layerName": "Ky LOJIC 2021 3IN",
        "opacity": 1
      }
    ]
  }
}