{
  "type": "FeatureCollection",
  "features": [
    {
      "type": "Feature",
      "properties": {
        "stroke": "#0080c0",
        "fill": "#0080c0",
        "name": "Track"
      },
      "geometry": {
        "type": "LineString",
        "coordinates": [
          [
            18.992498,
            50.277622
          ],
          [
            18.993149,
            50.277581
          ],
          [
            18.993195,
            50.277572
          ],
          [
            18.993229,
            50.277552
          ],
          [
            18.993247,
            50.277522
          ],
          [
            18.993242,
            50.277493
          ],
          [
            18.993219,
            50.277463
          ],
          [
            18.993183,
            50.277439
          ],
          [
            18.992502,
            50.276991
          ],
          [
            18.99247,
            50.276969
          ],
          [
            18.992442,
            50.276955
          ],
          [
            18.992418,
            50.276956
          ],
          [
            18.992395,
            50.276967
          ],
          [
            18.992365,
            50.276992
          ],
          [
            18.992329,
            50.277048
          ],
          [
            18.992282,
            50.27714
          ],
          [
            18.99223,
            50.277234
          ],
          [
            18.992207,
            50.277264
          ],
          [
            18.992185,
            50.277284
          ],
          [
            18.992156,
            50.277292
          ],
          [
            18.992112,
            50.277289
          ],
          [
            18.992052,
            50.277281
          ],
          [
            18.992001,
            50.277279
          ],
          [
            18.991948,
            50.27728
          ],
          [
            18.991898,
            50.277287
          ],
          [
            18.991876,
            50.277307
          ],
          [
            18.991888,
            50.277324
          ],
          [
            18.991926,
            50.277345
          ],
          [
            18.991984,
            50.277364
          ],
          [
            18.992051,
            50.277377
          ],
          [
            18.992121,
            50.277387
          ],
          [
            18.992194,
            50.27739
          ],
          [
            18.992259,
            50.277385
          ],
          [
            18.992305,
            50.277376
          ],
          [
            18.992357,
            50.277356
          ],
          [
            18.9924,
            50.277324
          ],
          [
            18.992418,
            50.277286
          ],
          [
            18.992434,
            50.27711
          ],
          [
            18.992447,
            50.277044
          ],
          [
            18.99246,
            50.277007
          ],
          [
            18.992487,
            50.276974
          ],
          [
            18.992526,
            50.27695
          ],
          [
            18.992572,
            50.276932
          ],
          [
            18.99263,
            50.276923
          ],
          [
            18.992696,
            50.276923
          ],
          [
            18.992749,
            50.276931
          ],
          [
            18.992806,
            50.276948
          ],
          [
            18.992864,
            50.276978
          ],
          [
            18.992912,
            50.277023
          ],
          [
            18.992931,
            50.277071
          ],
          [
            18.992921,
            50.277113
          ],
          [
            18.992893,
            50.277166
          ],
          [
            18.992872,
            50.277213
          ],
          [
            18.992859,
            50.277273
          ],
          [
            18.992855,
            50.27734
          ],
          [
            18.99285,
            50.277402
          ],
          [
            18.992838,
            50.277461
          ],
          [
            18.992826,
            50.27752
          ],
          [
            18.992823,
            50.277563
          ],
          [
            18.992824,
            50.277598
          ],
          [
            18.992838,
            50.277625
          ],
          [
            18.992882,
            50.277682
          ],
          [
            18.992891,
            50.277703
          ],
          [
            18.992883,
            50.277722
          ],
          [
            18.992858,
            50.277739
          ],
          [
            18.992823,
            50.277756
          ],
          [
            18.992773,
            50.277772
          ],
          [
            18.992718,
            50.277786
          ],
          [
            18.99267,
            50.277792
          ],
          [
            18.99261,
            50.277795
          ],
          [
            18.99256,
            50.277794
          ],
          [
            18.992517,
            50.277787
          ],
          [
            18.992481,
            50.277776
          ],
          [
            18.99246,
            50.277764
          ],
          [
            18.992455,
            50.277747
          ],
          [
            18.99247,
            50.277728
          ],
          [
            18.992498,
            50.277713
          ],
          [
            18.992543,
            50.277695
          ],
          [
            18.992597,
            50.277681
          ],
          [
            18.992657,
            50.277671
          ],
          [
            18.992709,
            50.277667
          ],
          [
            18.992739,
            50.277671
          ],
          [
            18.992781,
            50.277682
          ],
          [
            18.99284,
            50.277701
          ],
          [
            18.992874,
            50.27771
          ],
          [
            18.992915,
            50.277714
          ],
          [
            18.992964,
            50.277711
          ],
          [
            18.993016,
            50.277697
          ],
          [
            18.993061,
            50.277673
          ],
          [
            18.993088,
            50.277644
          ],
          [
            18.993104,
            50.277606
          ],
          [
            18.993104,
            50.277564
          ],
          [
            18.993081,
            50.277526
          ],
          [
            18.993039,
            50.277496
          ],
          [
            18.992976,
            50.277475
          ],
          [
            18.992908,
            50.277469
          ],
          [
            18.992819,
            50.27748
          ],
          [
            18.992736,
            50.277496
          ],
          [
            18.992671,
            50.277506
          ],
          [
            18.992591,
            50.277516
          ],
          [
            18.992529,
            50.27752
          ],
          [
            18.992475,
            50.277517
          ],
          [
            18.992419,
            50.277509
          ],
          [
            18.992362,
            50.277497
          ],
          [
            18.992313,
            50.277481
          ],
          [
            18.992274,
            50.277464
          ],
          [
            18.992257,
            50.277448
          ],
          [
            18.992254,
            50.277428
          ],
          [
            18.992259,
            50.277393
          ],
          [
            18.992268,
            50.277357
          ],
          [
            18.992267,
            50.277334
          ],
          [
            18.992257,
            50.277312
          ],
          [
            18.992228,
            50.277296
          ],
          [
            18.992159,
            50.277273
          ],
          [
            18.992108,
            50.277253
          ],
          [
            18.992077,
            50.277233
          ],
          [
            18.992047,
            50.277206
          ],
          [
            18.992039,
            50.277172
          ],
          [
            18.992052,
            50.277143
          ],
          [
            18.992081,
            50.277118
          ],
          [
            18.992118,
            50.277102
          ],
          [
            18.992162,
            50.277095
          ],
          [
            18.992202,
            50.277094
          ],
          [
            18.992237,
            50.2771
          ],
          [
            18.99228,
            50.277116
          ],
          [
            18.99233,
            50.27714
          ],
          [
            18.992373,
            50.277156
          ],
          [
            18.992421,
            50.277166
          ],
          [
            18.992493,
            50.277177
          ],
          [
            18.992589,
            50.277188
          ],
          [
            18.992701,
            50.277198
          ],
          [
            18.99276,
            50.277207
          ],
          [
            18.992806,
            50.277226
          ],
          [
            18.992838,
            50.27725
          ],
          [
            18.992851,
            50.277281
          ],
          [
            18.992849,
            50.277311
          ],
          [
            18.99283,
            50.27734
          ],
          [
            18.992785,
            50.277365
          ],
          [
            18.992734,
            50.277372
          ],
          [
            18.992682,
            50.277364
          ],
          [
            18.992642,
            50.277344
          ],
          [
            18.992622,
            50.277314
          ],
          [
            18.992628,
            50.277278
          ],
          [
            18.99266,
            50.277245
          ],
          [
            18.992723,
            50.277198
          ],
          [
            18.992771,
            50.277159
          ],
          [
            18.992795,
            50.277129
          ],
          [
            18.992799,
            50.277102
          ],
          [
            18.992785,
            50.277075
          ],
          [
            18.992758,
            50.277053
          ],
          [
            18.992711,
            50.277034
          ],
          [
            18.992643,
            50.277032
          ],
          [
            18.992595,
            50.277047
          ],
          [
            18.992557,
            50.277069
          ],
          [
            18.992529,
            50.277108
          ],
          [
            18.992514,
            50.277153
          ],
          [
            18.992409,
            50.277564
          ],
          [
            18.992412,
            50.277585
          ],
          [
            18.992433,
            50.277608
          ],
          [
            18.992458,
            50.277619
          ],
          [
            18.992498,
            50.277622
          ]
        ]
      }
    },
    {
      "type": "Feature",
      "properties": {
        "stroke": "#ffffff",
        "fill": "#ffffff",
        "name": "Station"
      },
      "geometry": {
        "type": "Polygon",
        "coordinates": [
          [
            [
              18.992755,
              50.277675
            ],
            [
              18.992754,
              50.277656
            ],
            [
              18.992714,
              50.277658
            ],
            [
              18.992706,
              50.277585
            ],
            [
              18.992746,
              50.277583
            ],
            [
              18.992741,
              50.277539
            ],
            [
              18.992983,
              50.277528
            ],
            [
              18.992988,
              50.277573
            ],
            [
              18.99302,
              50.277571
            ],
            [
              18.993028,
              50.277644
            ],
            [
              18.992996,
              50.277646
            ],
            [
              18.992998,
              50.277664
            ],
            [
              18.992755,
              50.277675
            ]
          ]
        ]
      }
    }
  ],
  "properties": {
    "name": "Lech Coaster",
    "color": "#0080c0",
    "basemaps": [
      {
        "id": "custom_layer_1790264501169",
        "url": "https://mapy.geoportal.gov.pl/wss/service/PZGIK/ORTO/WMS/HighResolution",
        "wmsLayer": "",
        "layerName": "Custom Layer 2",
        "opacity": 1
      }
    ]
  }
}