{
  "type": "FeatureCollection",
  "features": [
    {
      "type": "Feature",
      "properties": {
        "layer": "notnurbs",
        "stroke": "#e0bd95",
        "fill": "#e0bd95",
        "name": "Switch track"
      },
      "geometry": {
        "type": "LineString",
        "coordinates": [
          [
            153.426237,
            -27.957782
          ],
          [
            153.426232,
            -27.957782
          ],
          [
            153.426228,
            -27.957781
          ],
          [
            153.426218,
            -27.957777
          ],
          [
            153.426199,
            -27.957765
          ],
          [
            153.426194,
            -27.957761
          ],
          [
            153.426187,
            -27.957758
          ],
          [
            153.426171,
            -27.957754
          ],
          [
            153.426163,
            -27.957754
          ],
          [
            153.426154,
            -27.957754
          ],
          [
            153.426146,
            -27.957757
          ],
          [
            153.426138,
            -27.957761
          ]
        ]
      }
    },
    {
      "type": "Feature",
      "properties": {
        "layer": "notnurbs",
        "stroke": "#407297",
        "fill": "#407297",
        "name": "Track"
      },
      "geometry": {
        "type": "LineString",
        "coordinates": [
          [
            153.426031,
            -27.958104
          ],
          [
            153.426018,
            -27.958076
          ],
          [
            153.426011,
            -27.958045
          ],
          [
            153.426011,
            -27.958014
          ],
          [
            153.426018,
            -27.957983
          ],
          [
            153.426032,
            -27.957955
          ],
          [
            153.426052,
            -27.957929
          ],
          [
            153.426078,
            -27.957908
          ],
          [
            153.426107,
            -27.957891
          ],
          [
            153.426139,
            -27.95788
          ],
          [
            153.426174,
            -27.957875
          ],
          [
            153.42621,
            -27.957876
          ],
          [
            153.426244,
            -27.957883
          ],
          [
            153.426275,
            -27.957896
          ],
          [
            153.426305,
            -27.957914
          ],
          [
            153.426332,
            -27.957936
          ],
          [
            153.426354,
            -27.95796
          ],
          [
            153.426479,
            -27.958098
          ],
          [
            153.426501,
            -27.958125
          ],
          [
            153.426509,
            -27.958146
          ],
          [
            153.426511,
            -27.958163
          ],
          [
            153.426509,
            -27.95818
          ],
          [
            153.426489,
            -27.958287
          ],
          [
            153.426479,
            -27.958364
          ],
          [
            153.426485,
            -27.958413
          ],
          [
            153.426501,
            -27.958471
          ],
          [
            153.426509,
            -27.958519
          ],
          [
            153.426501,
            -27.958568
          ],
          [
            153.426477,
            -27.958612
          ],
          [
            153.426439,
            -27.958647
          ],
          [
            153.426391,
            -27.958671
          ],
          [
            153.426337,
            -27.958681
          ],
          [
            153.426282,
            -27.958677
          ],
          [
            153.426231,
            -27.958658
          ],
          [
            153.426061,
            -27.958566
          ],
          [
            153.426034,
            -27.958548
          ],
          [
            153.426013,
            -27.958526
          ],
          [
            153.425997,
            -27.9585
          ],
          [
            153.425988,
            -27.958472
          ],
          [
            153.425987,
            -27.958443
          ],
          [
            153.425992,
            -27.958414
          ],
          [
            153.426005,
            -27.958387
          ],
          [
            153.426024,
            -27.958363
          ],
          [
            153.426259,
            -27.958117
          ],
          [
            153.426283,
            -27.958089
          ],
          [
            153.426296,
            -27.958056
          ],
          [
            153.426298,
            -27.958022
          ],
          [
            153.426288,
            -27.957988
          ],
          [
            153.426277,
            -27.957971
          ],
          [
            153.426262,
            -27.957956
          ],
          [
            153.426243,
            -27.957944
          ],
          [
            153.426223,
            -27.957936
          ],
          [
            153.426201,
            -27.957931
          ],
          [
            153.426178,
            -27.957931
          ],
          [
            153.426156,
            -27.957934
          ],
          [
            153.426135,
            -27.957941
          ],
          [
            153.426116,
            -27.957952
          ],
          [
            153.4261,
            -27.957965
          ],
          [
            153.426087,
            -27.957982
          ],
          [
            153.426078,
            -27.958
          ],
          [
            153.426074,
            -27.958019
          ],
          [
            153.426073,
            -27.95804
          ],
          [
            153.426078,
            -27.958059
          ],
          [
            153.426086,
            -27.958078
          ],
          [
            153.426101,
            -27.9581
          ],
          [
            153.426119,
            -27.95812
          ],
          [
            153.426224,
            -27.958205
          ],
          [
            153.426254,
            -27.958235
          ],
          [
            153.426269,
            -27.95826
          ],
          [
            153.426273,
            -27.958282
          ],
          [
            153.426274,
            -27.958301
          ],
          [
            153.426271,
            -27.958323
          ],
          [
            153.426263,
            -27.958349
          ],
          [
            153.426245,
            -27.958399
          ],
          [
            153.426235,
            -27.958427
          ],
          [
            153.426221,
            -27.958466
          ],
          [
            153.42621,
            -27.958511
          ],
          [
            153.426214,
            -27.958557
          ],
          [
            153.426224,
            -27.958574
          ],
          [
            153.426237,
            -27.958591
          ],
          [
            153.426255,
            -27.958605
          ],
          [
            153.426276,
            -27.958616
          ],
          [
            153.426299,
            -27.958623
          ],
          [
            153.426322,
            -27.958626
          ],
          [
            153.426345,
            -27.958625
          ],
          [
            153.426366,
            -27.95862
          ],
          [
            153.4264,
            -27.958604
          ],
          [
            153.426428,
            -27.958577
          ],
          [
            153.426438,
            -27.95856
          ],
          [
            153.426444,
            -27.958542
          ],
          [
            153.426446,
            -27.958506
          ],
          [
            153.426436,
            -27.958441
          ],
          [
            153.426425,
            -27.958415
          ],
          [
            153.426393,
            -27.958371
          ],
          [
            153.42635,
            -27.958332
          ],
          [
            153.426315,
            -27.958293
          ],
          [
            153.426306,
            -27.95827
          ],
          [
            153.426303,
            -27.958249
          ],
          [
            153.426304,
            -27.958214
          ],
          [
            153.426308,
            -27.958172
          ],
          [
            153.42632,
            -27.958107
          ],
          [
            153.426329,
            -27.958074
          ],
          [
            153.426331,
            -27.958041
          ],
          [
            153.426327,
            -27.958008
          ],
          [
            153.426317,
            -27.957976
          ],
          [
            153.426302,
            -27.957954
          ],
          [
            153.426283,
            -27.957935
          ],
          [
            153.426259,
            -27.95792
          ],
          [
            153.426233,
            -27.95791
          ],
          [
            153.426205,
            -27.957904
          ],
          [
            153.426176,
            -27.957903
          ],
          [
            153.426148,
            -27.957907
          ],
          [
            153.426121,
            -27.957916
          ],
          [
            153.426097,
            -27.95793
          ],
          [
            153.426076,
            -27.957947
          ],
          [
            153.42606,
            -27.957968
          ],
          [
            153.426048,
            -27.957992
          ],
          [
            153.426042,
            -27.958017
          ],
          [
            153.426042,
            -27.958042
          ],
          [
            153.426048,
            -27.958067
          ],
          [
            153.426059,
            -27.958091
          ],
          [
            153.426082,
            -27.958125
          ],
          [
            153.426115,
            -27.958153
          ],
          [
            153.426156,
            -27.958171
          ],
          [
            153.426201,
            -27.958178
          ],
          [
            153.426325,
            -27.958182
          ],
          [
            153.426401,
            -27.95819
          ],
          [
            153.426423,
            -27.958196
          ],
          [
            153.42643,
            -27.958199
          ],
          [
            153.426437,
            -27.958203
          ],
          [
            153.426449,
            -27.958214
          ],
          [
            153.426458,
            -27.958229
          ],
          [
            153.426462,
            -27.958244
          ],
          [
            153.426462,
            -27.95826
          ],
          [
            153.426452,
            -27.958315
          ],
          [
            153.426448,
            -27.95837
          ],
          [
            153.426456,
            -27.958425
          ],
          [
            153.426471,
            -27.958479
          ],
          [
            153.426477,
            -27.958503
          ],
          [
            153.426478,
            -27.958528
          ],
          [
            153.426473,
            -27.958554
          ],
          [
            153.426462,
            -27.95858
          ],
          [
            153.426445,
            -27.958603
          ],
          [
            153.426425,
            -27.958622
          ],
          [
            153.426401,
            -27.958636
          ],
          [
            153.426376,
            -27.958646
          ],
          [
            153.42635,
            -27.958652
          ],
          [
            153.426321,
            -27.958653
          ],
          [
            153.426291,
            -27.95865
          ],
          [
            153.426262,
            -27.958641
          ],
          [
            153.426236,
            -27.958627
          ],
          [
            153.426214,
            -27.958609
          ],
          [
            153.426197,
            -27.958589
          ],
          [
            153.426185,
            -27.958567
          ],
          [
            153.425925,
            -27.958082
          ],
          [
            153.425917,
            -27.958061
          ],
          [
            153.425913,
            -27.958039
          ],
          [
            153.425913,
            -27.958017
          ],
          [
            153.425919,
            -27.957995
          ],
          [
            153.425928,
            -27.957975
          ],
          [
            153.425942,
            -27.957956
          ],
          [
            153.42596,
            -27.95794
          ],
          [
            153.42598,
            -27.957927
          ],
          [
            153.4262,
            -27.957793
          ],
          [
            153.426212,
            -27.957786
          ],
          [
            153.426226,
            -27.957783
          ],
          [
            153.42624,
            -27.957782
          ],
          [
            153.426255,
            -27.957784
          ],
          [
            153.426413,
            -27.957868
          ],
          [
            153.426428,
            -27.957882
          ],
          [
            153.426438,
            -27.9579
          ],
          [
            153.426444,
            -27.957919
          ],
          [
            153.426444,
            -27.957938
          ],
          [
            153.426372,
            -27.958549
          ],
          [
            153.426369,
            -27.958562
          ],
          [
            153.426364,
            -27.958571
          ],
          [
            153.426357,
            -27.958578
          ],
          [
            153.426349,
            -27.958582
          ],
          [
            153.42634,
            -27.958584
          ],
          [
            153.426332,
            -27.958585
          ],
          [
            153.42632,
            -27.958585
          ],
          [
            153.426317,
            -27.958585
          ],
          [
            153.426315,
            -27.958584
          ],
          [
            153.426308,
            -27.958582
          ],
          [
            153.426292,
            -27.958574
          ],
          [
            153.426275,
            -27.958561
          ],
          [
            153.426262,
            -27.958544
          ],
          [
            153.426031,
            -27.958104
          ]
        ]
      }
    },
    {
      "type": "Feature",
      "properties": {
        "stroke": "#ffffff",
        "fill": "#ffffff",
        "name": "Station"
      },
      "geometry": {
        "type": "Polygon",
        "coordinates": [
          [
            [
              153.426219,
              -27.957838
            ],
            [
              153.426303,
              -27.957715
            ],
            [
              153.426461,
              -27.957799
            ],
            [
              153.426377,
              -27.957922
            ],
            [
              153.426219,
              -27.957838
            ]
          ]
        ]
      }
    },
    {
      "type": "Feature",
      "properties": {
        "stroke": "#e0bd95",
        "fill": "#e0bd95",
        "name": "Storage"
      },
      "geometry": {
        "type": "Polygon",
        "coordinates": [
          [
            [
              153.42593,
              -27.957848
            ],
            [
              153.42597,
              -27.957899
            ],
            [
              153.426158,
              -27.957787
            ],
            [
              153.426118,
              -27.957735
            ],
            [
              153.42593,
              -27.957848
            ]
          ]
        ]
      }
    }
  ],
  "properties": {
    "name": "Leviathan",
    "color": "#407297",
    "basemaps": [
      {
        "id": "custom_layer_1790553563004",
        "url": "https://spatial-img.information.qld.gov.au/arcgis/rest/services/Basemaps/LatestStateProgram_AllUsers/ImageServer",
        "wmsLayer": "",
        "layerName": "LatestStateProgram AllUsers",
        "wmtsOpts": null,
        "opacity": 1
      }
    ]
  }
}