{
  "type": "FeatureCollection",
  "features": [
    {
      "type": "Feature",
      "properties": {},
      "geometry": {
        "type": "LineString",
        "coordinates": [
          [
            -121.971981,
            37.395097
          ],
          [
            -121.971956,
            37.395085
          ],
          [
            -121.971923,
            37.395068
          ],
          [
            -121.971899,
            37.395044
          ],
          [
            -121.97187,
            37.395016
          ],
          [
            -121.97184,
            37.395006
          ],
          [
            -121.971812,
            37.395006
          ],
          [
            -121.971786,
            37.395024
          ],
          [
            -121.971784,
            37.395054
          ],
          [
            -121.971805,
            37.395073
          ],
          [
            -121.97184,
            37.395081
          ],
          [
            -121.971891,
            37.395088
          ],
          [
            -121.971938,
            37.395105
          ],
          [
            -121.971978,
            37.395128
          ],
          [
            -121.971999,
            37.395145
          ],
          [
            -121.972023,
            37.395162
          ],
          [
            -121.972052,
            37.395181
          ],
          [
            -121.97208,
            37.395187
          ],
          [
            -121.972101,
            37.395183
          ],
          [
            -121.972107,
            37.395162
          ],
          [
            -121.972088,
            37.395147
          ],
          [
            -121.971981,
            37.395097
          ]
        ]
      }
    }
  ]
}