{
  "type": "FeatureCollection",
  "features": [
    {
      "type": "Feature",
      "properties": {
        "name": "Track"
      },
      "geometry": {
        "type": "LineString",
        "coordinates": [
          [
            -81.514386,
            28.329935
          ],
          [
            -81.514376,
            28.329863
          ],
          [
            -81.514373,
            28.329842
          ],
          [
            -81.51436,
            28.32983
          ],
          [
            -81.514339,
            28.329828
          ],
          [
            -81.514325,
            28.329839
          ],
          [
            -81.51432,
            28.329858
          ],
          [
            -81.514319,
            28.329875
          ],
          [
            -81.514299,
            28.330512
          ],
          [
            -81.514307,
            28.330534
          ],
          [
            -81.514332,
            28.330549
          ],
          [
            -81.514358,
            28.330546
          ],
          [
            -81.514377,
            28.330532
          ],
          [
            -81.514381,
            28.330509
          ],
          [
            -81.514355,
            28.330181
          ],
          [
            -81.51435,
            28.330134
          ],
          [
            -81.514349,
            28.330084
          ],
          [
            -81.514356,
            28.330036
          ],
          [
            -81.514422,
            28.329789
          ],
          [
            -81.514428,
            28.32975
          ],
          [
            -81.514428,
            28.329709
          ],
          [
            -81.514419,
            28.32967
          ],
          [
            -81.5144,
            28.329635
          ],
          [
            -81.514372,
            28.329609
          ],
          [
            -81.51434,
            28.329592
          ],
          [
            -81.51429,
            28.329591
          ],
          [
            -81.514238,
            28.329606
          ],
          [
            -81.514196,
            28.329636
          ],
          [
            -81.514164,
            28.329677
          ],
          [
            -81.514152,
            28.329726
          ],
          [
            -81.51415,
            28.329786
          ],
          [
            -81.514156,
            28.329846
          ],
          [
            -81.514221,
            28.330173
          ],
          [
            -81.514248,
            28.330227
          ],
          [
            -81.514285,
            28.33027
          ],
          [
            -81.514426,
            28.330404
          ],
          [
            -81.51445,
            28.330447
          ],
          [
            -81.51446,
            28.330488
          ],
          [
            -81.514455,
            28.330526
          ],
          [
            -81.514432,
            28.330565
          ],
          [
            -81.514396,
            28.330588
          ],
          [
            -81.514366,
            28.330596
          ],
          [
            -81.514332,
            28.330595
          ],
          [
            -81.514302,
            28.330585
          ],
          [
            -81.514278,
            28.330571
          ],
          [
            -81.514254,
            28.330534
          ],
          [
            -81.514251,
            28.330458
          ],
          [
            -81.514259,
            28.330146
          ],
          [
            -81.514259,
            28.330089
          ],
          [
            -81.514253,
            28.330059
          ],
          [
            -81.514237,
            28.330024
          ],
          [
            -81.51422,
            28.329985
          ],
          [
            -81.514206,
            28.329947
          ],
          [
            -81.514195,
            28.329906
          ],
          [
            -81.514184,
            28.329815
          ],
          [
            -81.514178,
            28.329776
          ],
          [
            -81.514181,
            28.329733
          ],
          [
            -81.514192,
            28.329689
          ],
          [
            -81.514212,
            28.329653
          ],
          [
            -81.51424,
            28.32963
          ],
          [
            -81.514278,
            28.329616
          ],
          [
            -81.514324,
            28.329618
          ],
          [
            -81.51436,
            28.329631
          ],
          [
            -81.514384,
            28.329659
          ],
          [
            -81.514392,
            28.32968
          ],
          [
            -81.514398,
            28.329713
          ],
          [
            -81.514391,
            28.32974
          ],
          [
            -81.514375,
            28.329763
          ],
          [
            -81.514343,
            28.329789
          ],
          [
            -81.514284,
            28.329836
          ],
          [
            -81.514257,
            28.329865
          ],
          [
            -81.514239,
            28.329901
          ],
          [
            -81.514236,
            28.329939
          ],
          [
            -81.514247,
            28.329982
          ],
          [
            -81.514267,
            28.330025
          ],
          [
            -81.514282,
            28.330064
          ],
          [
            -81.514286,
            28.330097
          ],
          [
            -81.514274,
            28.330506
          ],
          [
            -81.514282,
            28.330533
          ],
          [
            -81.514303,
            28.330558
          ],
          [
            -81.514336,
            28.330569
          ],
          [
            -81.514365,
            28.330566
          ],
          [
            -81.51439,
            28.330552
          ],
          [
            -81.514408,
            28.330533
          ],
          [
            -81.514415,
            28.330507
          ],
          [
            -81.514422,
            28.330348
          ],
          [
            -81.514426,
            28.330308
          ],
          [
            -81.514428,
            28.330277
          ],
          [
            -81.514426,
            28.330231
          ],
          [
            -81.51439,
            28.32996
          ],
          [
            -81.514386,
            28.329935
          ]
        ]
      }
    },
    {
      "type": "Feature",
      "properties": {
        "stroke": "#ffffff",
        "fill": "#ffffff",
        "name": "Station"
      },
      "geometry": {
        "type": "Polygon",
        "coordinates": [
          [
            [
              -81.514341,
              28.329865
            ],
            [
              -81.514422,
              28.329857
            ],
            [
              -81.514433,
              28.329939
            ],
            [
              -81.514352,
              28.329948
            ],
            [
              -81.514341,
              28.329865
            ]
          ]
        ]
      }
    },
    {
      "type": "Feature",
      "properties": {
        "stroke": "#feea98",
        "fill": "#feea98",
        "name": "Storage"
      },
      "geometry": {
        "type": "Polygon",
        "coordinates": [
          [
            [
              -81.514293,
              28.329804
            ],
            [
              -81.514233,
              28.329737
            ],
            [
              -81.514319,
              28.32968
            ],
            [
              -81.514366,
              28.329734
            ],
            [
              -81.514329,
              28.32976
            ],
            [
              -81.51434,
              28.329772
            ],
            [
              -81.514293,
              28.329804
            ]
          ]
        ]
      }
    },
    {
      "type": "Feature",
      "properties": {
        "stroke": "#feea98",
        "fill": "#feea98",
        "name": "Switch track"
      },
      "geometry": {
        "type": "LineString",
        "coordinates": [
          [
            -81.514351,
            28.329829
          ],
          [
            -81.514314,
            28.32979
          ]
        ]
      }
    }
  ],
  "properties": {
    "name": "Mine Blower (Fun Spot Kissimmee)",
    "color": "#ff2a00",
    "basemaps": [
      {
        "id": "custom_layer_1790565873752",
        "url": "https://paags.property-appraiser.org/server/rest/services/AGS_AERIALS_2023_WM/MapServer",
        "wmsLayer": "",
        "layerName": "AGS AERIALS 2023 WM",
        "wmtsOpts": null,
        "opacity": 1
      }
    ]
  }
}