{
  "type": "FeatureCollection",
  "features": [
    {
      "type": "Feature",
      "properties": {
        "name": "Track"
      },
      "geometry": {
        "type": "LineString",
        "coordinates": [
          [
            -74.871532,
            40.186281
          ],
          [
            -74.871528,
            40.186199
          ],
          [
            -74.871522,
            40.186139
          ],
          [
            -74.871524,
            40.18613
          ],
          [
            -74.871637,
            40.185818
          ],
          [
            -74.871639,
            40.185798
          ],
          [
            -74.871632,
            40.185777
          ],
          [
            -74.87161,
            40.185762
          ],
          [
            -74.871581,
            40.185762
          ],
          [
            -74.871555,
            40.185776
          ],
          [
            -74.871546,
            40.185799
          ],
          [
            -74.871376,
            40.186291
          ],
          [
            -74.871368,
            40.18632
          ],
          [
            -74.871367,
            40.186344
          ],
          [
            -74.871381,
            40.186374
          ],
          [
            -74.871403,
            40.186404
          ],
          [
            -74.871434,
            40.186434
          ],
          [
            -74.871469,
            40.186476
          ],
          [
            -74.871486,
            40.186507
          ],
          [
            -74.871486,
            40.186542
          ],
          [
            -74.871469,
            40.186568
          ],
          [
            -74.871436,
            40.186589
          ],
          [
            -74.871393,
            40.186597
          ],
          [
            -74.871345,
            40.186591
          ],
          [
            -74.871308,
            40.186568
          ],
          [
            -74.871291,
            40.186539
          ],
          [
            -74.871285,
            40.186508
          ],
          [
            -74.871285,
            40.186467
          ],
          [
            -74.8713,
            40.18642
          ],
          [
            -74.8715,
            40.185799
          ],
          [
            -74.871514,
            40.185774
          ],
          [
            -74.871538,
            40.185751
          ],
          [
            -74.871563,
            40.185737
          ],
          [
            -74.871599,
            40.185734
          ],
          [
            -74.871631,
            40.185741
          ],
          [
            -74.871658,
            40.18576
          ],
          [
            -74.871669,
            40.185789
          ],
          [
            -74.871669,
            40.185907
          ],
          [
            -74.871661,
            40.185942
          ],
          [
            -74.87164,
            40.18597
          ],
          [
            -74.871612,
            40.185992
          ],
          [
            -74.871583,
            40.186003
          ],
          [
            -74.871547,
            40.186012
          ],
          [
            -74.871507,
            40.186033
          ],
          [
            -74.871481,
            40.186065
          ],
          [
            -74.871468,
            40.1861
          ],
          [
            -74.871423,
            40.186253
          ],
          [
            -74.871417,
            40.186275
          ],
          [
            -74.871419,
            40.18629
          ],
          [
            -74.871428,
            40.186299
          ],
          [
            -74.871449,
            40.186306
          ],
          [
            -74.871509,
            40.186311
          ],
          [
            -74.871523,
            40.186307
          ],
          [
            -74.871531,
            40.186298
          ],
          [
            -74.871532,
            40.186281
          ]
        ]
      }
    },
    {
      "type": "Feature",
      "properties": {
        "stroke": "#ffff00",
        "fill": "#ffff00",
        "name": "Station"
      },
      "geometry": {
        "type": "Polygon",
        "coordinates": [
          [
            [
              -74.871579,
              40.186282
            ],
            [
              -74.871577,
              40.1862
            ],
            [
              -74.871453,
              40.186204
            ],
            [
              -74.871455,
              40.186263
            ],
            [
              -74.871474,
              40.186263
            ],
            [
              -74.871475,
              40.186283
            ],
            [
              -74.871579,
              40.186282
            ]
          ]
        ]
      }
    }
  ]
}