{
  "type": "FeatureCollection",
  "features": [
    {
      "type": "Feature",
      "properties": {},
      "geometry": {
        "type": "LineString",
        "coordinates": [
          [
            -72.614487,
            42.040548
          ],
          [
            -72.614487,
            42.040625
          ],
          [
            -72.614483,
            42.040637
          ],
          [
            -72.614469,
            42.040644
          ],
          [
            -72.614456,
            42.040644
          ],
          [
            -72.614445,
            42.040639
          ],
          [
            -72.614438,
            42.040631
          ],
          [
            -72.614437,
            42.040622
          ],
          [
            -72.614441,
            42.040283
          ],
          [
            -72.614444,
            42.040265
          ],
          [
            -72.614456,
            42.040252
          ],
          [
            -72.614474,
            42.040242
          ],
          [
            -72.614511,
            42.040239
          ],
          [
            -72.61455,
            42.040245
          ],
          [
            -72.614588,
            42.040266
          ],
          [
            -72.6146,
            42.040281
          ],
          [
            -72.614608,
            42.040297
          ],
          [
            -72.614611,
            42.040319
          ],
          [
            -72.614615,
            42.040397
          ],
          [
            -72.614609,
            42.040411
          ],
          [
            -72.614589,
            42.040422
          ],
          [
            -72.614566,
            42.040423
          ],
          [
            -72.614544,
            42.040413
          ],
          [
            -72.614535,
            42.040399
          ],
          [
            -72.614535,
            42.040357
          ],
          [
            -72.614528,
            42.040345
          ],
          [
            -72.614514,
            42.040338
          ],
          [
            -72.614499,
            42.040338
          ],
          [
            -72.614483,
            42.040343
          ],
          [
            -72.61447,
            42.040355
          ],
          [
            -72.614465,
            42.040462
          ],
          [
            -72.614473,
            42.040488
          ],
          [
            -72.614495,
            42.040507
          ],
          [
            -72.614526,
            42.040511
          ],
          [
            -72.614556,
            42.040504
          ],
          [
            -72.614576,
            42.040488
          ],
          [
            -72.614579,
            42.040466
          ],
          [
            -72.614565,
            42.040446
          ],
          [
            -72.614542,
            42.040433
          ],
          [
            -72.614515,
            42.040431
          ],
          [
            -72.614494,
            42.040438
          ],
          [
            -72.614475,
            42.040452
          ],
          [
            -72.614467,
            42.040471
          ],
          [
            -72.614474,
            42.040488
          ],
          [
            -72.614496,
            42.040507
          ],
          [
            -72.614516,
            42.040519
          ],
          [
            -72.614531,
            42.040525
          ],
          [
            -72.614549,
            42.040528
          ],
          [
            -72.614582,
            42.040527
          ],
          [
            -72.614635,
            42.040527
          ],
          [
            -72.614666,
            42.04053
          ],
          [
            -72.61469,
            42.040541
          ],
          [
            -72.614707,
            42.04056
          ],
          [
            -72.614712,
            42.040581
          ],
          [
            -72.614711,
            42.040603
          ],
          [
            -72.614699,
            42.040627
          ],
          [
            -72.61468,
            42.040641
          ],
          [
            -72.614654,
            42.040645
          ],
          [
            -72.614627,
            42.040645
          ],
          [
            -72.614605,
            42.04064
          ],
          [
            -72.614586,
            42.040628
          ],
          [
            -72.614572,
            42.040612
          ],
          [
            -72.614565,
            42.040599
          ],
          [
            -72.614564,
            42.040583
          ],
          [
            -72.614571,
            42.040568
          ],
          [
            -72.614585,
            42.040557
          ],
          [
            -72.614603,
            42.04055
          ],
          [
            -72.614625,
            42.040549
          ],
          [
            -72.614649,
            42.04056
          ],
          [
            -72.61466,
            42.040575
          ],
          [
            -72.614664,
            42.040593
          ],
          [
            -72.614661,
            42.040612
          ],
          [
            -72.614652,
            42.040627
          ],
          [
            -72.614562,
            42.040754
          ],
          [
            -72.614551,
            42.040786
          ],
          [
            -72.61455,
            42.04082
          ],
          [
            -72.614562,
            42.040852
          ],
          [
            -72.614582,
            42.040881
          ],
          [
            -72.614621,
            42.040907
          ],
          [
            -72.614661,
            42.040919
          ],
          [
            -72.614706,
            42.040922
          ],
          [
            -72.614742,
            42.040918
          ],
          [
            -72.614782,
            42.040909
          ],
          [
            -72.614816,
            42.040892
          ],
          [
            -72.614842,
            42.040869
          ],
          [
            -72.614857,
            42.040839
          ],
          [
            -72.614858,
            42.040809
          ],
          [
            -72.614851,
            42.040778
          ],
          [
            -72.614762,
            42.040628
          ],
          [
            -72.614748,
            42.040611
          ],
          [
            -72.614727,
            42.040594
          ],
          [
            -72.614634,
            42.040518
          ],
          [
            -72.614613,
            42.040497
          ],
          [
            -72.614593,
            42.040472
          ],
          [
            -72.614498,
            42.040347
          ],
          [
            -72.614489,
            42.040332
          ],
          [
            -72.614486,
            42.040315
          ],
          [
            -72.614487,
            42.040302
          ],
          [
            -72.614487,
            42.040291
          ],
          [
            -72.614492,
            42.040281
          ],
          [
            -72.614498,
            42.040273
          ],
          [
            -72.614506,
            42.040266
          ],
          [
            -72.614521,
            42.04026
          ],
          [
            -72.614536,
            42.040256
          ],
          [
            -72.614551,
            42.040257
          ],
          [
            -72.614565,
            42.04026
          ],
          [
            -72.614584,
            42.04027
          ],
          [
            -72.614592,
            42.04028
          ],
          [
            -72.614598,
            42.040291
          ],
          [
            -72.614601,
            42.040308
          ],
          [
            -72.614598,
            42.040326
          ],
          [
            -72.614496,
            42.040428
          ],
          [
            -72.614484,
            42.040443
          ],
          [
            -72.614477,
            42.040464
          ],
          [
            -72.614487,
            42.040533
          ],
          [
            -72.614487,
            42.040548
          ]
        ]
      }
    },
    {
      "type": "Feature",
      "properties": {
        "stroke": "#ffffff",
        "fill": "#ffffff"
      },
      "geometry": {
        "type": "Polygon",
        "coordinates": [
          [
            [
              -72.614537,
              42.040625
            ],
            [
              -72.614536,
              42.040548
            ],
            [
              -72.614448,
              42.040548
            ],
            [
              -72.614448,
              42.040625
            ],
            [
              -72.614537,
              42.040625
            ]
          ]
        ]
      }
    }
  ],
  "properties": {
    "name": "Pandemonium2",
    "color": "#ff2a00",
    "basemaps": [
      {
        "id": "custom_layer_1790602987828",
        "url": "https://tiles.arcgis.com/tiles/hGdibHYSPO59RG1h/arcgis/rest/services/USGS_Orthos_2019/MapServer/WMTS/",
        "wmsLayer": "USGS_Orthos_2019",
        "layerName": "USGS_Orthos_2019",
        "wmtsOpts": {
          "format": "image/jpgpng",
          "style": "default",
          "tileMatrixSet": "default028mm"
        },
        "opacity": 1
      }
    ]
  }
}