{
  "type": "FeatureCollection",
  "features": [
    {
      "type": "Feature",
      "properties": {
        "stroke": "#ea0000",
        "fill": "#ea0000"
      },
      "geometry": {
        "type": "LineString",
        "coordinates": [
          [
            -98.60737,
            29.59515
          ],
          [
            -98.6074,
            29.595243
          ],
          [
            -98.607398,
            29.595251
          ],
          [
            -98.607393,
            29.595258
          ],
          [
            -98.607387,
            29.595263
          ],
          [
            -98.60738,
            29.595265
          ],
          [
            -98.607368,
            29.595268
          ],
          [
            -98.607357,
            29.595267
          ],
          [
            -98.607348,
            29.595265
          ],
          [
            -98.607339,
            29.59526
          ],
          [
            -98.607332,
            29.595253
          ],
          [
            -98.607328,
            29.595245
          ],
          [
            -98.607326,
            29.595234
          ],
          [
            -98.607319,
            29.594907
          ],
          [
            -98.607315,
            29.594891
          ],
          [
            -98.607305,
            29.594876
          ],
          [
            -98.607289,
            29.594863
          ],
          [
            -98.60727,
            29.594856
          ],
          [
            -98.60725,
            29.594856
          ],
          [
            -98.607228,
            29.594863
          ],
          [
            -98.60721,
            29.594876
          ],
          [
            -98.607196,
            29.594891
          ],
          [
            -98.607186,
            29.594916
          ],
          [
            -98.607162,
            29.595011
          ],
          [
            -98.607163,
            29.59503
          ],
          [
            -98.607176,
            29.595041
          ],
          [
            -98.607192,
            29.595045
          ],
          [
            -98.60721,
            29.595041
          ],
          [
            -98.607222,
            29.595028
          ],
          [
            -98.607226,
            29.594982
          ],
          [
            -98.607233,
            29.594968
          ],
          [
            -98.607253,
            29.594961
          ],
          [
            -98.607275,
            29.594966
          ],
          [
            -98.607284,
            29.594982
          ],
          [
            -98.607286,
            29.595003
          ],
          [
            -98.607285,
            29.59509
          ],
          [
            -98.607276,
            29.595116
          ],
          [
            -98.607253,
            29.595129
          ],
          [
            -98.607229,
            29.595131
          ],
          [
            -98.607207,
            29.595122
          ],
          [
            -98.607193,
            29.595101
          ],
          [
            -98.607196,
            29.595078
          ],
          [
            -98.607212,
            29.595059
          ],
          [
            -98.607234,
            29.595052
          ],
          [
            -98.607261,
            29.595055
          ],
          [
            -98.607279,
            29.595069
          ],
          [
            -98.607285,
            29.595088
          ],
          [
            -98.607276,
            29.595116
          ],
          [
            -98.607253,
            29.59513
          ],
          [
            -98.607234,
            29.595136
          ],
          [
            -98.607209,
            29.595138
          ],
          [
            -98.607177,
            29.595135
          ],
          [
            -98.607147,
            29.595134
          ],
          [
            -98.607114,
            29.595139
          ],
          [
            -98.607092,
            29.595154
          ],
          [
            -98.607079,
            29.595178
          ],
          [
            -98.607078,
            29.595203
          ],
          [
            -98.607087,
            29.595224
          ],
          [
            -98.607112,
            29.59524
          ],
          [
            -98.607142,
            29.595247
          ],
          [
            -98.607173,
            29.595242
          ],
          [
            -98.607198,
            29.595228
          ],
          [
            -98.607209,
            29.595208
          ],
          [
            -98.607209,
            29.595183
          ],
          [
            -98.607195,
            29.595164
          ],
          [
            -98.607172,
            29.595155
          ],
          [
            -98.607149,
            29.595156
          ],
          [
            -98.60713,
            29.595169
          ],
          [
            -98.607117,
            29.59519
          ],
          [
            -98.607115,
            29.59521
          ],
          [
            -98.607124,
            29.595232
          ],
          [
            -98.607203,
            29.595365
          ],
          [
            -98.607209,
            29.595392
          ],
          [
            -98.607207,
            29.59542
          ],
          [
            -98.607198,
            29.595453
          ],
          [
            -98.607176,
            29.595485
          ],
          [
            -98.607138,
            29.595511
          ],
          [
            -98.607098,
            29.595523
          ],
          [
            -98.607052,
            29.595523
          ],
          [
            -98.607015,
            29.595508
          ],
          [
            -98.606986,
            29.59549
          ],
          [
            -98.606964,
            29.595468
          ],
          [
            -98.606949,
            29.595436
          ],
          [
            -98.606944,
            29.595404
          ],
          [
            -98.606954,
            29.595369
          ],
          [
            -98.607024,
            29.595251
          ],
          [
            -98.607039,
            29.595231
          ],
          [
            -98.607058,
            29.595208
          ],
          [
            -98.607084,
            29.595184
          ],
          [
            -98.607113,
            29.595167
          ],
          [
            -98.607136,
            29.595151
          ],
          [
            -98.607163,
            29.595125
          ],
          [
            -98.607302,
            29.59493
          ],
          [
            -98.60731,
            29.594911
          ],
          [
            -98.60731,
            29.594894
          ],
          [
            -98.607302,
            29.594879
          ],
          [
            -98.607287,
            29.594868
          ],
          [
            -98.607269,
            29.594861
          ],
          [
            -98.607251,
            29.594861
          ],
          [
            -98.607231,
            29.594868
          ],
          [
            -98.607214,
            29.59488
          ],
          [
            -98.607204,
            29.594895
          ],
          [
            -98.607201,
            29.594909
          ],
          [
            -98.607203,
            29.594924
          ],
          [
            -98.60721,
            29.594938
          ],
          [
            -98.607223,
            29.594951
          ],
          [
            -98.607333,
            29.595051
          ],
          [
            -98.607343,
            29.595066
          ],
          [
            -98.607349,
            29.595083
          ],
          [
            -98.60737,
            29.595151
          ]
        ]
      }
    },
    {
      "type": "Feature",
      "properties": {
        "stroke": "#ffffff",
        "fill": "#ffffff"
      },
      "geometry": {
        "type": "Polygon",
        "coordinates": [
          [
            [
              -98.607384,
              29.59525
            ],
            [
              -98.607353,
              29.595155
            ],
            [
              -98.607415,
              29.59514
            ],
            [
              -98.607446,
              29.595132
            ],
            [
              -98.607458,
              29.595168
            ],
            [
              -98.607488,
              29.595161
            ],
            [
              -98.607492,
              29.595172
            ],
            [
              -98.607507,
              29.59522
            ],
            [
              -98.607384,
              29.59525
            ]
          ]
        ]
      }
    }
  ],
  "properties": {
    "name": "Pandemonium",
    "color": "#ff2a00",
    "basemaps": [
      {
        "id": "custom_layer_1790601905975",
        "url": "https://txgi.tnris.org/login/path/patriot-package-fame-level/wmts",
        "wmsLayer": "2024_urban_6in_hexagon",
        "layerName": "2024_Urban_6in_Hexagon",
        "wmtsOpts": {
          "format": "image/jpeg",
          "style": "default",
          "tileMatrixSet": "0to19"
        },
        "opacity": 1
      }
    ]
  }
}