{
  "type": "FeatureCollection",
  "features": [
    {
      "type": "Feature",
      "properties": {},
      "geometry": {
        "type": "LineString",
        "coordinates": [
          [
            -121.973177,
            37.396613
          ],
          [
            -121.973171,
            37.397202
          ],
          [
            -121.973175,
            37.397263
          ],
          [
            -121.973161,
            37.397312
          ],
          [
            -121.973122,
            37.397376
          ],
          [
            -121.973019,
            37.397512
          ],
          [
            -121.972972,
            37.39757
          ],
          [
            -121.972912,
            37.397624
          ],
          [
            -121.972827,
            37.397677
          ],
          [
            -121.972778,
            37.397696
          ],
          [
            -121.972723,
            37.397697
          ],
          [
            -121.972664,
            37.39768
          ],
          [
            -121.972618,
            37.39764
          ],
          [
            -121.972602,
            37.397606
          ],
          [
            -121.972607,
            37.397567
          ],
          [
            -121.972634,
            37.397534
          ],
          [
            -121.972683,
            37.39751
          ],
          [
            -121.972736,
            37.397504
          ],
          [
            -121.972819,
            37.397506
          ],
          [
            -121.972854,
            37.397509
          ],
          [
            -121.97288,
            37.397504
          ],
          [
            -121.972892,
            37.397484
          ],
          [
            -121.972884,
            37.397454
          ],
          [
            -121.972876,
            37.397426
          ],
          [
            -121.972878,
            37.397399
          ],
          [
            -121.972891,
            37.397374
          ],
          [
            -121.972928,
            37.397354
          ],
          [
            -121.972978,
            37.397348
          ],
          [
            -121.973102,
            37.397355
          ],
          [
            -121.97315,
            37.397357
          ],
          [
            -121.973189,
            37.397345
          ],
          [
            -121.97322,
            37.397324
          ],
          [
            -121.973253,
            37.397291
          ],
          [
            -121.973349,
            37.397164
          ],
          [
            -121.973376,
            37.397129
          ],
          [
            -121.973423,
            37.397113
          ],
          [
            -121.973479,
            37.39712
          ],
          [
            -121.973516,
            37.397143
          ],
          [
            -121.973537,
            37.397176
          ],
          [
            -121.973537,
            37.397222
          ],
          [
            -121.973512,
            37.39726
          ],
          [
            -121.973457,
            37.397285
          ],
          [
            -121.973395,
            37.397284
          ],
          [
            -121.973354,
            37.397268
          ],
          [
            -121.973319,
            37.397236
          ],
          [
            -121.973305,
            37.397187
          ],
          [
            -121.973311,
            37.397145
          ],
          [
            -121.973343,
            37.397103
          ],
          [
            -121.973392,
            37.397073
          ],
          [
            -121.973438,
            37.397058
          ],
          [
            -121.97348,
            37.397052
          ],
          [
            -121.973543,
            37.397047
          ],
          [
            -121.973588,
            37.397037
          ],
          [
            -121.97363,
            37.397014
          ],
          [
            -121.973652,
            37.396989
          ],
          [
            -121.97367,
            37.396957
          ],
          [
            -121.973685,
            37.39692
          ],
          [
            -121.973708,
            37.396894
          ],
          [
            -121.973753,
            37.396882
          ],
          [
            -121.973793,
            37.396886
          ],
          [
            -121.973828,
            37.396908
          ],
          [
            -121.973851,
            37.396948
          ],
          [
            -121.973844,
            37.396984
          ],
          [
            -121.973819,
            37.397014
          ],
          [
            -121.97379,
            37.397034
          ],
          [
            -121.97371,
            37.397064
          ],
          [
            -121.973681,
            37.397074
          ],
          [
            -121.973619,
            37.397106
          ],
          [
            -121.97346,
            37.397194
          ],
          [
            -121.973572,
            37.397111
          ],
          [
            -121.973433,
            37.397183
          ],
          [
            -121.973342,
            37.397229
          ],
          [
            -121.9733,
            37.397249
          ],
          [
            -121.973244,
            37.397271
          ],
          [
            -121.973198,
            37.397284
          ],
          [
            -121.97316,
            37.39729
          ],
          [
            -121.973121,
            37.397285
          ],
          [
            -121.973083,
            37.397269
          ],
          [
            -121.973063,
            37.397237
          ],
          [
            -121.973049,
            37.397141
          ],
          [
            -121.973041,
            37.397086
          ],
          [
            -121.97303,
            37.396692
          ],
          [
            -121.973019,
            37.396608
          ],
          [
            -121.973021,
            37.396584
          ],
          [
            -121.973037,
            37.39656
          ],
          [
            -121.973063,
            37.396541
          ],
          [
            -121.9731,
            37.396536
          ],
          [
            -121.973133,
            37.396544
          ],
          [
            -121.973161,
            37.396563
          ],
          [
            -121.973176,
            37.396585
          ],
          [
            -121.973177,
            37.396613
          ]
        ]
      }
    }
  ]
}