{
  "type": "FeatureCollection",
  "features": [
    {
      "type": "Feature",
      "properties": {},
      "geometry": {
        "type": "LineString",
        "coordinates": [
          [
            -121.970607,
            37.39379
          ],
          [
            -121.970525,
            37.39384
          ],
          [
            -121.970502,
            37.393852
          ],
          [
            -121.970484,
            37.393855
          ],
          [
            -121.970465,
            37.393845
          ],
          [
            -121.970254,
            37.393661
          ],
          [
            -121.970231,
            37.393638
          ],
          [
            -121.970226,
            37.39362
          ],
          [
            -121.970233,
            37.393605
          ],
          [
            -121.970248,
            37.393593
          ],
          [
            -121.970335,
            37.393539
          ],
          [
            -121.970358,
            37.393532
          ],
          [
            -121.970383,
            37.393542
          ],
          [
            -121.970387,
            37.393558
          ],
          [
            -121.970373,
            37.393575
          ],
          [
            -121.970298,
            37.393621
          ],
          [
            -121.970288,
            37.393636
          ],
          [
            -121.970293,
            37.393654
          ],
          [
            -121.970315,
            37.393662
          ],
          [
            -121.970336,
            37.393657
          ],
          [
            -121.970412,
            37.39361
          ],
          [
            -121.970434,
            37.3936
          ],
          [
            -121.970455,
            37.393599
          ],
          [
            -121.970466,
            37.393607
          ],
          [
            -121.970472,
            37.393623
          ],
          [
            -121.970461,
            37.39364
          ],
          [
            -121.97037,
            37.393696
          ],
          [
            -121.970357,
            37.393709
          ],
          [
            -121.970354,
            37.393728
          ],
          [
            -121.970368,
            37.393742
          ],
          [
            -121.970395,
            37.393741
          ],
          [
            -121.970484,
            37.393685
          ],
          [
            -121.970504,
            37.393678
          ],
          [
            -121.970524,
            37.393682
          ],
          [
            -121.970535,
            37.393694
          ],
          [
            -121.970532,
            37.393712
          ],
          [
            -121.970518,
            37.393726
          ],
          [
            -121.970437,
            37.393773
          ],
          [
            -121.970422,
            37.393786
          ],
          [
            -121.970417,
            37.393804
          ],
          [
            -121.970431,
            37.39382
          ],
          [
            -121.970454,
            37.393821
          ],
          [
            -121.970474,
            37.393813
          ],
          [
            -121.970556,
            37.39376
          ],
          [
            -121.97058,
            37.393752
          ],
          [
            -121.970601,
            37.393756
          ],
          [
            -121.970614,
            37.393776
          ],
          [
            -121.970613,
            37.3938
          ],
          [
            -121.9706,
            37.393819
          ],
          [
            -121.970573,
            37.393829
          ],
          [
            -121.970543,
            37.393828
          ],
          [
            -121.970516,
            37.393814
          ],
          [
            -121.970286,
            37.393581
          ],
          [
            -121.970278,
            37.393558
          ],
          [
            -121.97029,
            37.39354
          ],
          [
            -121.970316,
            37.393533
          ],
          [
            -121.970351,
            37.393552
          ],
          [
            -121.970581,
            37.39378
          ],
          [
            -121.970591,
            37.393796
          ],
          [
            -121.970592,
            37.393812
          ],
          [
            -121.970576,
            37.393835
          ],
          [
            -121.970546,
            37.393851
          ],
          [
            -121.970512,
            37.393849
          ],
          [
            -121.970486,
            37.393829
          ],
          [
            -121.970258,
            37.3936
          ],
          [
            -121.970246,
            37.39358
          ],
          [
            -121.970253,
            37.393563
          ],
          [
            -121.970278,
            37.393548
          ],
          [
            -121.970297,
            37.393538
          ],
          [
            -121.970332,
            37.393516
          ],
          [
            -121.970351,
            37.393508
          ],
          [
            -121.970373,
            37.393511
          ],
          [
            -121.970604,
            37.393742
          ],
          [
            -121.970619,
            37.393761
          ],
          [
            -121.970621,
            37.393776
          ],
          [
            -121.970607,
            37.39379
          ]
        ]
      }
    }
  ]
}