{
  "type": "FeatureCollection",
  "features": [
    {
      "type": "Feature",
      "properties": {},
      "geometry": {
        "type": "LineString",
        "coordinates": [
          [
            -121.973594,
            37.394992
          ],
          [
            -121.973767,
            37.395412
          ],
          [
            -121.973776,
            37.395432
          ],
          [
            -121.973804,
            37.395447
          ],
          [
            -121.973843,
            37.395446
          ],
          [
            -121.973874,
            37.395428
          ],
          [
            -121.973881,
            37.395398
          ],
          [
            -121.973855,
            37.395354
          ],
          [
            -121.973666,
            37.395023
          ],
          [
            -121.973604,
            37.394908
          ],
          [
            -121.97358,
            37.394881
          ],
          [
            -121.973544,
            37.394852
          ],
          [
            -121.973686,
            37.394961
          ],
          [
            -121.973735,
            37.39501
          ],
          [
            -121.973756,
            37.395061
          ],
          [
            -121.973752,
            37.395112
          ],
          [
            -121.973729,
            37.395167
          ],
          [
            -121.973698,
            37.395199
          ],
          [
            -121.973657,
            37.395234
          ],
          [
            -121.973643,
            37.395265
          ],
          [
            -121.973652,
            37.395299
          ],
          [
            -121.973677,
            37.395323
          ],
          [
            -121.973712,
            37.395342
          ],
          [
            -121.97376,
            37.395352
          ],
          [
            -121.973842,
            37.395361
          ],
          [
            -121.973876,
            37.395368
          ],
          [
            -121.97391,
            37.395388
          ],
          [
            -121.973929,
            37.395415
          ],
          [
            -121.97393,
            37.395451
          ],
          [
            -121.973906,
            37.395471
          ],
          [
            -121.973871,
            37.395476
          ],
          [
            -121.973841,
            37.395461
          ],
          [
            -121.973825,
            37.395439
          ],
          [
            -121.973827,
            37.395414
          ],
          [
            -121.973847,
            37.395387
          ],
          [
            -121.973884,
            37.395351
          ],
          [
            -121.973899,
            37.395319
          ],
          [
            -121.973891,
            37.395292
          ],
          [
            -121.973872,
            37.395273
          ],
          [
            -121.973846,
            37.395263
          ],
          [
            -121.973607,
            37.395149
          ],
          [
            -121.973563,
            37.395128
          ],
          [
            -121.973529,
            37.395095
          ],
          [
            -121.973522,
            37.395063
          ],
          [
            -121.973536,
            37.395036
          ],
          [
            -121.973568,
            37.395002
          ],
          [
            -121.973603,
            37.394954
          ],
          [
            -121.973633,
            37.394932
          ],
          [
            -121.973674,
            37.394925
          ],
          [
            -121.973717,
            37.394934
          ],
          [
            -121.973759,
            37.394961
          ],
          [
            -121.973794,
            37.394997
          ],
          [
            -121.973804,
            37.395037
          ],
          [
            -121.973792,
            37.39508
          ],
          [
            -121.973741,
            37.395183
          ],
          [
            -121.973723,
            37.395227
          ],
          [
            -121.973727,
            37.395257
          ],
          [
            -121.973741,
            37.395291
          ],
          [
            -121.973766,
            37.39532
          ],
          [
            -121.973796,
            37.395338
          ],
          [
            -121.97384,
            37.395342
          ],
          [
            -121.973871,
            37.395331
          ],
          [
            -121.973888,
            37.395321
          ],
          [
            -121.973904,
            37.395298
          ],
          [
            -121.973907,
            37.395273
          ],
          [
            -121.973896,
            37.395242
          ],
          [
            -121.973865,
            37.395214
          ],
          [
            -121.973824,
            37.395193
          ],
          [
            -121.97352,
            37.395047
          ],
          [
            -121.973498,
            37.395036
          ],
          [
            -121.973486,
            37.395026
          ],
          [
            -121.973477,
            37.395006
          ],
          [
            -121.973418,
            37.394869
          ],
          [
            -121.973413,
            37.394853
          ],
          [
            -121.973424,
            37.394835
          ],
          [
            -121.973438,
            37.39482
          ],
          [
            -121.973465,
            37.394811
          ],
          [
            -121.973497,
            37.394815
          ],
          [
            -121.973517,
            37.394829
          ],
          [
            -121.973526,
            37.394845
          ],
          [
            -121.973594,
            37.394992
          ]
        ]
      }
    }
  ]
}