{
  "type": "FeatureCollection",
  "features": [
    {
      "type": "Feature",
      "properties": {
        "stroke": "#c0c0c0",
        "fill": "#c0c0c0",
        "name": "Track"
      },
      "geometry": {
        "type": "LineString",
        "coordinates": [
          [
            -80.157339,
            42.109089
          ],
          [
            -80.157154,
            42.109095
          ],
          [
            -80.157111,
            42.109097
          ],
          [
            -80.157086,
            42.109105
          ],
          [
            -80.157065,
            42.109124
          ],
          [
            -80.157045,
            42.109154
          ],
          [
            -80.156879,
            42.109738
          ],
          [
            -80.15687,
            42.109774
          ],
          [
            -80.156857,
            42.109809
          ],
          [
            -80.156828,
            42.109849
          ],
          [
            -80.156791,
            42.109886
          ],
          [
            -80.156735,
            42.109921
          ],
          [
            -80.156656,
            42.109959
          ],
          [
            -80.156585,
            42.109984
          ],
          [
            -80.15649,
            42.110001
          ],
          [
            -80.155825,
            42.110001
          ],
          [
            -80.155754,
            42.109994
          ],
          [
            -80.155686,
            42.10998
          ],
          [
            -80.155627,
            42.109971
          ],
          [
            -80.155575,
            42.109969
          ],
          [
            -80.15552,
            42.109975
          ],
          [
            -80.155415,
            42.110014
          ],
          [
            -80.155337,
            42.110047
          ],
          [
            -80.155254,
            42.110075
          ],
          [
            -80.155182,
            42.110087
          ],
          [
            -80.155109,
            42.110079
          ],
          [
            -80.155054,
            42.110057
          ],
          [
            -80.155013,
            42.110015
          ],
          [
            -80.154992,
            42.109976
          ],
          [
            -80.15499,
            42.109932
          ],
          [
            -80.15501,
            42.109884
          ],
          [
            -80.155051,
            42.109851
          ],
          [
            -80.155103,
            42.109837
          ],
          [
            -80.155156,
            42.109842
          ],
          [
            -80.155209,
            42.109866
          ],
          [
            -80.155462,
            42.109978
          ],
          [
            -80.155523,
            42.109999
          ],
          [
            -80.155584,
            42.110013
          ],
          [
            -80.155646,
            42.110022
          ],
          [
            -80.155753,
            42.110023
          ],
          [
            -80.156492,
            42.110028
          ],
          [
            -80.15656,
            42.110022
          ],
          [
            -80.156622,
            42.110006
          ],
          [
            -80.15668,
            42.109985
          ],
          [
            -80.157303,
            42.109706
          ],
          [
            -80.157391,
            42.109662
          ],
          [
            -80.157468,
            42.109611
          ],
          [
            -80.157512,
            42.109574
          ],
          [
            -80.157538,
            42.109528
          ],
          [
            -80.157555,
            42.109468
          ],
          [
            -80.157563,
            42.109388
          ],
          [
            -80.15755,
            42.109337
          ],
          [
            -80.157523,
            42.109292
          ],
          [
            -80.157474,
            42.109261
          ],
          [
            -80.157401,
            42.109241
          ],
          [
            -80.15701,
            42.109192
          ],
          [
            -80.156965,
            42.10919
          ],
          [
            -80.156917,
            42.109196
          ],
          [
            -80.156882,
            42.109211
          ],
          [
            -80.156857,
            42.109242
          ],
          [
            -80.156847,
            42.10927
          ],
          [
            -80.156846,
            42.109303
          ],
          [
            -80.156862,
            42.109342
          ],
          [
            -80.156894,
            42.109374
          ],
          [
            -80.156927,
            42.109393
          ],
          [
            -80.156964,
            42.109402
          ],
          [
            -80.15701,
            42.109399
          ],
          [
            -80.157048,
            42.109387
          ],
          [
            -80.157093,
            42.10936
          ],
          [
            -80.157163,
            42.109311
          ],
          [
            -80.157228,
            42.109278
          ],
          [
            -80.157296,
            42.109261
          ],
          [
            -80.157371,
            42.10926
          ],
          [
            -80.157442,
            42.109274
          ],
          [
            -80.157491,
            42.1093
          ],
          [
            -80.157518,
            42.109342
          ],
          [
            -80.157534,
            42.109391
          ],
          [
            -80.157527,
            42.109466
          ],
          [
            -80.157511,
            42.109528
          ],
          [
            -80.157485,
            42.109566
          ],
          [
            -80.15744,
            42.109601
          ],
          [
            -80.157369,
            42.109646
          ],
          [
            -80.157316,
            42.109671
          ],
          [
            -80.157269,
            42.109687
          ],
          [
            -80.157206,
            42.109697
          ],
          [
            -80.15713,
            42.109691
          ],
          [
            -80.156883,
            42.109659
          ],
          [
            -80.15684,
            42.109649
          ],
          [
            -80.156815,
            42.10963
          ],
          [
            -80.156794,
            42.109607
          ],
          [
            -80.156784,
            42.109576
          ],
          [
            -80.156804,
            42.109313
          ],
          [
            -80.156813,
            42.109271
          ],
          [
            -80.156832,
            42.109231
          ],
          [
            -80.156858,
            42.1092
          ],
          [
            -80.15689,
            42.109178
          ],
          [
            -80.156944,
            42.109166
          ],
          [
            -80.156998,
            42.109165
          ],
          [
            -80.157056,
            42.109173
          ],
          [
            -80.157353,
            42.109211
          ],
          [
            -80.15739,
            42.109208
          ],
          [
            -80.157422,
            42.109194
          ],
          [
            -80.157444,
            42.109172
          ],
          [
            -80.157447,
            42.109148
          ],
          [
            -80.15744,
            42.109122
          ],
          [
            -80.157422,
            42.109104
          ],
          [
            -80.157397,
            42.109091
          ],
          [
            -80.157367,
            42.109088
          ],
          [
            -80.157339,
            42.109089
          ]
        ]
      }
    },
    {
      "type": "Feature",
      "properties": {
        "stroke": "#0080ff",
        "fill": "#0080ff",
        "name": "Bridge"
      },
      "geometry": {
        "type": "Polygon",
        "coordinates": [
          [
            [
              -80.156419,
              42.110049
            ],
            [
              -80.155841,
              42.110045
            ],
            [
              -80.155841,
              42.109976
            ],
            [
              -80.156419,
              42.109979
            ],
            [
              -80.156419,
              42.110049
            ]
          ]
        ]
      }
    },
    {
      "type": "Feature",
      "properties": {
        "stroke": "#0080ff",
        "fill": "#0080ff",
        "name": "Station"
      },
      "geometry": {
        "type": "Polygon",
        "coordinates": [
          [
            [
              -80.157165,
              42.109149
            ],
            [
              -80.157159,
              42.109058
            ],
            [
              -80.157265,
              42.109054
            ],
            [
              -80.157318,
              42.109052
            ],
            [
              -80.157344,
              42.109051
            ],
            [
              -80.15735,
              42.109119
            ],
            [
              -80.157375,
              42.109118
            ],
            [
              -80.157377,
              42.109141
            ],
            [
              -80.157165,
              42.109149
            ]
          ]
        ]
      }
    }
  ],
  "properties": {
    "name": "Ravine Flyer II",
    "color": "#c0c0c0",
    "basemaps": [
      {
        "id": "custom_layer_1790443358798",
        "url": "https://imagery.pasda.psu.edu/arcgis/services/pasda/PEMAImagery2021_2023/MapServer/WMSServer?SERVICE=WMS&request=getcapabilities",
        "wmsLayer": "",
        "layerName": "2",
        "opacity": 1
      }
    ]
  }
}