{
  "type": "FeatureCollection",
  "features": [
    {
      "type": "Feature",
      "properties": {
        "stroke": "#804000",
        "fill": "#804000",
        "name": "Track"
      },
      "geometry": {
        "type": "LineString",
        "coordinates": [
          [
            2.598741,
            51.08095
          ],
          [
            2.598735,
            51.080928
          ],
          [
            2.598729,
            51.080908
          ],
          [
            2.598711,
            51.08089
          ],
          [
            2.598683,
            51.080872
          ],
          [
            2.598584,
            51.080823
          ],
          [
            2.598516,
            51.0808
          ],
          [
            2.598444,
            51.080788
          ],
          [
            2.597022,
            51.080659
          ],
          [
            2.596951,
            51.080648
          ],
          [
            2.596897,
            51.080621
          ],
          [
            2.596862,
            51.080583
          ],
          [
            2.59685,
            51.080539
          ],
          [
            2.596895,
            51.080309
          ],
          [
            2.596905,
            51.080251
          ],
          [
            2.596911,
            51.080208
          ],
          [
            2.596897,
            51.080184
          ],
          [
            2.596862,
            51.080195
          ],
          [
            2.59685,
            51.080222
          ],
          [
            2.596872,
            51.08026
          ],
          [
            2.596917,
            51.080284
          ],
          [
            2.596973,
            51.080293
          ],
          [
            2.59703,
            51.080287
          ],
          [
            2.597081,
            51.080268
          ],
          [
            2.597101,
            51.080234
          ],
          [
            2.597083,
            51.080205
          ],
          [
            2.597048,
            51.080198
          ],
          [
            2.597014,
            51.080209
          ],
          [
            2.596988,
            51.080232
          ],
          [
            2.596978,
            51.08026
          ],
          [
            2.596971,
            51.080317
          ],
          [
            2.596971,
            51.080362
          ],
          [
            2.596974,
            51.080407
          ],
          [
            2.59699,
            51.080498
          ],
          [
            2.597053,
            51.080313
          ],
          [
            2.597046,
            51.080606
          ],
          [
            2.597052,
            51.08067
          ],
          [
            2.59704,
            51.080709
          ],
          [
            2.597012,
            51.080755
          ],
          [
            2.596969,
            51.080799
          ],
          [
            2.596949,
            51.080847
          ],
          [
            2.596961,
            51.080896
          ],
          [
            2.597012,
            51.080928
          ],
          [
            2.597083,
            51.080951
          ],
          [
            2.597178,
            51.080961
          ],
          [
            2.597253,
            51.080956
          ],
          [
            2.59733,
            51.080937
          ],
          [
            2.597379,
            51.080905
          ],
          [
            2.597391,
            51.080869
          ],
          [
            2.597399,
            51.080822
          ],
          [
            2.597415,
            51.080781
          ],
          [
            2.597449,
            51.080745
          ],
          [
            2.597492,
            51.08072
          ],
          [
            2.597543,
            51.080696
          ],
          [
            2.59761,
            51.080685
          ],
          [
            2.597674,
            51.080686
          ],
          [
            2.598306,
            51.08074
          ],
          [
            2.598354,
            51.080744
          ],
          [
            2.598402,
            51.08075
          ],
          [
            2.598449,
            51.080756
          ],
          [
            2.598493,
            51.080764
          ],
          [
            2.598876,
            51.080857
          ],
          [
            2.598934,
            51.08087
          ],
          [
            2.598992,
            51.080872
          ],
          [
            2.599035,
            51.080866
          ],
          [
            2.599072,
            51.080851
          ],
          [
            2.599076,
            51.080841
          ],
          [
            2.599074,
            51.080831
          ],
          [
            2.599057,
            51.080809
          ],
          [
            2.599008,
            51.080775
          ],
          [
            2.59892,
            51.080723
          ],
          [
            2.598826,
            51.080683
          ],
          [
            2.598604,
            51.0806
          ],
          [
            2.598533,
            51.08057
          ],
          [
            2.598498,
            51.080547
          ],
          [
            2.598469,
            51.080515
          ],
          [
            2.598454,
            51.080475
          ],
          [
            2.598449,
            51.080429
          ],
          [
            2.598458,
            51.08038
          ],
          [
            2.598493,
            51.080331
          ],
          [
            2.598527,
            51.080302
          ],
          [
            2.598559,
            51.080288
          ],
          [
            2.598602,
            51.080282
          ],
          [
            2.59867,
            51.080282
          ],
          [
            2.598739,
            51.080286
          ],
          [
            2.598805,
            51.080293
          ],
          [
            2.598856,
            51.080308
          ],
          [
            2.5989,
            51.080336
          ],
          [
            2.598943,
            51.080382
          ],
          [
            2.598959,
            51.08043
          ],
          [
            2.598963,
            51.080528
          ],
          [
            2.599011,
            51.081266
          ],
          [
            2.599003,
            51.081296
          ],
          [
            2.598976,
            51.081319
          ],
          [
            2.598939,
            51.08133
          ],
          [
            2.598897,
            51.081329
          ],
          [
            2.598862,
            51.081319
          ],
          [
            2.598839,
            51.081303
          ],
          [
            2.598825,
            51.081282
          ],
          [
            2.598818,
            51.081257
          ],
          [
            2.598741,
            51.08095
          ]
        ]
      }
    },
    {
      "type": "Feature",
      "properties": {
        "stroke": "#008080",
        "fill": "#008080",
        "name": "Station"
      },
      "geometry": {
        "type": "Polygon",
        "coordinates": [
          [
            [
              2.598973,
              51.081053
            ],
            [
              2.598964,
              51.080852
            ],
            [
              2.598868,
              51.080854
            ],
            [
              2.598872,
              51.080954
            ],
            [
              2.598874,
              51.080979
            ],
            [
              2.598836,
              51.080979
            ],
            [
              2.598831,
              51.080959
            ],
            [
              2.598648,
              51.080978
            ],
            [
              2.598684,
              51.081115
            ],
            [
              2.598867,
              51.081096
            ],
            [
              2.59885,
              51.08103
            ],
            [
              2.598876,
              51.081029
            ],
            [
              2.598877,
              51.081054
            ],
            [
              2.598973,
              51.081053
            ]
          ]
        ]
      }
    }
  ],
  "properties": {
    "name": "Ride to Happiness",
    "color": "#ff2a00",
    "basemaps": [
      {
        "id": "custom_layer_1790212552086",
        "url": "https://wms.ngi.be/inspire/ortho/service?request=GetCapabilities&service=WMS&",
        "wmsLayer": "",
        "layerName": "Custom Layer 1",
        "opacity": 1
      }
    ]
  }
}