{
  "type": "FeatureCollection",
  "features": [
    {
      "type": "Feature",
      "properties": {},
      "geometry": {
        "type": "LineString",
        "coordinates": [
          [
            -71.178175,
            44.116558
          ],
          [
            -71.178189,
            44.116555
          ],
          [
            -71.1782,
            44.116555
          ],
          [
            -71.178524,
            44.116649
          ],
          [
            -71.178553,
            44.116655
          ],
          [
            -71.178572,
            44.116654
          ],
          [
            -71.178588,
            44.116645
          ],
          [
            -71.178599,
            44.116633
          ],
          [
            -71.178603,
            44.116612
          ],
          [
            -71.178589,
            44.116591
          ],
          [
            -71.178566,
            44.11658
          ],
          [
            -71.178535,
            44.116568
          ],
          [
            -71.178337,
            44.116495
          ],
          [
            -71.178297,
            44.116484
          ],
          [
            -71.178269,
            44.116479
          ],
          [
            -71.178237,
            44.116477
          ],
          [
            -71.177964,
            44.116493
          ],
          [
            -71.177868,
            44.116502
          ],
          [
            -71.177788,
            44.116522
          ],
          [
            -71.177722,
            44.116552
          ],
          [
            -71.177689,
            44.116589
          ],
          [
            -71.17769,
            44.116626
          ],
          [
            -71.177722,
            44.116657
          ],
          [
            -71.177781,
            44.116687
          ],
          [
            -71.177823,
            44.116703
          ],
          [
            -71.177875,
            44.11671
          ],
          [
            -71.177916,
            44.116696
          ],
          [
            -71.177941,
            44.116668
          ],
          [
            -71.17796,
            44.116629
          ],
          [
            -71.17799,
            44.116549
          ],
          [
            -71.178001,
            44.116514
          ],
          [
            -71.17802,
            44.116477
          ],
          [
            -71.178042,
            44.116452
          ],
          [
            -71.178084,
            44.116437
          ],
          [
            -71.178119,
            44.116431
          ],
          [
            -71.178169,
            44.116437
          ],
          [
            -71.17822,
            44.116444
          ],
          [
            -71.178287,
            44.116458
          ],
          [
            -71.178347,
            44.116473
          ],
          [
            -71.178544,
            44.116546
          ],
          [
            -71.17859,
            44.116568
          ],
          [
            -71.178628,
            44.116595
          ],
          [
            -71.17864,
            44.116617
          ],
          [
            -71.178638,
            44.116646
          ],
          [
            -71.178628,
            44.116671
          ],
          [
            -71.178576,
            44.116691
          ],
          [
            -71.178541,
            44.116693
          ],
          [
            -71.178505,
            44.116688
          ],
          [
            -71.178472,
            44.116673
          ],
          [
            -71.178448,
            44.116653
          ],
          [
            -71.17843,
            44.11661
          ],
          [
            -71.178415,
            44.11658
          ],
          [
            -71.178389,
            44.116549
          ],
          [
            -71.178351,
            44.116528
          ],
          [
            -71.178305,
            44.116513
          ],
          [
            -71.178262,
            44.116504
          ],
          [
            -71.178213,
            44.116501
          ],
          [
            -71.17817,
            44.116501
          ],
          [
            -71.178131,
            44.116509
          ],
          [
            -71.178082,
            44.116525
          ],
          [
            -71.178044,
            44.11654
          ],
          [
            -71.178003,
            44.116558
          ],
          [
            -71.177966,
            44.116567
          ],
          [
            -71.177929,
            44.116567
          ],
          [
            -71.177879,
            44.11656
          ],
          [
            -71.177839,
            44.116555
          ],
          [
            -71.177794,
            44.116554
          ],
          [
            -71.177751,
            44.116563
          ],
          [
            -71.177727,
            44.116584
          ],
          [
            -71.177719,
            44.116607
          ],
          [
            -71.17773,
            44.116631
          ],
          [
            -71.177759,
            44.116649
          ],
          [
            -71.177794,
            44.116658
          ],
          [
            -71.177834,
            44.116659
          ],
          [
            -71.177867,
            44.116651
          ],
          [
            -71.177923,
            44.116634
          ],
          [
            -71.178175,
            44.116558
          ]
        ]
      }
    }
  ]
}