{
  "type": "FeatureCollection",
  "features": [
    {
      "type": "Feature",
      "properties": {},
      "geometry": {
        "type": "LineString",
        "coordinates": [
          [
            -78.973718,
            43.028516
          ],
          [
            -78.973692,
            43.028528
          ],
          [
            -78.973684,
            43.02854
          ],
          [
            -78.973616,
            43.028695
          ],
          [
            -78.973616,
            43.028736
          ],
          [
            -78.973647,
            43.028769
          ],
          [
            -78.973703,
            43.028783
          ],
          [
            -78.973761,
            43.028775
          ],
          [
            -78.973798,
            43.028751
          ],
          [
            -78.974471,
            43.028279
          ],
          [
            -78.974532,
            43.028233
          ],
          [
            -78.974585,
            43.028168
          ],
          [
            -78.974626,
            43.0281
          ],
          [
            -78.974643,
            43.028048
          ],
          [
            -78.974895,
            43.027085
          ],
          [
            -78.974898,
            43.027036
          ],
          [
            -78.974868,
            43.026985
          ],
          [
            -78.974815,
            43.026951
          ],
          [
            -78.974749,
            43.026938
          ],
          [
            -78.974674,
            43.026947
          ],
          [
            -78.974612,
            43.02698
          ],
          [
            -78.974576,
            43.027027
          ],
          [
            -78.974573,
            43.027076
          ],
          [
            -78.974612,
            43.027119
          ],
          [
            -78.974729,
            43.027261
          ],
          [
            -78.974769,
            43.027317
          ],
          [
            -78.974781,
            43.027384
          ],
          [
            -78.974768,
            43.027438
          ],
          [
            -78.974616,
            43.028013
          ],
          [
            -78.974584,
            43.028059
          ],
          [
            -78.974528,
            43.028087
          ],
          [
            -78.974462,
            43.028093
          ],
          [
            -78.974402,
            43.028073
          ],
          [
            -78.974364,
            43.028034
          ],
          [
            -78.974351,
            43.027988
          ],
          [
            -78.974312,
            43.02767
          ],
          [
            -78.97432,
            43.027617
          ],
          [
            -78.97436,
            43.027572
          ],
          [
            -78.974426,
            43.027541
          ],
          [
            -78.974492,
            43.027536
          ],
          [
            -78.974575,
            43.027561
          ],
          [
            -78.97462,
            43.027599
          ],
          [
            -78.974639,
            43.027645
          ],
          [
            -78.974626,
            43.027703
          ],
          [
            -78.974596,
            43.02774
          ],
          [
            -78.97441,
            43.02796
          ],
          [
            -78.97439,
            43.027998
          ],
          [
            -78.974406,
            43.028036
          ],
          [
            -78.974446,
            43.028061
          ],
          [
            -78.974502,
            43.02807
          ],
          [
            -78.97456,
            43.028048
          ],
          [
            -78.974587,
            43.02801
          ],
          [
            -78.97467,
            43.027663
          ],
          [
            -78.974662,
            43.02761
          ],
          [
            -78.974636,
            43.02757
          ],
          [
            -78.974593,
            43.027536
          ],
          [
            -78.974505,
            43.02751
          ],
          [
            -78.974419,
            43.027514
          ],
          [
            -78.974343,
            43.027547
          ],
          [
            -78.974281,
            43.027607
          ],
          [
            -78.974273,
            43.027668
          ],
          [
            -78.974347,
            43.028136
          ],
          [
            -78.974345,
            43.028189
          ],
          [
            -78.97432,
            43.028239
          ],
          [
            -78.97428,
            43.028285
          ],
          [
            -78.974221,
            43.028316
          ],
          [
            -78.973904,
            43.028442
          ],
          [
            -78.973718,
            43.028516
          ]
        ]
      }
    }
  ]
}