{
  "type": "FeatureCollection",
  "features": [
    {
      "type": "Feature",
      "properties": {},
      "geometry": {
        "type": "LineString",
        "coordinates": [
          [
            -82.685208,
            41.480781
          ],
          [
            -82.685021,
            41.481579
          ],
          [
            -82.685015,
            41.48161
          ],
          [
            -82.685022,
            41.481629
          ],
          [
            -82.685039,
            41.48165
          ],
          [
            -82.685236,
            41.481803
          ],
          [
            -82.685166,
            41.481749
          ],
          [
            -82.685195,
            41.481728
          ],
          [
            -82.685215,
            41.481707
          ],
          [
            -82.685232,
            41.481676
          ],
          [
            -82.685251,
            41.481624
          ],
          [
            -82.685268,
            41.481555
          ],
          [
            -82.685283,
            41.481479
          ],
          [
            -82.685302,
            41.481422
          ],
          [
            -82.68532,
            41.481375
          ],
          [
            -82.685349,
            41.48133
          ],
          [
            -82.685372,
            41.481277
          ],
          [
            -82.685379,
            41.481237
          ],
          [
            -82.685371,
            41.481194
          ],
          [
            -82.685361,
            41.48115
          ],
          [
            -82.685374,
            41.481111
          ],
          [
            -82.685395,
            41.4811
          ],
          [
            -82.685412,
            41.481126
          ],
          [
            -82.685407,
            41.481168
          ],
          [
            -82.68539,
            41.481208
          ],
          [
            -82.685366,
            41.481248
          ],
          [
            -82.685331,
            41.481288
          ],
          [
            -82.685293,
            41.481326
          ],
          [
            -82.685251,
            41.48137
          ],
          [
            -82.685218,
            41.481411
          ],
          [
            -82.6852,
            41.481495
          ],
          [
            -82.685181,
            41.481562
          ],
          [
            -82.685151,
            41.481615
          ],
          [
            -82.685111,
            41.481661
          ],
          [
            -82.685037,
            41.481719
          ],
          [
            -82.68499,
            41.481744
          ],
          [
            -82.68494,
            41.481758
          ],
          [
            -82.684882,
            41.481756
          ],
          [
            -82.684844,
            41.481732
          ],
          [
            -82.684828,
            41.481697
          ],
          [
            -82.684829,
            41.481665
          ],
          [
            -82.684853,
            41.481632
          ],
          [
            -82.684899,
            41.481603
          ],
          [
            -82.684964,
            41.48156
          ],
          [
            -82.685,
            41.481531
          ],
          [
            -82.685019,
            41.481492
          ],
          [
            -82.685016,
            41.481431
          ],
          [
            -82.68502,
            41.481398
          ],
          [
            -82.685037,
            41.481346
          ],
          [
            -82.685049,
            41.481296
          ],
          [
            -82.685061,
            41.481255
          ],
          [
            -82.685086,
            41.481226
          ],
          [
            -82.685143,
            41.48119
          ],
          [
            -82.685214,
            41.481152
          ],
          [
            -82.685284,
            41.481109
          ],
          [
            -82.685344,
            41.481068
          ],
          [
            -82.685458,
            41.480994
          ],
          [
            -82.685543,
            41.480935
          ],
          [
            -82.685602,
            41.480887
          ],
          [
            -82.685634,
            41.480852
          ],
          [
            -82.68564,
            41.480822
          ],
          [
            -82.68562,
            41.480803
          ],
          [
            -82.685582,
            41.480804
          ],
          [
            -82.685534,
            41.480827
          ],
          [
            -82.685491,
            41.480859
          ],
          [
            -82.685442,
            41.480899
          ],
          [
            -82.685397,
            41.480916
          ],
          [
            -82.685348,
            41.480918
          ],
          [
            -82.685304,
            41.480895
          ],
          [
            -82.685294,
            41.480859
          ],
          [
            -82.685312,
            41.480825
          ],
          [
            -82.685356,
            41.480794
          ],
          [
            -82.685413,
            41.480769
          ],
          [
            -82.685476,
            41.48076
          ],
          [
            -82.685549,
            41.480763
          ],
          [
            -82.685619,
            41.480779
          ],
          [
            -82.685666,
            41.480816
          ],
          [
            -82.68569,
            41.480862
          ],
          [
            -82.685684,
            41.480903
          ],
          [
            -82.685656,
            41.48094
          ],
          [
            -82.685621,
            41.480962
          ],
          [
            -82.685558,
            41.480972
          ],
          [
            -82.685429,
            41.480977
          ],
          [
            -82.685337,
            41.480979
          ],
          [
            -82.685269,
            41.480996
          ],
          [
            -82.685228,
            41.481024
          ],
          [
            -82.6852,
            41.481074
          ],
          [
            -82.685196,
            41.481136
          ],
          [
            -82.6852,
            41.481198
          ],
          [
            -82.685194,
            41.481239
          ],
          [
            -82.685172,
            41.481278
          ],
          [
            -82.685134,
            41.481331
          ],
          [
            -82.685101,
            41.481382
          ],
          [
            -82.685098,
            41.48144
          ],
          [
            -82.685107,
            41.481499
          ],
          [
            -82.685108,
            41.481544
          ],
          [
            -82.685093,
            41.481585
          ],
          [
            -82.685055,
            41.481621
          ],
          [
            -82.684982,
            41.481672
          ],
          [
            -82.684901,
            41.481727
          ],
          [
            -82.684831,
            41.481748
          ],
          [
            -82.684765,
            41.481748
          ],
          [
            -82.684715,
            41.481732
          ],
          [
            -82.68468,
            41.481702
          ],
          [
            -82.684662,
            41.481664
          ],
          [
            -82.684672,
            41.481623
          ],
          [
            -82.684709,
            41.481589
          ],
          [
            -82.684766,
            41.481571
          ],
          [
            -82.684846,
            41.481557
          ],
          [
            -82.684918,
            41.481541
          ],
          [
            -82.68498,
            41.481508
          ],
          [
            -82.685004,
            41.481474
          ],
          [
            -82.685007,
            41.481434
          ],
          [
            -82.684986,
            41.481378
          ],
          [
            -82.684949,
            41.481306
          ],
          [
            -82.684931,
            41.481246
          ],
          [
            -82.684937,
            41.481192
          ],
          [
            -82.68496,
            41.481122
          ],
          [
            -82.684979,
            41.481055
          ],
          [
            -82.68504,
            41.480755
          ],
          [
            -82.685055,
            41.480708
          ],
          [
            -82.685087,
            41.480679
          ],
          [
            -82.685137,
            41.480665
          ],
          [
            -82.685184,
            41.48068
          ],
          [
            -82.685216,
            41.480715
          ],
          [
            -82.685217,
            41.480752
          ],
          [
            -82.685208,
            41.480781
          ]
        ]
      }
    }
  ]
}