{
  "type": "FeatureCollection",
  "features": [
    {
      "type": "Feature",
      "properties": {},
      "geometry": {
        "type": "LineString",
        "coordinates": [
          [
            -76.777229,
            38.910454
          ],
          [
            -76.777233,
            38.91048
          ],
          [
            -76.777214,
            38.910505
          ],
          [
            -76.77718,
            38.910518
          ],
          [
            -76.777137,
            38.910511
          ],
          [
            -76.777115,
            38.910494
          ],
          [
            -76.777105,
            38.910462
          ],
          [
            -76.776752,
            38.908884
          ],
          [
            -76.776707,
            38.908676
          ],
          [
            -76.776697,
            38.90856
          ],
          [
            -76.776718,
            38.908442
          ],
          [
            -76.776793,
            38.908323
          ],
          [
            -76.776868,
            38.908249
          ],
          [
            -76.776984,
            38.90818
          ],
          [
            -76.777164,
            38.908126
          ],
          [
            -76.777306,
            38.908106
          ],
          [
            -76.779569,
            38.90778
          ],
          [
            -76.779752,
            38.907769
          ],
          [
            -76.779821,
            38.90777
          ],
          [
            -76.779885,
            38.907776
          ],
          [
            -76.779947,
            38.907789
          ],
          [
            -76.780009,
            38.907813
          ],
          [
            -76.780078,
            38.907854
          ],
          [
            -76.780123,
            38.907898
          ],
          [
            -76.780153,
            38.907941
          ],
          [
            -76.780174,
            38.90799
          ],
          [
            -76.780185,
            38.908042
          ],
          [
            -76.780181,
            38.908098
          ],
          [
            -76.780168,
            38.908151
          ],
          [
            -76.780145,
            38.908198
          ],
          [
            -76.780104,
            38.908243
          ],
          [
            -76.780055,
            38.90828
          ],
          [
            -76.780008,
            38.908308
          ],
          [
            -76.779958,
            38.90833
          ],
          [
            -76.7799,
            38.908342
          ],
          [
            -76.779839,
            38.908352
          ],
          [
            -76.779774,
            38.908353
          ],
          [
            -76.779716,
            38.908345
          ],
          [
            -76.779654,
            38.908327
          ],
          [
            -76.779599,
            38.9083
          ],
          [
            -76.779553,
            38.90827
          ],
          [
            -76.779513,
            38.908232
          ],
          [
            -76.779482,
            38.908191
          ],
          [
            -76.779461,
            38.908139
          ],
          [
            -76.779451,
            38.908091
          ],
          [
            -76.77945,
            38.908043
          ],
          [
            -76.779463,
            38.907993
          ],
          [
            -76.779479,
            38.907952
          ],
          [
            -76.77951,
            38.90791
          ],
          [
            -76.779549,
            38.907873
          ],
          [
            -76.779608,
            38.907833
          ],
          [
            -76.779675,
            38.907808
          ],
          [
            -76.779755,
            38.907791
          ],
          [
            -76.779819,
            38.907781
          ],
          [
            -76.779885,
            38.907777
          ],
          [
            -76.779946,
            38.907791
          ],
          [
            -76.780008,
            38.907814
          ],
          [
            -76.780076,
            38.907855
          ],
          [
            -76.78012,
            38.907899
          ],
          [
            -76.78015,
            38.907942
          ],
          [
            -76.780171,
            38.907991
          ],
          [
            -76.780183,
            38.908042
          ],
          [
            -76.780179,
            38.908097
          ],
          [
            -76.780166,
            38.908151
          ],
          [
            -76.780142,
            38.908197
          ],
          [
            -76.780102,
            38.908242
          ],
          [
            -76.780053,
            38.908278
          ],
          [
            -76.780006,
            38.908306
          ],
          [
            -76.779957,
            38.908327
          ],
          [
            -76.779899,
            38.90834
          ],
          [
            -76.779839,
            38.908349
          ],
          [
            -76.779774,
            38.908351
          ],
          [
            -76.777286,
            38.908238
          ],
          [
            -76.777198,
            38.908237
          ],
          [
            -76.777129,
            38.908237
          ],
          [
            -76.777056,
            38.908245
          ],
          [
            -76.776987,
            38.908267
          ],
          [
            -76.776924,
            38.908301
          ],
          [
            -76.776881,
            38.908348
          ],
          [
            -76.776853,
            38.908396
          ],
          [
            -76.776838,
            38.908449
          ],
          [
            -76.776841,
            38.908503
          ],
          [
            -76.776864,
            38.908557
          ],
          [
            -76.776899,
            38.908595
          ],
          [
            -76.776943,
            38.908629
          ],
          [
            -76.776995,
            38.908656
          ],
          [
            -76.777054,
            38.908673
          ],
          [
            -76.77713,
            38.908679
          ],
          [
            -76.777195,
            38.908672
          ],
          [
            -76.777258,
            38.908652
          ],
          [
            -76.777314,
            38.908621
          ],
          [
            -76.777362,
            38.908573
          ],
          [
            -76.777394,
            38.908525
          ],
          [
            -76.777406,
            38.908472
          ],
          [
            -76.777405,
            38.908421
          ],
          [
            -76.777383,
            38.908364
          ],
          [
            -76.777348,
            38.908316
          ],
          [
            -76.777302,
            38.908275
          ],
          [
            -76.777253,
            38.908252
          ],
          [
            -76.777198,
            38.908238
          ],
          [
            -76.777129,
            38.908238
          ],
          [
            -76.777056,
            38.908247
          ],
          [
            -76.776987,
            38.908269
          ],
          [
            -76.776925,
            38.908302
          ],
          [
            -76.776883,
            38.908349
          ],
          [
            -76.776855,
            38.908397
          ],
          [
            -76.77684,
            38.90845
          ],
          [
            -76.776843,
            38.908503
          ],
          [
            -76.776866,
            38.908556
          ],
          [
            -76.776915,
            38.908621
          ],
          [
            -76.77699,
            38.908693
          ],
          [
            -76.777147,
            38.90882
          ],
          [
            -76.777207,
            38.908886
          ],
          [
            -76.777234,
            38.908951
          ],
          [
            -76.777226,
            38.909018
          ],
          [
            -76.777186,
            38.909065
          ],
          [
            -76.777104,
            38.90913
          ],
          [
            -76.777045,
            38.909201
          ],
          [
            -76.777003,
            38.909276
          ],
          [
            -76.776994,
            38.909354
          ],
          [
            -76.77701,
            38.909453
          ],
          [
            -76.777196,
            38.910289
          ],
          [
            -76.777229,
            38.910454
          ]
        ]
      }
    }
  ]
}