{
  "type": "FeatureCollection",
  "features": [
    {
      "type": "Feature",
      "geometry": {
        "type": "Polygon",
        "coordinates": [
          [
            [
              -97.96622,
              29.580725,
              0
            ],
            [
              -97.966286,
              29.580755,
              0
            ],
            [
              -97.966337,
              29.58074,
              0
            ],
            [
              -97.966378,
              29.580703,
              0
            ],
            [
              -97.966392,
              29.580639,
              0
            ],
            [
              -97.966376,
              29.580162,
              0
            ],
            [
              -97.966362,
              29.580068,
              0
            ],
            [
              -97.966343,
              29.57997,
              0
            ],
            [
              -97.966299,
              29.579879,
              0
            ],
            [
              -97.966283,
              29.579832,
              0
            ],
            [
              -97.96629,
              29.579806,
              0
            ],
            [
              -97.96632,
              29.579799,
              0
            ],
            [
              -97.96638,
              29.579798,
              0
            ],
            [
              -97.966438,
              29.579802,
              0
            ],
            [
              -97.966492,
              29.5798,
              0
            ],
            [
              -97.966566,
              29.579811,
              0
            ],
            [
              -97.966603,
              29.579831,
              0
            ],
            [
              -97.966641,
              29.579849,
              0
            ],
            [
              -97.966675,
              29.579866,
              0
            ],
            [
              -97.966734,
              29.579876,
              0
            ],
            [
              -97.966778,
              29.579857,
              0
            ],
            [
              -97.966802,
              29.579815,
              0
            ],
            [
              -97.966797,
              29.579751,
              0
            ],
            [
              -97.966756,
              29.579707,
              0
            ],
            [
              -97.966703,
              29.579695,
              0
            ],
            [
              -97.966654,
              29.579695,
              0
            ],
            [
              -97.966608,
              29.579698,
              0
            ],
            [
              -97.966561,
              29.579706,
              0
            ],
            [
              -97.966475,
              29.579714,
              0
            ],
            [
              -97.966388,
              29.579718,
              0
            ],
            [
              -97.96632,
              29.579709,
              0
            ],
            [
              -97.966254,
              29.579714,
              0
            ],
            [
              -97.966214,
              29.579743,
              0
            ],
            [
              -97.966189,
              29.579779,
              0
            ],
            [
              -97.96619,
              29.579832
            ],
            [
              -97.966206,
              29.579895
            ],
            [
              -97.966249,
              29.579961
            ],
            [
              -97.96629,
              29.580021
            ],
            [
              -97.966291,
              29.580131,
              0
            ],
            [
              -97.966269,
              29.580131,
              0
            ],
            [
              -97.966239,
              29.580135,
              0
            ],
            [
              -97.966208,
              29.58016,
              0
            ],
            [
              -97.966202,
              29.580194,
              0
            ],
            [
              -97.966226,
              29.580224,
              0
            ],
            [
              -97.966195,
              29.580241,
              0
            ],
            [
              -97.966222,
              29.580288,
              0
            ],
            [
              -97.966193,
              29.580469
            ],
            [
              -97.966241,
              29.580481
            ],
            [
              -97.966204,
              29.580567,
              0
            ],
            [
              -97.966196,
              29.58068,
              0
            ],
            [
              -97.96622,
              29.580725,
              0
            ]
          ]
        ]
      },
      "properties": {
        "name": "Switchback",
        "styleUrl": "#msn_ylw-pushpin",
        "styleHash": "68733751",
        "styleMapHash": {
          "normal": "#sn_ylw-pushpin",
          "highlight": "#sh_ylw-pushpin"
        },
        "icon-scale": 1.1,
        "icon-offset": [
          20,
          2
        ],
        "icon": "http://maps.google.com/mapfiles/kml/pushpin/ylw-pushpin.png",
        "fill-opacity": 0.5019607843137255,
        "fill": "#ffffff"
      }
    }
  ]
}