{
  "type": "FeatureCollection",
  "features": [
    {
      "type": "Feature",
      "geometry": {
        "type": "LineString",
        "coordinates": [
          [
            -78.383375,
            42.926848,
            0
          ],
          [
            -78.383388,
            42.926851,
            0
          ],
          [
            -78.3834,
            42.926853,
            0
          ],
          [
            -78.383944,
            42.926886,
            0
          ],
          [
            -78.383741,
            42.926874,
            0
          ],
          [
            -78.383715,
            42.926877,
            0
          ],
          [
            -78.383684,
            42.926885,
            0
          ],
          [
            -78.38365,
            42.926892,
            0
          ],
          [
            -78.383616,
            42.926896,
            0
          ],
          [
            -78.383569,
            42.9269,
            0
          ],
          [
            -78.383509,
            42.9269,
            0
          ],
          [
            -78.383465,
            42.926899,
            0
          ],
          [
            -78.383426,
            42.926896,
            0
          ],
          [
            -78.383395,
            42.926891,
            0
          ],
          [
            -78.383363,
            42.926882,
            0
          ],
          [
            -78.383332,
            42.92687,
            0
          ],
          [
            -78.383309,
            42.926852,
            0
          ],
          [
            -78.383306,
            42.926836,
            0
          ],
          [
            -78.383316,
            42.926824,
            0
          ],
          [
            -78.38334,
            42.926814,
            0
          ],
          [
            -78.383373,
            42.926805,
            0
          ],
          [
            -78.383424,
            42.926801,
            0
          ],
          [
            -78.383482,
            42.9268,
            0
          ],
          [
            -78.38353,
            42.926802,
            0
          ],
          [
            -78.383581,
            42.926807,
            0
          ],
          [
            -78.38362,
            42.926814,
            0
          ],
          [
            -78.383649,
            42.926825,
            0
          ],
          [
            -78.383689,
            42.926843,
            0
          ],
          [
            -78.383725,
            42.926863,
            0
          ],
          [
            -78.383756,
            42.926881,
            0
          ],
          [
            -78.383784,
            42.926894,
            0
          ],
          [
            -78.383815,
            42.926904,
            0
          ],
          [
            -78.383838,
            42.926911,
            0
          ],
          [
            -78.38388,
            42.926918,
            0
          ],
          [
            -78.383918,
            42.926923,
            0
          ],
          [
            -78.383946,
            42.926925,
            0
          ],
          [
            -78.383959,
            42.926924,
            0
          ],
          [
            -78.383967,
            42.926919,
            0
          ],
          [
            -78.383976,
            42.926912,
            0
          ],
          [
            -78.383985,
            42.9269,
            0
          ],
          [
            -78.383992,
            42.926879,
            0
          ],
          [
            -78.383996,
            42.926859,
            0
          ],
          [
            -78.384,
            42.926838,
            0
          ],
          [
            -78.384,
            42.926817,
            0
          ],
          [
            -78.383999,
            42.926806,
            0
          ],
          [
            -78.38399,
            42.926801,
            0
          ],
          [
            -78.383977,
            42.926799,
            0
          ],
          [
            -78.383955,
            42.926798,
            0
          ],
          [
            -78.383937,
            42.926799,
            0
          ],
          [
            -78.383899,
            42.926803,
            0
          ],
          [
            -78.383852,
            42.926809,
            0
          ],
          [
            -78.383811,
            42.926816,
            0
          ],
          [
            -78.383782,
            42.926823,
            0
          ],
          [
            -78.383752,
            42.926833,
            0
          ],
          [
            -78.383733,
            42.926844,
            0
          ],
          [
            -78.383727,
            42.92685,
            0
          ],
          [
            -78.383731,
            42.926855,
            0
          ],
          [
            -78.383743,
            42.926859,
            0
          ],
          [
            -78.383771,
            42.926861,
            0
          ],
          [
            -78.383799,
            42.92686,
            0
          ],
          [
            -78.383832,
            42.926854,
            0
          ],
          [
            -78.383865,
            42.926842,
            0
          ],
          [
            -78.383889,
            42.926829,
            0
          ],
          [
            -78.383905,
            42.926814,
            0
          ],
          [
            -78.383908,
            42.926796,
            0
          ],
          [
            -78.383899,
            42.926789,
            0
          ],
          [
            -78.383885,
            42.92678,
            0
          ],
          [
            -78.383864,
            42.926775,
            0
          ],
          [
            -78.383839,
            42.926772,
            0
          ],
          [
            -78.383803,
            42.92677,
            0
          ],
          [
            -78.383321,
            42.926747,
            0
          ],
          [
            -78.383298,
            42.926746,
            0
          ],
          [
            -78.383279,
            42.926748,
            0
          ],
          [
            -78.383268,
            42.926753,
            0
          ],
          [
            -78.383258,
            42.926763,
            0
          ],
          [
            -78.383253,
            42.926773,
            0
          ],
          [
            -78.383252,
            42.926783,
            0
          ],
          [
            -78.383256,
            42.926792,
            0
          ],
          [
            -78.383263,
            42.926803,
            0
          ],
          [
            -78.383272,
            42.92681,
            0
          ],
          [
            -78.383288,
            42.926816,
            0
          ],
          [
            -78.383375,
            42.926848,
            0
          ]
        ]
      },
      "properties": {
        "name": "Tantrum",
        "styleUrl": "#m_ylw-pushpin",
        "styleHash": "11bca759",
        "styleMapHash": {
          "normal": "#s_ylw-pushpin",
          "highlight": "#s_ylw-pushpin_hl"
        },
        "icon-scale": 1.1,
        "icon-offset": [
          20,
          2
        ],
        "icon": "http://maps.google.com/mapfiles/kml/pushpin/ylw-pushpin.png",
        "stroke": "#80ff00",
        "fill": "#80ff00"
      }
    }
  ],
  "properties": {
    "name": "Tantrum",
    "color": "#80ff00",
    "basemaps": [
      {
        "id": "custom_layer_1790220601106",
        "url": "https://orthos.its.ny.gov/arcgis/services/wms/2023/MapServer/WMSServer?request=GetCapabilities&service=WMS",
        "wmsLayer": "",
        "layerName": "2023",
        "opacity": 1
      }
    ]
  }
}