{
  "type": "FeatureCollection",
  "features": [
    {
      "type": "Feature",
      "properties": {
        "stroke": "#ff8000",
        "fill": "#ff8000"
      },
      "geometry": {
        "type": "LineString",
        "coordinates": [
          [
            -86.911587,
            38.121326
          ],
          [
            -86.911302,
            38.121581
          ],
          [
            -86.911279,
            38.121609
          ],
          [
            -86.911271,
            38.121634
          ],
          [
            -86.911262,
            38.12166
          ],
          [
            -86.911251,
            38.121684
          ],
          [
            -86.9107,
            38.122607
          ],
          [
            -86.909851,
            38.123988
          ],
          [
            -86.90976,
            38.124144
          ],
          [
            -86.909705,
            38.124266
          ],
          [
            -86.909683,
            38.124385
          ],
          [
            -86.909688,
            38.124508
          ],
          [
            -86.909697,
            38.124603
          ],
          [
            -86.909719,
            38.125114
          ],
          [
            -86.909724,
            38.125231
          ],
          [
            -86.909717,
            38.125278
          ],
          [
            -86.909699,
            38.125363
          ],
          [
            -86.909591,
            38.125648
          ],
          [
            -86.909428,
            38.126129
          ],
          [
            -86.909419,
            38.12618
          ],
          [
            -86.909423,
            38.126234
          ],
          [
            -86.909448,
            38.126295
          ],
          [
            -86.909478,
            38.126353
          ],
          [
            -86.909523,
            38.126402
          ],
          [
            -86.909556,
            38.126437
          ],
          [
            -86.909584,
            38.126483
          ],
          [
            -86.909598,
            38.126535
          ],
          [
            -86.90959,
            38.126598
          ],
          [
            -86.909565,
            38.126667
          ],
          [
            -86.909546,
            38.12672
          ],
          [
            -86.909538,
            38.126774
          ],
          [
            -86.90954,
            38.126845
          ],
          [
            -86.909565,
            38.126906
          ],
          [
            -86.909599,
            38.126951
          ],
          [
            -86.909652,
            38.126996
          ],
          [
            -86.909731,
            38.127031
          ],
          [
            -86.909814,
            38.127042
          ],
          [
            -86.909887,
            38.12703
          ],
          [
            -86.90996,
            38.126999
          ],
          [
            -86.910024,
            38.126956
          ],
          [
            -86.910049,
            38.126912
          ],
          [
            -86.910074,
            38.126833
          ],
          [
            -86.910086,
            38.126744
          ],
          [
            -86.910074,
            38.126705
          ],
          [
            -86.910042,
            38.126665
          ],
          [
            -86.91,
            38.126623
          ],
          [
            -86.909974,
            38.126589
          ],
          [
            -86.909944,
            38.126533
          ],
          [
            -86.909918,
            38.126456
          ],
          [
            -86.909893,
            38.12636
          ],
          [
            -86.909879,
            38.126321
          ],
          [
            -86.909843,
            38.126283
          ],
          [
            -86.909778,
            38.126251
          ],
          [
            -86.90971,
            38.126246
          ],
          [
            -86.909644,
            38.126261
          ],
          [
            -86.909571,
            38.126293
          ],
          [
            -86.909524,
            38.126328
          ],
          [
            -86.909445,
            38.126434
          ],
          [
            -86.909403,
            38.126489
          ],
          [
            -86.909333,
            38.126539
          ],
          [
            -86.909279,
            38.126556
          ],
          [
            -86.909227,
            38.126562
          ],
          [
            -86.909168,
            38.126544
          ],
          [
            -86.909128,
            38.1265
          ],
          [
            -86.909117,
            38.126448
          ],
          [
            -86.909122,
            38.126399
          ],
          [
            -86.90915,
            38.126357
          ],
          [
            -86.909187,
            38.126328
          ],
          [
            -86.909246,
            38.126299
          ],
          [
            -86.909299,
            38.126272
          ],
          [
            -86.909339,
            38.126235
          ],
          [
            -86.909366,
            38.126182
          ],
          [
            -86.909388,
            38.12612
          ],
          [
            -86.909657,
            38.125356
          ],
          [
            -86.909678,
            38.125275
          ],
          [
            -86.909685,
            38.125229
          ],
          [
            -86.909682,
            38.125112
          ],
          [
            -86.909668,
            38.124629
          ],
          [
            -86.909654,
            38.124479
          ],
          [
            -86.909655,
            38.124379
          ],
          [
            -86.909672,
            38.124268
          ],
          [
            -86.909717,
            38.124153
          ],
          [
            -86.909815,
            38.12398
          ],
          [
            -86.909935,
            38.123802
          ],
          [
            -86.909947,
            38.12377
          ],
          [
            -86.909955,
            38.123723
          ],
          [
            -86.909974,
            38.12364
          ],
          [
            -86.909987,
            38.1236
          ],
          [
            -86.910008,
            38.123558
          ],
          [
            -86.910133,
            38.123355
          ],
          [
            -86.910156,
            38.123316
          ],
          [
            -86.910189,
            38.123283
          ],
          [
            -86.910237,
            38.123259
          ],
          [
            -86.910512,
            38.123138
          ],
          [
            -86.910569,
            38.123108
          ],
          [
            -86.910619,
            38.123077
          ],
          [
            -86.910659,
            38.123041
          ],
          [
            -86.910693,
            38.12299
          ],
          [
            -86.910715,
            38.122918
          ],
          [
            -86.910722,
            38.122849
          ],
          [
            -86.910715,
            38.122782
          ],
          [
            -86.910683,
            38.122717
          ],
          [
            -86.910616,
            38.122594
          ],
          [
            -86.910595,
            38.12253
          ],
          [
            -86.910592,
            38.122482
          ],
          [
            -86.910611,
            38.122438
          ],
          [
            -86.910659,
            38.122394
          ],
          [
            -86.910715,
            38.122361
          ],
          [
            -86.910797,
            38.122333
          ],
          [
            -86.91099,
            38.122289
          ],
          [
            -86.911077,
            38.122254
          ],
          [
            -86.911128,
            38.122219
          ],
          [
            -86.911181,
            38.122173
          ],
          [
            -86.911216,
            38.122117
          ],
          [
            -86.911243,
            38.122061
          ],
          [
            -86.911267,
            38.121998
          ],
          [
            -86.911277,
            38.121942
          ],
          [
            -86.911275,
            38.121881
          ],
          [
            -86.911261,
            38.121814
          ],
          [
            -86.911222,
            38.121717
          ],
          [
            -86.9112,
            38.121661
          ],
          [
            -86.911195,
            38.121607
          ],
          [
            -86.911212,
            38.121541
          ],
          [
            -86.911253,
            38.121488
          ],
          [
            -86.911473,
            38.121296
          ],
          [
            -86.911506,
            38.121275
          ],
          [
            -86.911552,
            38.121259
          ],
          [
            -86.911603,
            38.121255
          ],
          [
            -86.911653,
            38.121259
          ],
          [
            -86.911752,
            38.121281
          ],
          [
            -86.91181,
            38.121285
          ],
          [
            -86.911864,
            38.121279
          ],
          [
            -86.911911,
            38.121263
          ],
          [
            -86.911951,
            38.121242
          ],
          [
            -86.911984,
            38.121208
          ],
          [
            -86.912012,
            38.121145
          ],
          [
            -86.912016,
            38.121096
          ],
          [
            -86.912007,
            38.121053
          ],
          [
            -86.911976,
            38.121008
          ],
          [
            -86.911938,
            38.120978
          ],
          [
            -86.91188,
            38.120947
          ],
          [
            -86.911829,
            38.120933
          ],
          [
            -86.911775,
            38.120934
          ],
          [
            -86.911727,
            38.120947
          ],
          [
            -86.911501,
            38.121069
          ],
          [
            -86.911431,
            38.121102
          ],
          [
            -86.911368,
            38.121123
          ],
          [
            -86.911308,
            38.121124
          ],
          [
            -86.911262,
            38.121113
          ],
          [
            -86.91122,
            38.121093
          ],
          [
            -86.911184,
            38.121058
          ],
          [
            -86.911162,
            38.121014
          ],
          [
            -86.911164,
            38.12097
          ],
          [
            -86.911188,
            38.120929
          ],
          [
            -86.911232,
            38.120898
          ],
          [
            -86.911297,
            38.120878
          ],
          [
            -86.911371,
            38.120877
          ],
          [
            -86.911448,
            38.120894
          ],
          [
            -86.911904,
            38.121049
          ],
          [
            -86.911938,
            38.121066
          ],
          [
            -86.911962,
            38.121092
          ],
          [
            -86.911971,
            38.121125
          ],
          [
            -86.911952,
            38.121162
          ],
          [
            -86.911778,
            38.121307
          ],
          [
            -86.911753,
            38.121317
          ],
          [
            -86.91172,
            38.121317
          ],
          [
            -86.911684,
            38.121307
          ],
          [
            -86.911653,
            38.121302
          ],
          [
            -86.911621,
            38.121307
          ],
          [
            -86.911587,
            38.121326
          ]
        ]
      }
    },
    {
      "type": "Feature",
      "properties": {
        "stroke": "#804000",
        "fill": "#804000"
      },
      "geometry": {
        "type": "Polygon",
        "coordinates": [
          [
            [
              -86.911345,
              38.121429
            ],
            [
              -86.911513,
              38.121283
            ],
            [
              -86.911699,
              38.121415
            ],
            [
              -86.911531,
              38.121561
            ],
            [
              -86.911345,
              38.121429
            ]
          ]
        ]
      }
    }
  ],
  "properties": {
    "name": "The Voyage",
    "color": "#ff8000",
    "basemaps": [
      {
        "id": "custom_layer_1790439169266",
        "url": "https://di-ingov.img.arcgis.com/arcgis/rest/services/DynamicWebMercator/Indiana_2023_Imagery/ImageServer",
        "wmsLayer": "",
        "layerName": "Indiana 2023 Imagery",
        "opacity": 1
      }
    ]
  }
}