{
  "type": "FeatureCollection",
  "features": [
    {
      "type": "Feature",
      "properties": {
        "stroke": "#00ffff",
        "fill": "#00ffff"
      },
      "geometry": {
        "type": "LineString",
        "coordinates": [
          [
            4.587068,
            50.696877
          ],
          [
            4.587247,
            50.696943
          ],
          [
            4.587263,
            50.696952
          ],
          [
            4.587271,
            50.696961
          ],
          [
            4.587271,
            50.696976
          ],
          [
            4.587245,
            50.69738
          ],
          [
            4.587241,
            50.6974
          ],
          [
            4.587232,
            50.69742
          ],
          [
            4.587216,
            50.697439
          ],
          [
            4.587185,
            50.697453
          ],
          [
            4.587167,
            50.69747
          ],
          [
            4.587155,
            50.697495
          ],
          [
            4.587151,
            50.697523
          ],
          [
            4.587147,
            50.697573
          ],
          [
            4.587144,
            50.697597
          ],
          [
            4.587132,
            50.697621
          ],
          [
            4.587079,
            50.69769
          ],
          [
            4.58707,
            50.69771
          ],
          [
            4.587066,
            50.697731
          ],
          [
            4.587071,
            50.697752
          ],
          [
            4.587081,
            50.69777
          ],
          [
            4.587102,
            50.697787
          ],
          [
            4.587126,
            50.697796
          ],
          [
            4.587156,
            50.697797
          ],
          [
            4.587176,
            50.697791
          ],
          [
            4.587306,
            50.697723
          ],
          [
            4.587328,
            50.697721
          ],
          [
            4.587347,
            50.697726
          ],
          [
            4.58736,
            50.697737
          ],
          [
            4.587362,
            50.697753
          ],
          [
            4.587348,
            50.697798
          ],
          [
            4.587345,
            50.697815
          ],
          [
            4.587347,
            50.697832
          ],
          [
            4.587362,
            50.697853
          ],
          [
            4.587426,
            50.697932
          ],
          [
            4.587438,
            50.697952
          ],
          [
            4.587444,
            50.697972
          ],
          [
            4.58744,
            50.697996
          ],
          [
            4.587387,
            50.698099
          ],
          [
            4.58738,
            50.698119
          ],
          [
            4.587378,
            50.698139
          ],
          [
            4.58739,
            50.69816
          ],
          [
            4.587411,
            50.698176
          ],
          [
            4.587442,
            50.698186
          ],
          [
            4.587478,
            50.69819
          ],
          [
            4.587514,
            50.698187
          ],
          [
            4.587548,
            50.698179
          ],
          [
            4.587719,
            50.6981
          ],
          [
            4.58776,
            50.698081
          ],
          [
            4.587789,
            50.698059
          ],
          [
            4.587803,
            50.698035
          ],
          [
            4.587804,
            50.698013
          ],
          [
            4.587795,
            50.697995
          ],
          [
            4.587776,
            50.697981
          ],
          [
            4.587748,
            50.697969
          ],
          [
            4.587559,
            50.697935
          ],
          [
            4.587515,
            50.697923
          ],
          [
            4.587483,
            50.697909
          ],
          [
            4.587464,
            50.697892
          ],
          [
            4.587456,
            50.697872
          ],
          [
            4.587455,
            50.697849
          ],
          [
            4.587466,
            50.69782
          ],
          [
            4.587484,
            50.697783
          ],
          [
            4.587486,
            50.69776
          ],
          [
            4.587484,
            50.697738
          ],
          [
            4.587475,
            50.697717
          ],
          [
            4.587462,
            50.697699
          ],
          [
            4.587437,
            50.697674
          ],
          [
            4.587414,
            50.697656
          ],
          [
            4.587381,
            50.697636
          ],
          [
            4.587356,
            50.697629
          ],
          [
            4.587316,
            50.697625
          ],
          [
            4.587261,
            50.697619
          ],
          [
            4.58723,
            50.697613
          ],
          [
            4.587203,
            50.697604
          ],
          [
            4.587176,
            50.69759
          ],
          [
            4.587157,
            50.697573
          ],
          [
            4.587148,
            50.697555
          ],
          [
            4.587152,
            50.69753
          ],
          [
            4.587163,
            50.697512
          ],
          [
            4.587293,
            50.697403
          ],
          [
            4.587315,
            50.69739
          ],
          [
            4.587341,
            50.69738
          ],
          [
            4.587366,
            50.697376
          ],
          [
            4.587394,
            50.697375
          ],
          [
            4.587431,
            50.697374
          ],
          [
            4.587466,
            50.697371
          ],
          [
            4.587505,
            50.69736
          ],
          [
            4.587658,
            50.697301
          ],
          [
            4.587685,
            50.697285
          ],
          [
            4.587698,
            50.697267
          ],
          [
            4.587701,
            50.697251
          ],
          [
            4.587697,
            50.697234
          ],
          [
            4.587686,
            50.697219
          ],
          [
            4.587664,
            50.697204
          ],
          [
            4.587638,
            50.697192
          ],
          [
            4.587611,
            50.697185
          ],
          [
            4.587304,
            50.697149
          ],
          [
            4.587274,
            50.697145
          ],
          [
            4.58725,
            50.697141
          ],
          [
            4.587227,
            50.697134
          ],
          [
            4.586864,
            50.697015
          ],
          [
            4.586837,
            50.697009
          ],
          [
            4.586803,
            50.697007
          ],
          [
            4.586768,
            50.697012
          ],
          [
            4.586748,
            50.697026
          ],
          [
            4.58674,
            50.697043
          ],
          [
            4.58674,
            50.697061
          ],
          [
            4.586748,
            50.697079
          ],
          [
            4.586766,
            50.697093
          ],
          [
            4.586789,
            50.697099
          ],
          [
            4.586815,
            50.697103
          ],
          [
            4.586842,
            50.6971
          ],
          [
            4.586869,
            50.697092
          ],
          [
            4.58689,
            50.697074
          ],
          [
            4.587019,
            50.696892
          ],
          [
            4.587031,
            50.696881
          ],
          [
            4.587043,
            50.696876
          ],
          [
            4.587056,
            50.696874
          ],
          [
            4.587068,
            50.696877
          ]
        ]
      }
    }
  ],
  "properties": {
    "name": "Tiki-Waka",
    "color": "#00ffff",
    "basemaps": [
      {
        "id": "custom_layer_1790212552086",
        "url": "https://wms.ngi.be/inspire/ortho/service?request=GetCapabilities&service=WMS&",
        "wmsLayer": "",
        "layerName": "Custom Layer 1",
        "opacity": 1
      }
    ]
  }
}