{
  "type": "FeatureCollection",
  "features": [
    {
      "type": "Feature",
      "properties": {
        "stroke": "#ff0000",
        "fill": "#ff0000",
        "name": "Track"
      },
      "geometry": {
        "type": "LineString",
        "coordinates": [
          [
            5.567005,
            45.622516
          ],
          [
            5.567043,
            45.622864
          ],
          [
            5.567051,
            45.622883
          ],
          [
            5.567073,
            45.6229
          ],
          [
            5.567097,
            45.622909
          ],
          [
            5.567125,
            45.622908
          ],
          [
            5.567149,
            45.622897
          ],
          [
            5.567165,
            45.622881
          ],
          [
            5.56717,
            45.622863
          ],
          [
            5.567123,
            45.622424
          ],
          [
            5.567123,
            45.622393
          ],
          [
            5.567126,
            45.622357
          ],
          [
            5.567137,
            45.622321
          ],
          [
            5.567162,
            45.622287
          ],
          [
            5.567207,
            45.622258
          ],
          [
            5.567978,
            45.621944
          ],
          [
            5.568004,
            45.62193
          ],
          [
            5.568025,
            45.621912
          ],
          [
            5.568039,
            45.62189
          ],
          [
            5.568048,
            45.621865
          ],
          [
            5.568045,
            45.621838
          ],
          [
            5.568031,
            45.621816
          ],
          [
            5.567999,
            45.621795
          ],
          [
            5.567966,
            45.621785
          ],
          [
            5.567774,
            45.621762
          ],
          [
            5.567738,
            45.621762
          ],
          [
            5.567701,
            45.621768
          ],
          [
            5.567664,
            45.621785
          ],
          [
            5.567637,
            45.621811
          ],
          [
            5.567622,
            45.621838
          ],
          [
            5.567621,
            45.621873
          ],
          [
            5.567638,
            45.621909
          ],
          [
            5.567663,
            45.621938
          ],
          [
            5.567708,
            45.621962
          ],
          [
            5.567764,
            45.621987
          ],
          [
            5.567931,
            45.622047
          ],
          [
            5.567971,
            45.622068
          ],
          [
            5.567996,
            45.622103
          ],
          [
            5.568002,
            45.622139
          ],
          [
            5.567986,
            45.622176
          ],
          [
            5.567952,
            45.622209
          ],
          [
            5.567905,
            45.622227
          ],
          [
            5.567859,
            45.622227
          ],
          [
            5.567814,
            45.622221
          ],
          [
            5.567773,
            45.622205
          ],
          [
            5.567739,
            45.622179
          ],
          [
            5.567613,
            45.622009
          ],
          [
            5.567582,
            45.621981
          ],
          [
            5.567546,
            45.621958
          ],
          [
            5.567496,
            45.621952
          ],
          [
            5.567445,
            45.621962
          ],
          [
            5.567409,
            45.621979
          ],
          [
            5.567155,
            45.622159
          ],
          [
            5.567135,
            45.622174
          ],
          [
            5.567115,
            45.6222
          ],
          [
            5.567011,
            45.622402
          ],
          [
            5.567002,
            45.622427
          ],
          [
            5.566999,
            45.622449
          ],
          [
            5.567005,
            45.622516
          ]
        ]
      }
    },
    {
      "type": "Feature",
      "properties": {
        "stroke": "#800000",
        "fill": "#800000",
        "name": "Station"
      },
      "geometry": {
        "type": "Polygon",
        "coordinates": [
          [
            [
              5.567059,
              45.622515
            ],
            [
              5.567051,
              45.622441
            ],
            [
              5.56694,
              45.622447
            ],
            [
              5.566948,
              45.62252
            ],
            [
              5.567059,
              45.622515
            ]
          ]
        ]
      }
    }
  ],
  "properties": {
    "name": "Timber",
    "color": "#ff2a00",
    "basemaps": []
  }
}