{
  "type": "FeatureCollection",
  "features": [
    {
      "type": "Feature",
      "properties": {
        "name": "Track"
      },
      "geometry": {
        "type": "LineString",
        "coordinates": [
          [
            18.095422,
            59.322633
          ],
          [
            18.095401,
            59.322668
          ],
          [
            18.095395,
            59.322675
          ],
          [
            18.095387,
            59.32268
          ],
          [
            18.095044,
            59.322865
          ],
          [
            18.095031,
            59.322869
          ],
          [
            18.095015,
            59.322872
          ],
          [
            18.094997,
            59.322872
          ],
          [
            18.094979,
            59.32287
          ],
          [
            18.094964,
            59.322865
          ],
          [
            18.094954,
            59.322857
          ],
          [
            18.094946,
            59.322846
          ],
          [
            18.094942,
            59.322836
          ],
          [
            18.094939,
            59.322819
          ],
          [
            18.094941,
            59.322803
          ],
          [
            18.094943,
            59.322786
          ],
          [
            18.094947,
            59.322772
          ],
          [
            18.094954,
            59.322759
          ],
          [
            18.094966,
            59.322743
          ],
          [
            18.094983,
            59.32273
          ],
          [
            18.09501,
            59.32271
          ],
          [
            18.095475,
            59.322437
          ],
          [
            18.095504,
            59.322424
          ],
          [
            18.095534,
            59.322414
          ],
          [
            18.095571,
            59.322404
          ],
          [
            18.095608,
            59.322399
          ],
          [
            18.095645,
            59.322396
          ],
          [
            18.095682,
            59.322395
          ],
          [
            18.095716,
            59.322397
          ],
          [
            18.095754,
            59.322401
          ],
          [
            18.095789,
            59.322408
          ],
          [
            18.09582,
            59.322417
          ],
          [
            18.095849,
            59.322429
          ],
          [
            18.095868,
            59.322441
          ],
          [
            18.09588,
            59.322456
          ],
          [
            18.095885,
            59.322472
          ],
          [
            18.095884,
            59.322491
          ],
          [
            18.095878,
            59.322516
          ],
          [
            18.095872,
            59.322527
          ],
          [
            18.095801,
            59.322653
          ],
          [
            18.095789,
            59.322668
          ],
          [
            18.095773,
            59.32268
          ],
          [
            18.095752,
            59.32269
          ],
          [
            18.095728,
            59.3227
          ],
          [
            18.0957,
            59.322707
          ],
          [
            18.095675,
            59.32271
          ],
          [
            18.09565,
            59.322712
          ],
          [
            18.095627,
            59.322711
          ],
          [
            18.095605,
            59.322708
          ],
          [
            18.09558,
            59.3227
          ],
          [
            18.095561,
            59.322692
          ],
          [
            18.09555,
            59.322681
          ],
          [
            18.095543,
            59.32267
          ],
          [
            18.095543,
            59.322658
          ],
          [
            18.095549,
            59.322645
          ],
          [
            18.09556,
            59.322634
          ],
          [
            18.095579,
            59.322624
          ],
          [
            18.095603,
            59.322616
          ],
          [
            18.095641,
            59.322611
          ],
          [
            18.095707,
            59.3226
          ],
          [
            18.095727,
            59.322595
          ],
          [
            18.095749,
            59.322584
          ],
          [
            18.095765,
            59.32257
          ],
          [
            18.095772,
            59.322557
          ],
          [
            18.095772,
            59.322543
          ],
          [
            18.09577,
            59.322528
          ],
          [
            18.095759,
            59.322515
          ],
          [
            18.095741,
            59.322505
          ],
          [
            18.095712,
            59.322491
          ],
          [
            18.095684,
            59.322485
          ],
          [
            18.095649,
            59.322479
          ],
          [
            18.095606,
            59.322478
          ],
          [
            18.095578,
            59.322481
          ],
          [
            18.095554,
            59.322489
          ],
          [
            18.09553,
            59.322502
          ],
          [
            18.095519,
            59.322512
          ],
          [
            18.095509,
            59.322525
          ],
          [
            18.095505,
            59.322538
          ],
          [
            18.095504,
            59.322555
          ],
          [
            18.095493,
            59.32275
          ],
          [
            18.095485,
            59.322768
          ],
          [
            18.09547,
            59.322782
          ],
          [
            18.095445,
            59.322795
          ],
          [
            18.095419,
            59.322802
          ],
          [
            18.095398,
            59.322806
          ],
          [
            18.095374,
            59.322808
          ],
          [
            18.095338,
            59.322809
          ],
          [
            18.095307,
            59.322808
          ],
          [
            18.095274,
            59.322804
          ],
          [
            18.095242,
            59.322797
          ],
          [
            18.095213,
            59.322787
          ],
          [
            18.095186,
            59.322776
          ],
          [
            18.095161,
            59.322764
          ],
          [
            18.095145,
            59.322752
          ],
          [
            18.095133,
            59.322739
          ],
          [
            18.095124,
            59.322724
          ],
          [
            18.095121,
            59.322708
          ],
          [
            18.095124,
            59.322694
          ],
          [
            18.095133,
            59.32268
          ],
          [
            18.095143,
            59.322669
          ],
          [
            18.095158,
            59.322658
          ],
          [
            18.095187,
            59.322642
          ],
          [
            18.095511,
            59.322449
          ],
          [
            18.095536,
            59.322438
          ],
          [
            18.095561,
            59.322429
          ],
          [
            18.095591,
            59.322424
          ],
          [
            18.095619,
            59.322423
          ],
          [
            18.095651,
            59.322428
          ],
          [
            18.095672,
            59.322435
          ],
          [
            18.095685,
            59.322449
          ],
          [
            18.09569,
            59.322464
          ],
          [
            18.095693,
            59.322477
          ],
          [
            18.095717,
            59.322604
          ],
          [
            18.095721,
            59.32262
          ],
          [
            18.095717,
            59.322636
          ],
          [
            18.095703,
            59.322652
          ],
          [
            18.095675,
            59.322665
          ],
          [
            18.095637,
            59.322671
          ],
          [
            18.095602,
            59.32267
          ],
          [
            18.09557,
            59.322663
          ],
          [
            18.095449,
            59.322627
          ],
          [
            18.095417,
            59.322617
          ],
          [
            18.095369,
            59.32261
          ],
          [
            18.095318,
            59.322613
          ],
          [
            18.095292,
            59.322621
          ],
          [
            18.095274,
            59.322636
          ],
          [
            18.095271,
            59.322655
          ],
          [
            18.095286,
            59.322675
          ],
          [
            18.095319,
            59.322689
          ],
          [
            18.095351,
            59.322693
          ],
          [
            18.095384,
            59.322694
          ],
          [
            18.095416,
            59.322693
          ],
          [
            18.095462,
            59.322692
          ],
          [
            18.095505,
            59.322693
          ],
          [
            18.09554,
            59.322701
          ],
          [
            18.095571,
            59.322717
          ],
          [
            18.095587,
            59.322736
          ],
          [
            18.095587,
            59.322753
          ],
          [
            18.095566,
            59.322768
          ],
          [
            18.09553,
            59.322776
          ],
          [
            18.095501,
            59.322776
          ],
          [
            18.095305,
            59.322775
          ],
          [
            18.095269,
            59.322771
          ],
          [
            18.095241,
            59.322764
          ],
          [
            18.095214,
            59.322754
          ],
          [
            18.09519,
            59.322737
          ],
          [
            18.095179,
            59.322721
          ],
          [
            18.09518,
            59.322703
          ],
          [
            18.095195,
            59.322686
          ],
          [
            18.095303,
            59.32261
          ],
          [
            18.095322,
            59.322601
          ],
          [
            18.095344,
            59.322595
          ],
          [
            18.095369,
            59.322593
          ],
          [
            18.095408,
            59.322597
          ],
          [
            18.095423,
            59.322603
          ],
          [
            18.095431,
            59.322613
          ],
          [
            18.095428,
            59.322623
          ],
          [
            18.095422,
            59.322633
          ]
        ]
      }
    },
    {
      "type": "Feature",
      "properties": {
        "stroke": "#ff8000",
        "fill": "#ff8000",
        "name": "Station"
      },
      "geometry": {
        "type": "Polygon",
        "coordinates": [
          [
            [
              18.095336,
              59.322659
            ],
            [
              18.095363,
              59.322621
            ],
            [
              18.095467,
              59.322638
            ],
            [
              18.095443,
              59.322677
            ],
            [
              18.095336,
              59.322659
            ]
          ]
        ]
      }
    }
  ],
  "properties": {
    "name": "Twister",
    "color": "#ff2a00",
    "basemaps": [
      {
        "url": "https://openmap.stockholm.se/bios/wms/app/baggis/web/WMS_STHLM_ORTOFOTO_2022?FORMAT=image/png&TRANSPARENT=TRUE&VERSION=1.1.1&SERVICE=WMS&REQUEST=GetMap&STYLES=&SRS={proj}&WIDTH={width}&HEIGHT={height}&BBOX={bbox}",
        "wmsLayer": "",
        "layerName": "Custom Layer 1"
      }
    ]
  }
}