{
  "type": "FeatureCollection",
  "features": [
    {
      "type": "Feature",
      "properties": {
        "stroke": "#ffffff",
        "fill": "#ffffff",
        "name": "Track"
      },
      "geometry": {
        "type": "LineString",
        "coordinates": [
          [
            -71.249447,
            42.795959
          ],
          [
            -71.24959,
            42.795933
          ],
          [
            -71.249608,
            42.795938
          ],
          [
            -71.249625,
            42.795951
          ],
          [
            -71.249637,
            42.795976
          ],
          [
            -71.249749,
            42.796308
          ],
          [
            -71.249665,
            42.796182
          ],
          [
            -71.249711,
            42.796315
          ],
          [
            -71.249738,
            42.796378
          ],
          [
            -71.249744,
            42.796394
          ],
          [
            -71.249745,
            42.796403
          ],
          [
            -71.249739,
            42.796409
          ],
          [
            -71.249726,
            42.796414
          ],
          [
            -71.249689,
            42.796421
          ],
          [
            -71.24966,
            42.796424
          ],
          [
            -71.249625,
            42.796425
          ],
          [
            -71.249609,
            42.79642
          ],
          [
            -71.249597,
            42.79641
          ],
          [
            -71.249585,
            42.796386
          ],
          [
            -71.249583,
            42.796353
          ],
          [
            -71.249584,
            42.79632
          ],
          [
            -71.249592,
            42.79629
          ],
          [
            -71.249601,
            42.796265
          ],
          [
            -71.249621,
            42.796237
          ],
          [
            -71.249637,
            42.796212
          ],
          [
            -71.249653,
            42.796188
          ],
          [
            -71.249658,
            42.796164
          ],
          [
            -71.249649,
            42.79614
          ],
          [
            -71.249634,
            42.796123
          ],
          [
            -71.249607,
            42.796112
          ],
          [
            -71.249574,
            42.796112
          ],
          [
            -71.249544,
            42.796122
          ],
          [
            -71.249521,
            42.796143
          ],
          [
            -71.249514,
            42.79617
          ],
          [
            -71.249522,
            42.796193
          ],
          [
            -71.249546,
            42.796221
          ],
          [
            -71.249573,
            42.796242
          ],
          [
            -71.249596,
            42.796257
          ],
          [
            -71.249632,
            42.796272
          ],
          [
            -71.249669,
            42.796285
          ],
          [
            -71.249689,
            42.796301
          ],
          [
            -71.249701,
            42.79632
          ],
          [
            -71.249706,
            42.796341
          ],
          [
            -71.249704,
            42.796364
          ],
          [
            -71.249691,
            42.79639
          ],
          [
            -71.249672,
            42.796408
          ],
          [
            -71.249645,
            42.796417
          ],
          [
            -71.249619,
            42.796419
          ],
          [
            -71.24959,
            42.796418
          ],
          [
            -71.249562,
            42.796408
          ],
          [
            -71.249544,
            42.796393
          ],
          [
            -71.249529,
            42.796371
          ],
          [
            -71.249501,
            42.796303
          ],
          [
            -71.249496,
            42.796294
          ],
          [
            -71.249474,
            42.796274
          ],
          [
            -71.249456,
            42.796266
          ],
          [
            -71.249435,
            42.796262
          ],
          [
            -71.249414,
            42.796262
          ],
          [
            -71.24939,
            42.796265
          ],
          [
            -71.249373,
            42.796271
          ],
          [
            -71.249355,
            42.796282
          ],
          [
            -71.249341,
            42.796296
          ],
          [
            -71.249334,
            42.796314
          ],
          [
            -71.249335,
            42.796332
          ],
          [
            -71.249341,
            42.796348
          ],
          [
            -71.249354,
            42.796363
          ],
          [
            -71.249371,
            42.796376
          ],
          [
            -71.249389,
            42.796384
          ],
          [
            -71.24941,
            42.796387
          ],
          [
            -71.249435,
            42.796388
          ],
          [
            -71.249455,
            42.796384
          ],
          [
            -71.249478,
            42.796376
          ],
          [
            -71.249496,
            42.796365
          ],
          [
            -71.249514,
            42.796348
          ],
          [
            -71.249521,
            42.79633
          ],
          [
            -71.249523,
            42.79631
          ],
          [
            -71.249519,
            42.796288
          ],
          [
            -71.249415,
            42.79601
          ],
          [
            -71.249412,
            42.795997
          ],
          [
            -71.249414,
            42.795983
          ],
          [
            -71.249421,
            42.795972
          ],
          [
            -71.249433,
            42.795964
          ],
          [
            -71.249446,
            42.795959
          ]
        ]
      }
    },
    {
      "type": "Feature",
      "properties": {
        "stroke": "#004000",
        "fill": "#004000",
        "name": "Station"
      },
      "geometry": {
        "type": "Polygon",
        "coordinates": [
          [
            [
              -71.249477,
              42.796051
            ],
            [
              -71.249431,
              42.795924
            ],
            [
              -71.249589,
              42.795894
            ],
            [
              -71.249635,
              42.796021
            ],
            [
              -71.249477,
              42.796051
            ]
          ]
        ]
      }
    },
    {
      "type": "Feature",
      "properties": {
        "stroke": "#004000",
        "fill": "#004000",
        "name": "Photo Building"
      },
      "geometry": {
        "type": "Polygon",
        "coordinates": [
          [
            [
              -71.249262,
              42.796092
            ],
            [
              -71.249247,
              42.796049
            ],
            [
              -71.249284,
              42.796043
            ],
            [
              -71.249275,
              42.796017
            ],
            [
              -71.249348,
              42.796004
            ],
            [
              -71.249357,
              42.796029
            ],
            [
              -71.249393,
              42.796022
            ],
            [
              -71.249408,
              42.796064
            ],
            [
              -71.249371,
              42.796071
            ],
            [
              -71.24938,
              42.796097
            ],
            [
              -71.249309,
              42.79611
            ],
            [
              -71.249298,
              42.796085
            ],
            [
              -71.249262,
              42.796092
            ]
          ]
        ]
      }
    },
    {
      "type": "Feature",
      "properties": {
        "stroke": "#004000",
        "fill": "#004000",
        "name": "Queue"
      },
      "geometry": {
        "type": "Polygon",
        "coordinates": [
          [
            [
              -71.249777,
              42.796172
            ],
            [
              -71.249709,
              42.795954
            ],
            [
              -71.249689,
              42.795958
            ],
            [
              -71.249664,
              42.795889
            ],
            [
              -71.249644,
              42.795893
            ],
            [
              -71.249592,
              42.795904
            ],
            [
              -71.249599,
              42.795921
            ],
            [
              -71.24965,
              42.795911
            ],
            [
              -71.249657,
              42.795927
            ],
            [
              -71.24967,
              42.795961
            ],
            [
              -71.249738,
              42.796179
            ],
            [
              -71.249777,
              42.796172
            ]
          ]
        ]
      }
    },
    {
      "type": "Feature",
      "properties": {
        "stroke": "#004000",
        "fill": "#004000",
        "name": "Exit Path"
      },
      "geometry": {
        "type": "Polygon",
        "coordinates": [
          [
            [
              -71.249477,
              42.796051
            ],
            [
              -71.249494,
              42.796093
            ],
            [
              -71.249455,
              42.796166
            ],
            [
              -71.249373,
              42.796181
            ],
            [
              -71.249345,
              42.796104
            ],
            [
              -71.249322,
              42.796108
            ],
            [
              -71.249357,
              42.796201
            ],
            [
              -71.24947,
              42.796179
            ],
            [
              -71.249515,
              42.79609
            ],
            [
              -71.249497,
              42.796047
            ],
            [
              -71.249477,
              42.796051
            ]
          ]
        ]
      }
    }
  ],
  "properties": {
    "name": "Untamed",
    "color": "#004000",
    "basemaps": [
      {
        "id": "custom_layer_1790202276207",
        "url": "https://nhgeodata.unh.edu/image/rest/services/ImageServices/NH_2021_2022_6in_RGB/ImageServer",
        "wmsLayer": "",
        "layerName": "NH 2021 2022 6in RGB",
        "opacity": 1
      }
    ]
  }
}