{
  "type": "FeatureCollection",
  "features": [
    {
      "type": "Feature",
      "properties": {},
      "geometry": {
        "type": "LineString",
        "coordinates": [
          [
            -105.014059,
            39.74876
          ],
          [
            -105.014338,
            39.748305
          ],
          [
            -105.01424,
            39.748413
          ],
          [
            -105.014424,
            39.748114
          ],
          [
            -105.014402,
            39.748165
          ],
          [
            -105.014391,
            39.74821
          ],
          [
            -105.014398,
            39.748249
          ],
          [
            -105.014427,
            39.748283
          ],
          [
            -105.014462,
            39.748302
          ],
          [
            -105.014512,
            39.748309
          ],
          [
            -105.014559,
            39.748299
          ],
          [
            -105.014603,
            39.748279
          ],
          [
            -105.014662,
            39.748233
          ],
          [
            -105.014083,
            39.748771
          ]
        ]
      }
    }
  ]
}