{
  "type": "FeatureCollection",
  "features": [
    {
      "type": "Feature",
      "properties": {},
      "geometry": {
        "type": "Polygon",
        "coordinates": [
          [
            [
              153.311624,
              -27.908713
            ],
            [
              153.311638,
              -27.908719
            ],
            [
              153.311609,
              -27.908772
            ],
            [
              153.311571,
              -27.90881
            ],
            [
              153.311534,
              -27.908826
            ],
            [
              153.311489,
              -27.908835
            ],
            [
              153.311439,
              -27.90884
            ],
            [
              153.311388,
              -27.908845
            ],
            [
              153.311346,
              -27.908852
            ],
            [
              153.311309,
              -27.908867
            ],
            [
              153.311284,
              -27.90889
            ],
            [
              153.311269,
              -27.908924
            ],
            [
              153.311272,
              -27.908957
            ],
            [
              153.311289,
              -27.908987
            ],
            [
              153.311316,
              -27.909008
            ],
            [
              153.311347,
              -27.909014
            ],
            [
              153.311369,
              -27.909017
            ],
            [
              153.311392,
              -27.909037
            ],
            [
              153.311424,
              -27.909049
            ],
            [
              153.311457,
              -27.909053
            ],
            [
              153.3115,
              -27.909052
            ],
            [
              153.311538,
              -27.909041
            ],
            [
              153.311564,
              -27.909025
            ],
            [
              153.311585,
              -27.909002
            ],
            [
              153.311604,
              -27.908967
            ],
            [
              153.311614,
              -27.908936
            ],
            [
              153.31165,
              -27.908935
            ],
            [
              153.311678,
              -27.908936
            ],
            [
              153.311716,
              -27.908936
            ],
            [
              153.311749,
              -27.908931
            ],
            [
              153.311778,
              -27.908919
            ],
            [
              153.311806,
              -27.908897
            ],
            [
              153.311824,
              -27.90887
            ],
            [
              153.311832,
              -27.908839
            ],
            [
              153.311832,
              -27.9088
            ],
            [
              153.311836,
              -27.908762
            ],
            [
              153.311842,
              -27.908731
            ],
            [
              153.311974,
              -27.908477
            ],
            [
              153.311913,
              -27.908454
            ],
            [
              153.31183,
              -27.908607
            ],
            [
              153.311774,
              -27.908584
            ],
            [
              153.311918,
              -27.908294
            ],
            [
              153.311853,
              -27.908269
            ],
            [
              153.311624,
              -27.908713
            ]
          ]
        ]
      }
    }
  ]
}