{
  "type": "FeatureCollection",
  "features": [
    {
      "type": "Feature",
      "properties": {},
      "geometry": {
        "type": "LineString",
        "coordinates": [
          [
            4.409807,
            46.812145
          ],
          [
            4.410248,
            46.811887
          ],
          [
            4.410289,
            46.811867
          ],
          [
            4.410315,
            46.811856
          ],
          [
            4.410346,
            46.811849
          ],
          [
            4.41039,
            46.811846
          ],
          [
            4.41043,
            46.81185
          ],
          [
            4.41046,
            46.811859
          ],
          [
            4.410488,
            46.811878
          ],
          [
            4.410499,
            46.811901
          ],
          [
            4.410496,
            46.811924
          ],
          [
            4.410479,
            46.811944
          ],
          [
            4.410457,
            46.811956
          ],
          [
            4.41043,
            46.81197
          ],
          [
            4.410401,
            46.81198
          ],
          [
            4.410352,
            46.81199
          ],
          [
            4.410192,
            46.812006
          ],
          [
            4.410159,
            46.812015
          ],
          [
            4.410136,
            46.812028
          ],
          [
            4.410118,
            46.812047
          ],
          [
            4.410112,
            46.812067
          ],
          [
            4.410129,
            46.812095
          ],
          [
            4.410162,
            46.812113
          ],
          [
            4.410198,
            46.812121
          ],
          [
            4.410233,
            46.812119
          ],
          [
            4.41027,
            46.812105
          ],
          [
            4.410294,
            46.812081
          ],
          [
            4.410299,
            46.812054
          ],
          [
            4.410297,
            46.812037
          ],
          [
            4.410293,
            46.812024
          ],
          [
            4.410287,
            46.812011
          ],
          [
            4.410278,
            46.811998
          ],
          [
            4.410267,
            46.811985
          ],
          [
            4.410252,
            46.811975
          ],
          [
            4.410229,
            46.811966
          ],
          [
            4.41021,
            46.811962
          ],
          [
            4.410186,
            46.811963
          ],
          [
            4.410165,
            46.811969
          ],
          [
            4.410139,
            46.811978
          ],
          [
            4.409895,
            46.812123
          ]
        ]
      }
    }
  ]
}