{
  "type": "FeatureCollection",
  "features": [
    {
      "type": "Feature",
      "properties": {},
      "geometry": {
        "type": "LineString",
        "coordinates": [
          [
            -122.233879,
            38.13963
          ],
          [
            -122.234276,
            38.140143
          ],
          [
            -122.234286,
            38.140187
          ],
          [
            -122.234277,
            38.140227
          ],
          [
            -122.23423,
            38.140286
          ],
          [
            -122.234166,
            38.140321
          ],
          [
            -122.234091,
            38.140339
          ],
          [
            -122.23401,
            38.140346
          ],
          [
            -122.233926,
            38.140318
          ],
          [
            -122.233863,
            38.140268
          ],
          [
            -122.233836,
            38.140202
          ],
          [
            -122.23383,
            38.140144
          ],
          [
            -122.233836,
            38.139965
          ],
          [
            -122.233832,
            38.140054
          ],
          [
            -122.233842,
            38.140076
          ],
          [
            -122.233931,
            38.140172
          ],
          [
            -122.233942,
            38.140192
          ],
          [
            -122.233939,
            38.140263
          ],
          [
            -122.233948,
            38.14005
          ],
          [
            -122.233952,
            38.139944
          ],
          [
            -122.233939,
            38.13988
          ],
          [
            -122.233903,
            38.139806
          ],
          [
            -122.233807,
            38.139667
          ],
          [
            -122.233731,
            38.139539
          ],
          [
            -122.23377,
            38.139608
          ],
          [
            -122.233778,
            38.13964
          ],
          [
            -122.233761,
            38.139669
          ],
          [
            -122.233727,
            38.139693
          ],
          [
            -122.233658,
            38.139729
          ],
          [
            -122.233614,
            38.139745
          ],
          [
            -122.233568,
            38.139752
          ],
          [
            -122.233518,
            38.139748
          ],
          [
            -122.233482,
            38.139728
          ],
          [
            -122.233464,
            38.1397
          ],
          [
            -122.233461,
            38.139672
          ],
          [
            -122.233474,
            38.139636
          ],
          [
            -122.233499,
            38.139613
          ],
          [
            -122.233528,
            38.139599
          ],
          [
            -122.233562,
            38.139595
          ],
          [
            -122.233612,
            38.139607
          ],
          [
            -122.233654,
            38.139629
          ],
          [
            -122.233698,
            38.13967
          ],
          [
            -122.233725,
            38.139706
          ],
          [
            -122.233961,
            38.13997
          ],
          [
            -122.234017,
            38.140008
          ],
          [
            -122.23406,
            38.140039
          ],
          [
            -122.234084,
            38.140061
          ],
          [
            -122.234096,
            38.140085
          ],
          [
            -122.234114,
            38.140133
          ],
          [
            -122.23411,
            38.14018
          ],
          [
            -122.234091,
            38.140225
          ],
          [
            -122.234047,
            38.140266
          ],
          [
            -122.234002,
            38.140291
          ],
          [
            -122.233948,
            38.140301
          ],
          [
            -122.233892,
            38.140298
          ],
          [
            -122.233843,
            38.140273
          ],
          [
            -122.233811,
            38.140239
          ],
          [
            -122.233791,
            38.14021
          ],
          [
            -122.233766,
            38.140158
          ],
          [
            -122.233757,
            38.140127
          ],
          [
            -122.233742,
            38.140093
          ],
          [
            -122.233717,
            38.140052
          ],
          [
            -122.233688,
            38.140024
          ],
          [
            -122.233582,
            38.139896
          ],
          [
            -122.233409,
            38.139648
          ],
          [
            -122.233402,
            38.139609
          ],
          [
            -122.233417,
            38.139577
          ],
          [
            -122.233451,
            38.139554
          ],
          [
            -122.233634,
            38.139473
          ],
          [
            -122.233689,
            38.13945
          ],
          [
            -122.233722,
            38.139448
          ],
          [
            -122.233749,
            38.13946
          ],
          [
            -122.233777,
            38.139491
          ],
          [
            -122.233879,
            38.13963
          ]
        ]
      }
    }
  ]
}