{
  "type": "FeatureCollection",
  "features": [
    {
      "type": "Feature",
      "geometry": {
        "type": "LineString",
        "coordinates": [
          [
            -84.269336,
            39.341245,
            0
          ],
          [
            -84.269394,
            39.341713,
            0
          ],
          [
            -84.269398,
            39.341758,
            0
          ],
          [
            -84.269405,
            39.341798,
            0
          ],
          [
            -84.269418,
            39.34183,
            0
          ],
          [
            -84.269435,
            39.341853,
            0
          ],
          [
            -84.26947,
            39.341877,
            0
          ],
          [
            -84.269503,
            39.341884,
            0
          ],
          [
            -84.26954,
            39.341885,
            0
          ],
          [
            -84.269567,
            39.341878,
            0
          ],
          [
            -84.269594,
            39.341863,
            0
          ],
          [
            -84.269613,
            39.341841,
            0
          ],
          [
            -84.269625,
            39.341812,
            0
          ],
          [
            -84.269624,
            39.341781,
            0
          ],
          [
            -84.269619,
            39.341754,
            0
          ],
          [
            -84.269598,
            39.34173,
            0
          ],
          [
            -84.269572,
            39.341712,
            0
          ],
          [
            -84.269354,
            39.341597,
            0
          ],
          [
            -84.269328,
            39.341576,
            0
          ],
          [
            -84.269305,
            39.34155,
            0
          ],
          [
            -84.269296,
            39.34152,
            0
          ],
          [
            -84.269299,
            39.341493,
            0
          ],
          [
            -84.269316,
            39.341468,
            0
          ],
          [
            -84.269338,
            39.341454,
            0
          ],
          [
            -84.269366,
            39.341445,
            0
          ],
          [
            -84.26939,
            39.341444,
            0
          ],
          [
            -84.269412,
            39.341446,
            0
          ],
          [
            -84.269439,
            39.341452,
            0
          ],
          [
            -84.269458,
            39.341464,
            0
          ],
          [
            -84.269475,
            39.341481,
            0
          ],
          [
            -84.269487,
            39.341502,
            0
          ],
          [
            -84.269494,
            39.341528,
            0
          ],
          [
            -84.269543,
            39.341829,
            0
          ]
        ]
      },
      "properties": {
        "name": "Vekoma Family Boomerang",
        "styleUrl": "#m_ylw-pushpin",
        "styleHash": "11bca759",
        "styleMapHash": {
          "normal": "#s_ylw-pushpin",
          "highlight": "#s_ylw-pushpin_hl"
        },
        "icon-scale": 1.1,
        "icon-offset": [
          20,
          2
        ],
        "icon": "http://maps.google.com/mapfiles/kml/pushpin/ylw-pushpin.png"
      }
    }
  ]
}