{
  "type": "FeatureCollection",
  "features": [
    {
      "type": "Feature",
      "geometry": {
        "type": "LineString",
        "coordinates": [
          [
            -76.775928,
            38.908357,
            0
          ],
          [
            -76.77402,
            38.908704,
            0
          ],
          [
            -76.773864,
            38.908738,
            0
          ],
          [
            -76.773767,
            38.908778,
            0
          ],
          [
            -76.773554,
            38.908911,
            0
          ],
          [
            -76.772926,
            38.909376,
            0
          ],
          [
            -76.772864,
            38.909428,
            0
          ],
          [
            -76.772805,
            38.90944,
            0
          ],
          [
            -76.772746,
            38.909418,
            0
          ],
          [
            -76.772375,
            38.909052,
            0
          ],
          [
            -76.772287,
            38.909039,
            0
          ],
          [
            -76.772213,
            38.909068,
            0
          ],
          [
            -76.772155,
            38.90912,
            0
          ],
          [
            -76.772164,
            38.909188,
            0
          ],
          [
            -76.772423,
            38.909654,
            0
          ],
          [
            -76.772476,
            38.909714,
            0
          ],
          [
            -76.772543,
            38.909757,
            0
          ],
          [
            -76.772648,
            38.90977,
            0
          ],
          [
            -76.772762,
            38.909735,
            0
          ],
          [
            -76.772827,
            38.909652,
            0
          ],
          [
            -76.772819,
            38.909573,
            0
          ],
          [
            -76.772751,
            38.909511,
            0
          ],
          [
            -76.772672,
            38.909487,
            0
          ],
          [
            -76.772559,
            38.90951,
            0
          ],
          [
            -76.772498,
            38.909574,
            0
          ],
          [
            -76.772494,
            38.909652,
            0
          ],
          [
            -76.772536,
            38.909721,
            0
          ],
          [
            -76.772595,
            38.90975,
            0
          ],
          [
            -76.772648,
            38.90977,
            0
          ],
          [
            -76.772755,
            38.909762,
            0
          ],
          [
            -76.772867,
            38.909707,
            0
          ],
          [
            -76.772911,
            38.909627,
            0
          ],
          [
            -76.772907,
            38.909544,
            0
          ],
          [
            -76.772908,
            38.909463,
            0
          ],
          [
            -76.772977,
            38.909394,
            0
          ],
          [
            -76.773604,
            38.908923,
            0
          ],
          [
            -76.773777,
            38.908808,
            0
          ],
          [
            -76.773869,
            38.908775,
            0
          ],
          [
            -76.774031,
            38.908732,
            0
          ],
          [
            -76.774979,
            38.908555,
            0
          ],
          [
            -76.775035,
            38.908552,
            0
          ],
          [
            -76.775991,
            38.908559,
            0
          ],
          [
            -76.776054,
            38.908541,
            0
          ],
          [
            -76.776107,
            38.908499,
            0
          ],
          [
            -76.776121,
            38.908447,
            0
          ],
          [
            -76.776102,
            38.908405,
            0
          ],
          [
            -76.776019,
            38.908359,
            0
          ],
          [
            -76.775928,
            38.908357,
            0
          ]
        ]
      },
      "properties": {
        "name": "Wild One",
        "styleUrl": "#m_ylw-pushpin0",
        "styleHash": "5e86a5d5",
        "styleMapHash": {
          "normal": "#s_ylw-pushpin0",
          "highlight": "#s_ylw-pushpin_hl0"
        },
        "icon-scale": 1.1,
        "icon-offset": [
          20,
          2
        ],
        "icon": "http://maps.google.com/mapfiles/kml/pushpin/ylw-pushpin.png"
      }
    }
  ]
}