{
  "type": "FeatureCollection",
  "features": [
    {
      "type": "Feature",
      "properties": {},
      "geometry": {
        "type": "LineString",
        "coordinates": [
          [
            -121.970187,
            37.394705
          ],
          [
            -121.970203,
            37.394676
          ],
          [
            -121.970208,
            37.39464
          ],
          [
            -121.970192,
            37.394608
          ],
          [
            -121.970164,
            37.394589
          ],
          [
            -121.970129,
            37.39458
          ],
          [
            -121.970089,
            37.394583
          ],
          [
            -121.970054,
            37.394598
          ],
          [
            -121.970034,
            37.39462
          ],
          [
            -121.97002,
            37.394662
          ],
          [
            -121.970001,
            37.394723
          ],
          [
            -121.96979,
            37.395434
          ],
          [
            -121.969788,
            37.39546
          ],
          [
            -121.9698,
            37.39549
          ],
          [
            -121.969822,
            37.395509
          ],
          [
            -121.969851,
            37.395521
          ],
          [
            -121.969887,
            37.395525
          ],
          [
            -121.969922,
            37.395516
          ],
          [
            -121.96995,
            37.395499
          ],
          [
            -121.969964,
            37.395475
          ],
          [
            -121.969969,
            37.395449
          ],
          [
            -121.969931,
            37.395244
          ],
          [
            -121.969916,
            37.395221
          ],
          [
            -121.969887,
            37.3952
          ],
          [
            -121.969856,
            37.39519
          ],
          [
            -121.969828,
            37.395191
          ],
          [
            -121.96979,
            37.395201
          ],
          [
            -121.969764,
            37.395224
          ],
          [
            -121.96975,
            37.395254
          ],
          [
            -121.969751,
            37.395283
          ],
          [
            -121.969768,
            37.395311
          ],
          [
            -121.969799,
            37.39533
          ],
          [
            -121.969834,
            37.395337
          ],
          [
            -121.96987,
            37.395332
          ],
          [
            -121.969905,
            37.395312
          ],
          [
            -121.969921,
            37.395289
          ],
          [
            -121.969927,
            37.395269
          ],
          [
            -121.969908,
            37.395147
          ],
          [
            -121.969908,
            37.395126
          ],
          [
            -121.969917,
            37.395102
          ],
          [
            -121.969932,
            37.39508
          ],
          [
            -121.970187,
            37.394705
          ]
        ]
      }
    }
  ]
}