{
  "type": "FeatureCollection",
  "features": [
    {
      "type": "Feature",
      "geometry": {
        "type": "LineString",
        "coordinates": [
          [
            1.980041,
            49.424051,
            0
          ],
          [
            1.979893,
            49.424062,
            0
          ],
          [
            1.979869,
            49.424065,
            0
          ],
          [
            1.979848,
            49.424072,
            0
          ],
          [
            1.979838,
            49.424083,
            0
          ],
          [
            1.979838,
            49.424094,
            0
          ],
          [
            1.979847,
            49.424105,
            0
          ],
          [
            1.979867,
            49.424111,
            0
          ],
          [
            1.979895,
            49.424109,
            0
          ],
          [
            1.980967,
            49.424038,
            0
          ],
          [
            1.981,
            49.424034,
            0
          ],
          [
            1.981031,
            49.424029,
            0
          ],
          [
            1.981056,
            49.424024,
            0
          ],
          [
            1.981078,
            49.424017,
            0
          ],
          [
            1.981099,
            49.424007,
            0
          ],
          [
            1.981121,
            49.423994,
            0
          ],
          [
            1.981165,
            49.423963,
            0
          ],
          [
            1.981303,
            49.423851,
            0
          ],
          [
            1.981333,
            49.42383,
            0
          ],
          [
            1.981365,
            49.423813,
            0
          ],
          [
            1.981399,
            49.423801,
            0
          ],
          [
            1.981429,
            49.423795,
            0
          ],
          [
            1.981464,
            49.423794,
            0
          ],
          [
            1.981498,
            49.4238,
            0
          ],
          [
            1.981527,
            49.423811,
            0
          ],
          [
            1.981549,
            49.423825,
            0
          ],
          [
            1.981566,
            49.423841,
            0
          ],
          [
            1.981578,
            49.423859,
            0
          ],
          [
            1.981585,
            49.42388,
            0
          ],
          [
            1.981586,
            49.423907,
            0
          ],
          [
            1.981577,
            49.423926,
            0
          ],
          [
            1.981557,
            49.423944,
            0
          ],
          [
            1.981525,
            49.42396,
            0
          ],
          [
            1.981471,
            49.423968,
            0
          ],
          [
            1.980199,
            49.424062,
            0
          ],
          [
            1.980149,
            49.424057,
            0
          ],
          [
            1.980113,
            49.424039,
            0
          ],
          [
            1.980093,
            49.424009,
            0
          ],
          [
            1.980092,
            49.423979
          ],
          [
            1.98011,
            49.423952
          ],
          [
            1.980134,
            49.423934,
            0
          ],
          [
            1.98017,
            49.423918,
            0
          ],
          [
            1.980212,
            49.423912,
            0
          ],
          [
            1.980255,
            49.423912,
            0
          ],
          [
            1.981007,
            49.423946,
            0
          ],
          [
            1.981053,
            49.423947,
            0
          ],
          [
            1.981092,
            49.423944,
            0
          ],
          [
            1.981138,
            49.423929,
            0
          ],
          [
            1.981172,
            49.423905,
            0
          ],
          [
            1.981178,
            49.423882,
            0
          ],
          [
            1.98117,
            49.423861,
            0
          ],
          [
            1.98115,
            49.423841,
            0
          ],
          [
            1.981124,
            49.423828,
            0
          ],
          [
            1.981096,
            49.423823,
            0
          ],
          [
            1.981064,
            49.423827,
            0
          ],
          [
            1.981038,
            49.423835,
            0
          ],
          [
            1.980769,
            49.423977,
            0
          ],
          [
            1.980744,
            49.423989,
            0
          ],
          [
            1.980723,
            49.423997,
            0
          ],
          [
            1.980702,
            49.424001,
            0
          ],
          [
            1.980668,
            49.424005,
            0
          ],
          [
            1.980041,
            49.424051,
            0
          ]
        ]
      },
      "properties": {
        "name": "Track",
        "styleUrl": "#m_ylw-pushpin",
        "styleHash": "11bca759",
        "styleMapHash": {
          "normal": "#s_ylw-pushpin",
          "highlight": "#s_ylw-pushpin_hl"
        },
        "icon-scale": 1.1,
        "icon-offset": [
          20,
          2
        ],
        "icon": "http://maps.google.com/mapfiles/kml/pushpin/ylw-pushpin.png"
      }
    },
    {
      "type": "Feature",
      "properties": {
        "stroke": "#ff8000",
        "fill": "#ff8000",
        "name": "Station"
      },
      "geometry": {
        "type": "Polygon",
        "coordinates": [
          [
            [
              1.979916,
              49.424096
            ],
            [
              1.980058,
              49.424087
            ],
            [
              1.980047,
              49.424012
            ],
            [
              1.979905,
              49.424021
            ],
            [
              1.979916,
              49.424096
            ]
          ]
        ]
      }
    }
  ],
  "properties": {
    "name": "Wood Express",
    "color": "#ff2a00",
    "basemaps": [
      {
        "id": "custom_layer_1790370571807",
        "url": "[https://data.geopf.fr/wmts?SERVICE=WMTS&VERSION=1.0.0&REQUEST=GetTile&LAYER=HR.ORTHOIMAGERY.ORTHOPHOTOS&STYLE=normal&FORMAT=image/jpeg&TILEMATRIXSET=PM&TILEMATRIX=](https://data.geopf.fr/wmts?SERVICE=WMTS&VERSION=1.0.0&REQUEST=GetTile&LAYER=HR.ORTHOIMAGERY.ORTHOPHOTOS&STYLE=normal&FORMAT=image/jpeg&TILEMATRIXSET=PM&TILEMATRIX=){z}&TILEROW={y}&TILECOL={x}",
        "wmsLayer": "",
        "layerName": "Custom Layer 8",
        "opacity": 1
      }
    ]
  }
}