{
  "type": "FeatureCollection",
  "features": [
    {
      "type": "Feature",
      "geometry": {
        "type": "LineString",
        "coordinates": [
          [
            -73.150742,
            41.526524,
            0
          ],
          [
            -73.150789,
            41.526452,
            0
          ],
          [
            -73.150796,
            41.526425,
            0
          ],
          [
            -73.150786,
            41.526394,
            0
          ],
          [
            -73.150609,
            41.526068,
            0
          ],
          [
            -73.150606,
            41.526026,
            0
          ],
          [
            -73.150637,
            41.526008,
            0
          ],
          [
            -73.150672,
            41.526,
            0
          ],
          [
            -73.150714,
            41.526006,
            0
          ],
          [
            -73.150744,
            41.526027,
            0
          ],
          [
            -73.150771,
            41.526273,
            0
          ],
          [
            -73.150786,
            41.526326,
            0
          ],
          [
            -73.150811,
            41.52635,
            0
          ],
          [
            -73.150856,
            41.526376,
            0
          ],
          [
            -73.150913,
            41.526392,
            0
          ],
          [
            -73.151263,
            41.526425,
            0
          ],
          [
            -73.151337,
            41.526431,
            0
          ],
          [
            -73.15141,
            41.526433,
            0
          ],
          [
            -73.151473,
            41.526419,
            0
          ],
          [
            -73.151549,
            41.5264,
            0
          ],
          [
            -73.151608,
            41.526421,
            0
          ],
          [
            -73.151628,
            41.526466,
            0
          ],
          [
            -73.151611,
            41.526503,
            0
          ],
          [
            -73.151562,
            41.526533,
            0
          ],
          [
            -73.151495,
            41.526532,
            0
          ],
          [
            -73.151356,
            41.526487,
            0
          ],
          [
            -73.1513,
            41.526464,
            0
          ],
          [
            -73.151243,
            41.526448,
            0
          ],
          [
            -73.150777,
            41.526405,
            0
          ],
          [
            -73.150729,
            41.526414,
            0
          ],
          [
            -73.150694,
            41.526433,
            0
          ],
          [
            -73.150678,
            41.526464,
            0
          ],
          [
            -73.150678,
            41.526501,
            0
          ],
          [
            -73.150724,
            41.526735,
            0
          ],
          [
            -73.150748,
            41.526773,
            0
          ],
          [
            -73.150787,
            41.526795,
            0
          ],
          [
            -73.150839,
            41.526797,
            0
          ],
          [
            -73.150885,
            41.526774,
            0
          ],
          [
            -73.150882,
            41.526723,
            0
          ],
          [
            -73.150863,
            41.526693,
            0
          ],
          [
            -73.150752,
            41.52657,
            0
          ],
          [
            -73.150739,
            41.52655,
            0
          ],
          [
            -73.150742,
            41.526524,
            0
          ]
        ]
      },
      "properties": {
        "name": "Wooden Warrior",
        "styleUrl": "#m_ylw-pushpin",
        "styleHash": "11bca759",
        "styleMapHash": {
          "normal": "#s_ylw-pushpin",
          "highlight": "#s_ylw-pushpin_hl"
        },
        "icon-scale": 1.1,
        "icon-offset": [
          20,
          2
        ],
        "icon": "http://maps.google.com/mapfiles/kml/pushpin/ylw-pushpin.png"
      }
    }
  ]
}