{
  "type": "FeatureCollection",
  "features": [
    {
      "type": "Feature",
      "properties": {},
      "geometry": {
        "type": "LineString",
        "coordinates": [
          [
            -74.442907,
            40.134925
          ],
          [
            -74.442792,
            40.135034
          ],
          [
            -74.442784,
            40.135041
          ],
          [
            -74.442775,
            40.135047
          ],
          [
            -74.442764,
            40.135051
          ],
          [
            -74.442752,
            40.135052
          ],
          [
            -74.442738,
            40.135051
          ],
          [
            -74.442726,
            40.135048
          ],
          [
            -74.442714,
            40.135043
          ],
          [
            -74.442704,
            40.135035
          ],
          [
            -74.442697,
            40.135025
          ],
          [
            -74.442695,
            40.135016
          ],
          [
            -74.442695,
            40.135008
          ],
          [
            -74.442696,
            40.134999
          ],
          [
            -74.442699,
            40.134992
          ],
          [
            -74.442703,
            40.134985
          ],
          [
            -74.442761,
            40.134932
          ],
          [
            -74.442772,
            40.134926
          ],
          [
            -74.442783,
            40.134922
          ],
          [
            -74.442795,
            40.13492
          ],
          [
            -74.442806,
            40.134921
          ],
          [
            -74.442819,
            40.134926
          ],
          [
            -74.442827,
            40.134934
          ],
          [
            -74.442834,
            40.134946
          ],
          [
            -74.442836,
            40.134955
          ],
          [
            -74.442834,
            40.134964
          ],
          [
            -74.442827,
            40.134972
          ],
          [
            -74.442818,
            40.134978
          ],
          [
            -74.442807,
            40.134982
          ],
          [
            -74.442795,
            40.134983
          ],
          [
            -74.442785,
            40.134981
          ],
          [
            -74.442773,
            40.134977
          ],
          [
            -74.442764,
            40.134971
          ],
          [
            -74.442759,
            40.134964
          ],
          [
            -74.442756,
            40.134956
          ],
          [
            -74.442754,
            40.134949
          ],
          [
            -74.442758,
            40.134938
          ],
          [
            -74.442761,
            40.134932
          ],
          [
            -74.44282,
            40.134876
          ],
          [
            -74.442831,
            40.134868
          ],
          [
            -74.442843,
            40.134863
          ],
          [
            -74.442852,
            40.13486
          ],
          [
            -74.442863,
            40.134859
          ],
          [
            -74.442874,
            40.13486
          ],
          [
            -74.442886,
            40.134863
          ],
          [
            -74.442895,
            40.134867
          ],
          [
            -74.442906,
            40.134873
          ],
          [
            -74.442914,
            40.134884
          ],
          [
            -74.442918,
            40.134894
          ],
          [
            -74.442919,
            40.134904
          ],
          [
            -74.442915,
            40.134915
          ],
          [
            -74.442907,
            40.134925
          ]
        ]
      }
    }
  ],
  "properties": {
    "name": "Zamperla Family Coaster (Gravity 80STD)",
    "color": "#ff2a00",
    "basemaps": [
      {
        "id": "custom_layer_1789762097006",
        "url": "https://api.nearmap.com/wms/v1/places/2dc760f1-c48f-4d04-8a15-975e7a554fc9/apikey/MGFhOTM5NzMtYTRjZS00MDk1LWJkOTItN2RhYzdjMWNmYWZk?request=getcapabilities&service=wms",
        "wmsLayer": "",
        "layerName": "Ocean County Nearmap",
        "opacity": 1
      }
    ]
  }
}