{
  "type": "FeatureCollection",
  "features": [
    {
      "type": "Feature",
      "properties": {},
      "geometry": {
        "type": "LineString",
        "coordinates": [
          [
            -83.531391,
            35.796506
          ],
          [
            -83.531392,
            35.796578
          ],
          [
            -83.531386,
            35.796594
          ],
          [
            -83.531375,
            35.796609
          ],
          [
            -83.531351,
            35.796619
          ],
          [
            -83.531328,
            35.796619
          ],
          [
            -83.531312,
            35.796614
          ],
          [
            -83.531298,
            35.796604
          ],
          [
            -83.531289,
            35.796593
          ],
          [
            -83.531283,
            35.79658
          ],
          [
            -83.531284,
            35.796526
          ],
          [
            -83.531284,
            35.796498
          ],
          [
            -83.531295,
            35.796491
          ],
          [
            -83.531307,
            35.796487
          ],
          [
            -83.531325,
            35.796486
          ],
          [
            -83.53134,
            35.79649
          ],
          [
            -83.53135,
            35.796497
          ],
          [
            -83.531355,
            35.796512
          ],
          [
            -83.531353,
            35.796528
          ],
          [
            -83.531344,
            35.796537
          ],
          [
            -83.531324,
            35.796544
          ],
          [
            -83.531311,
            35.796543
          ],
          [
            -83.531299,
            35.79654
          ],
          [
            -83.531291,
            35.796533
          ],
          [
            -83.531284,
            35.796526
          ],
          [
            -83.531282,
            35.796417
          ],
          [
            -83.531293,
            35.796394
          ],
          [
            -83.531324,
            35.796383
          ],
          [
            -83.531362,
            35.796387
          ],
          [
            -83.531388,
            35.796407
          ],
          [
            -83.53139,
            35.796435
          ],
          [
            -83.531391,
            35.796506
          ]
        ]
      }
    }
  ],
  "properties": {
    "name": "Zamperla Family Coaster (92m)",
    "color": "#ff2a00",
    "basemaps": [
      {
        "id": "custom_layer_1789761410536",
        "url": "https://tnmap.tn.gov/arcgis/rest/services/BASEMAPS/IMAGERY_WEB_MERCATOR/MapServer",
        "wmsLayer": "",
        "layerName": "IMAGERY WEB MERCATOR",
        "opacity": 1
      }
    ]
  }
}