{
  "type": "FeatureCollection",
  "features": [
    {
      "type": "Feature",
      "properties": {
        "stroke": "#ff2a00",
        "fill": "#ff2a00",
        "name": "Zippin Pippin"
      },
      "geometry": {
        "type": "LineString",
        "coordinates": [
          [
            -87.983187,
            44.533168
          ],
          [
            -87.982982,
            44.533159
          ],
          [
            -87.982915,
            44.533155
          ],
          [
            -87.982884,
            44.53315
          ],
          [
            -87.982856,
            44.533136
          ],
          [
            -87.982835,
            44.533114
          ],
          [
            -87.982827,
            44.533086
          ],
          [
            -87.982834,
            44.533054
          ],
          [
            -87.982855,
            44.533028
          ],
          [
            -87.982886,
            44.533012
          ],
          [
            -87.982928,
            44.533006
          ],
          [
            -87.982981,
            44.533013
          ],
          [
            -87.983702,
            44.533147
          ],
          [
            -87.983753,
            44.533158
          ],
          [
            -87.983785,
            44.533173
          ],
          [
            -87.983816,
            44.533196
          ],
          [
            -87.983831,
            44.533228
          ],
          [
            -87.983832,
            44.53326
          ],
          [
            -87.983807,
            44.533295
          ],
          [
            -87.983775,
            44.533319
          ],
          [
            -87.983732,
            44.533333
          ],
          [
            -87.983681,
            44.533333
          ],
          [
            -87.98286,
            44.533167
          ],
          [
            -87.982809,
            44.533157
          ],
          [
            -87.982773,
            44.533139
          ],
          [
            -87.982746,
            44.53311
          ],
          [
            -87.982735,
            44.533076
          ],
          [
            -87.982741,
            44.533043
          ],
          [
            -87.982756,
            44.533014
          ],
          [
            -87.982788,
            44.532991
          ],
          [
            -87.982828,
            44.532976
          ],
          [
            -87.98288,
            44.53297
          ],
          [
            -87.982928,
            44.532978
          ],
          [
            -87.983766,
            44.533136
          ],
          [
            -87.983829,
            44.533149
          ],
          [
            -87.983893,
            44.533164
          ],
          [
            -87.983971,
            44.533189
          ],
          [
            -87.985298,
            44.533637
          ],
          [
            -87.98535,
            44.533656
          ],
          [
            -87.985385,
            44.533683
          ],
          [
            -87.985406,
            44.533714
          ],
          [
            -87.985414,
            44.533755
          ],
          [
            -87.985402,
            44.533791
          ],
          [
            -87.985365,
            44.533821
          ],
          [
            -87.985321,
            44.53384
          ],
          [
            -87.98526,
            44.533847
          ],
          [
            -87.985208,
            44.533838
          ],
          [
            -87.985153,
            44.533807
          ],
          [
            -87.984865,
            44.533541
          ],
          [
            -87.984837,
            44.533518
          ],
          [
            -87.984816,
            44.533504
          ],
          [
            -87.984783,
            44.53349
          ],
          [
            -87.98402,
            44.533232
          ],
          [
            -87.983972,
            44.533219
          ],
          [
            -87.983913,
            44.533214
          ],
          [
            -87.983187,
            44.533168
          ]
        ]
      }
    },
    {
      "type": "Feature",
      "properties": {
        "stroke": "#008000",
        "fill": "#008000",
        "name": "Station"
      },
      "geometry": {
        "type": "Polygon",
        "coordinates": [
          [
            [
              -87.982986,
              44.533098
            ],
            [
              -87.983194,
              44.533109
            ],
            [
              -87.983185,
              44.533198
            ],
            [
              -87.982976,
              44.533188
            ],
            [
              -87.982986,
              44.533098
            ]
          ]
        ]
      }
    }
  ],
  "properties": {
    "name": "Zippin Pippin",
    "color": "#ff2a00",
    "basemaps": [
      {
        "id": "custom_layer_1790389508836",
        "url": "https://dnrmaps.wi.gov/arcgis_image/rest/services/DW_Imagery/EN_Image_Basemap_Latest_Leaf_Off/ImageServer",
        "wmsLayer": "",
        "layerName": "EN Image Basemap Latest Leaf Off",
        "opacity": 1
      }
    ]
  }
}